{ "data": [{"id":"1","parent_id":"0","type":"1","zip_code":"110000","name":"北京","deleted":"0","subarea":[{"id":"2","parent_id":"1","type":"2","zip_code":"110100","name":"北京市","deleted":"0","subarea":[{"id":"3","parent_id":"2","type":"3","zip_code":"110101","name":"东城区","deleted":"0"},{"id":"4","parent_id":"2","type":"3","zip_code":"110102","name":"西城区","deleted":"0"},{"id":"5","parent_id":"2","type":"3","zip_code":"110105","name":"朝阳区","deleted":"0"},{"id":"6","parent_id":"2","type":"3","zip_code":"110106","name":"丰台区","deleted":"0"},{"id":"7","parent_id":"2","type":"3","zip_code":"110107","name":"石景山区","deleted":"0"},{"id":"8","parent_id":"2","type":"3","zip_code":"110108","name":"海淀区","deleted":"0"},{"id":"9","parent_id":"2","type":"3","zip_code":"110109","name":"门头沟区","deleted":"0"},{"id":"10","parent_id":"2","type":"3","zip_code":"110111","name":"房山区","deleted":"0"},{"id":"11","parent_id":"2","type":"3","zip_code":"110112","name":"通州区","deleted":"0"},{"id":"12","parent_id":"2","type":"3","zip_code":"110113","name":"顺义区","deleted":"0"},{"id":"13","parent_id":"2","type":"3","zip_code":"110114","name":"昌平区","deleted":"0"},{"id":"14","parent_id":"2","type":"3","zip_code":"110115","name":"大兴区","deleted":"0"},{"id":"15","parent_id":"2","type":"3","zip_code":"110116","name":"怀柔区","deleted":"0"},{"id":"16","parent_id":"2","type":"3","zip_code":"110117","name":"平谷区","deleted":"0"},{"id":"17","parent_id":"2","type":"3","zip_code":"110228","name":"密云区","deleted":"0"},{"id":"18","parent_id":"2","type":"3","zip_code":"110229","name":"延庆区","deleted":"0"}]}]},{"id":"19","parent_id":"0","type":"1","zip_code":"120000","name":"天津","deleted":"0","subarea":[{"id":"20","parent_id":"19","type":"2","zip_code":"120100","name":"天津市","deleted":"0","subarea":[{"id":"21","parent_id":"20","type":"3","zip_code":"120101","name":"和平区","deleted":"0"},{"id":"22","parent_id":"20","type":"3","zip_code":"120102","name":"河东区","deleted":"0"},{"id":"23","parent_id":"20","type":"3","zip_code":"120103","name":"河西区","deleted":"0"},{"id":"24","parent_id":"20","type":"3","zip_code":"120104","name":"南开区","deleted":"0"},{"id":"25","parent_id":"20","type":"3","zip_code":"120105","name":"河北区","deleted":"0"},{"id":"26","parent_id":"20","type":"3","zip_code":"120106","name":"红桥区","deleted":"0"},{"id":"27","parent_id":"20","type":"3","zip_code":"120110","name":"东丽区","deleted":"0"},{"id":"28","parent_id":"20","type":"3","zip_code":"120111","name":"西青区","deleted":"0"},{"id":"29","parent_id":"20","type":"3","zip_code":"120112","name":"津南区","deleted":"0"},{"id":"30","parent_id":"20","type":"3","zip_code":"120113","name":"北辰区","deleted":"0"},{"id":"31","parent_id":"20","type":"3","zip_code":"120114","name":"武清区","deleted":"0"},{"id":"32","parent_id":"20","type":"3","zip_code":"120115","name":"宝坻区","deleted":"0"},{"id":"33","parent_id":"20","type":"3","zip_code":"120116","name":"滨海新区","deleted":"0"},{"id":"34","parent_id":"20","type":"3","zip_code":"120117","name":"宁河区","deleted":"0"},{"id":"35","parent_id":"20","type":"3","zip_code":"120118","name":"静海区","deleted":"0"},{"id":"36","parent_id":"20","type":"3","zip_code":"120225","name":"蓟州区","deleted":"0"}]}]},{"id":"37","parent_id":"0","type":"1","zip_code":"130000","name":"河北省","deleted":"0","subarea":[{"id":"38","parent_id":"37","type":"2","zip_code":"130100","name":"石家庄市","deleted":"0","subarea":[{"id":"39","parent_id":"38","type":"3","zip_code":"130102","name":"长安区","deleted":"0"},{"id":"40","parent_id":"38","type":"3","zip_code":"130104","name":"桥西区","deleted":"0"},{"id":"41","parent_id":"38","type":"3","zip_code":"130105","name":"新华区","deleted":"0"},{"id":"42","parent_id":"38","type":"3","zip_code":"130107","name":"井陉矿区","deleted":"0"},{"id":"43","parent_id":"38","type":"3","zip_code":"130108","name":"裕华区","deleted":"0"},{"id":"44","parent_id":"38","type":"3","zip_code":"130109","name":"藁城区","deleted":"0"},{"id":"45","parent_id":"38","type":"3","zip_code":"130110","name":"鹿泉区","deleted":"0"},{"id":"46","parent_id":"38","type":"3","zip_code":"130111","name":"栾城区","deleted":"0"},{"id":"47","parent_id":"38","type":"3","zip_code":"130121","name":"井陉县","deleted":"0"},{"id":"48","parent_id":"38","type":"3","zip_code":"130123","name":"正定县","deleted":"0"},{"id":"49","parent_id":"38","type":"3","zip_code":"130125","name":"行唐县","deleted":"0"},{"id":"50","parent_id":"38","type":"3","zip_code":"130126","name":"灵寿县","deleted":"0"},{"id":"51","parent_id":"38","type":"3","zip_code":"130127","name":"高邑县","deleted":"0"},{"id":"52","parent_id":"38","type":"3","zip_code":"130128","name":"深泽县","deleted":"0"},{"id":"53","parent_id":"38","type":"3","zip_code":"130129","name":"赞皇县","deleted":"0"},{"id":"54","parent_id":"38","type":"3","zip_code":"130130","name":"无极县","deleted":"0"},{"id":"55","parent_id":"38","type":"3","zip_code":"130131","name":"平山县","deleted":"0"},{"id":"56","parent_id":"38","type":"3","zip_code":"130132","name":"元氏县","deleted":"0"},{"id":"57","parent_id":"38","type":"3","zip_code":"130133","name":"赵县","deleted":"0"},{"id":"58","parent_id":"38","type":"3","zip_code":"139002","name":"辛集市","deleted":"0"},{"id":"59","parent_id":"38","type":"3","zip_code":"130183","name":"晋州市","deleted":"0"},{"id":"60","parent_id":"38","type":"3","zip_code":"130184","name":"新乐市","deleted":"0"}]},{"id":"61","parent_id":"37","type":"2","zip_code":"130200","name":"唐山市","deleted":"0","subarea":[{"id":"62","parent_id":"61","type":"3","zip_code":"130202","name":"路南区","deleted":"0"},{"id":"63","parent_id":"61","type":"3","zip_code":"130203","name":"路北区","deleted":"0"},{"id":"64","parent_id":"61","type":"3","zip_code":"130204","name":"古冶区","deleted":"0"},{"id":"65","parent_id":"61","type":"3","zip_code":"130205","name":"开平区","deleted":"0"},{"id":"66","parent_id":"61","type":"3","zip_code":"130207","name":"丰南区","deleted":"0"},{"id":"67","parent_id":"61","type":"3","zip_code":"130208","name":"丰润区","deleted":"0"},{"id":"68","parent_id":"61","type":"3","zip_code":"130209","name":"曹妃甸区","deleted":"0"},{"id":"69","parent_id":"61","type":"3","zip_code":"130223","name":"滦县","deleted":"0"},{"id":"70","parent_id":"61","type":"3","zip_code":"130224","name":"滦南县","deleted":"0"},{"id":"71","parent_id":"61","type":"3","zip_code":"130225","name":"乐亭县","deleted":"0"},{"id":"72","parent_id":"61","type":"3","zip_code":"130227","name":"迁西县","deleted":"0"},{"id":"73","parent_id":"61","type":"3","zip_code":"130229","name":"玉田县","deleted":"0"},{"id":"74","parent_id":"61","type":"3","zip_code":"130281","name":"遵化市","deleted":"0"},{"id":"75","parent_id":"61","type":"3","zip_code":"130283","name":"迁安市","deleted":"0"}]},{"id":"76","parent_id":"37","type":"2","zip_code":"130300","name":"秦皇岛市","deleted":"0","subarea":[{"id":"77","parent_id":"76","type":"3","zip_code":"130302","name":"海港区","deleted":"0"},{"id":"78","parent_id":"76","type":"3","zip_code":"130303","name":"山海关区","deleted":"0"},{"id":"79","parent_id":"76","type":"3","zip_code":"130304","name":"北戴河区","deleted":"0"},{"id":"80","parent_id":"76","type":"3","zip_code":"130306","name":"抚宁区","deleted":"0"},{"id":"81","parent_id":"76","type":"3","zip_code":"130321","name":"青龙县","deleted":"0"},{"id":"82","parent_id":"76","type":"3","zip_code":"130322","name":"昌黎县","deleted":"0"},{"id":"83","parent_id":"76","type":"3","zip_code":"130324","name":"卢龙县","deleted":"0"}]},{"id":"84","parent_id":"37","type":"2","zip_code":"130400","name":"邯郸市","deleted":"0","subarea":[{"id":"85","parent_id":"84","type":"3","zip_code":"130402","name":"邯山区","deleted":"0"},{"id":"86","parent_id":"84","type":"3","zip_code":"130403","name":"丛台区","deleted":"0"},{"id":"87","parent_id":"84","type":"3","zip_code":"130404","name":"复兴区","deleted":"0"},{"id":"88","parent_id":"84","type":"3","zip_code":"130406","name":"峰峰矿区","deleted":"0"},{"id":"89","parent_id":"84","type":"3","zip_code":"130421","name":"邯郸县","deleted":"0"},{"id":"90","parent_id":"84","type":"3","zip_code":"130423","name":"临漳县","deleted":"0"},{"id":"91","parent_id":"84","type":"3","zip_code":"130424","name":"成安县","deleted":"0"},{"id":"92","parent_id":"84","type":"3","zip_code":"130425","name":"大名县","deleted":"0"},{"id":"93","parent_id":"84","type":"3","zip_code":"130426","name":"涉县","deleted":"0"},{"id":"94","parent_id":"84","type":"3","zip_code":"130427","name":"磁县","deleted":"0"},{"id":"95","parent_id":"84","type":"3","zip_code":"130428","name":"肥乡县","deleted":"0"},{"id":"96","parent_id":"84","type":"3","zip_code":"130429","name":"永年县","deleted":"0"},{"id":"97","parent_id":"84","type":"3","zip_code":"130430","name":"邱县","deleted":"0"},{"id":"98","parent_id":"84","type":"3","zip_code":"130431","name":"鸡泽县","deleted":"0"},{"id":"99","parent_id":"84","type":"3","zip_code":"130432","name":"广平县","deleted":"0"},{"id":"100","parent_id":"84","type":"3","zip_code":"130433","name":"馆陶县","deleted":"0"},{"id":"101","parent_id":"84","type":"3","zip_code":"130434","name":"魏县","deleted":"0"},{"id":"102","parent_id":"84","type":"3","zip_code":"130435","name":"曲周县","deleted":"0"},{"id":"103","parent_id":"84","type":"3","zip_code":"130481","name":"武安市","deleted":"0"}]},{"id":"104","parent_id":"37","type":"2","zip_code":"130500","name":"邢台市","deleted":"0","subarea":[{"id":"105","parent_id":"104","type":"3","zip_code":"130502","name":"桥东区","deleted":"0"},{"id":"106","parent_id":"104","type":"3","zip_code":"130503","name":"桥西区","deleted":"0"},{"id":"107","parent_id":"104","type":"3","zip_code":"130521","name":"邢台县","deleted":"0"},{"id":"108","parent_id":"104","type":"3","zip_code":"130522","name":"临城县","deleted":"0"},{"id":"109","parent_id":"104","type":"3","zip_code":"130523","name":"内丘县","deleted":"0"},{"id":"110","parent_id":"104","type":"3","zip_code":"130524","name":"柏乡县","deleted":"0"},{"id":"111","parent_id":"104","type":"3","zip_code":"130525","name":"隆尧县","deleted":"0"},{"id":"112","parent_id":"104","type":"3","zip_code":"130526","name":"任县","deleted":"0"},{"id":"113","parent_id":"104","type":"3","zip_code":"130527","name":"南和县","deleted":"0"},{"id":"114","parent_id":"104","type":"3","zip_code":"130528","name":"宁晋县","deleted":"0"},{"id":"115","parent_id":"104","type":"3","zip_code":"130529","name":"巨鹿县","deleted":"0"},{"id":"116","parent_id":"104","type":"3","zip_code":"130530","name":"新河县","deleted":"0"},{"id":"117","parent_id":"104","type":"3","zip_code":"130531","name":"广宗县","deleted":"0"},{"id":"118","parent_id":"104","type":"3","zip_code":"130532","name":"平乡县","deleted":"0"},{"id":"119","parent_id":"104","type":"3","zip_code":"130533","name":"威县","deleted":"0"},{"id":"120","parent_id":"104","type":"3","zip_code":"130534","name":"清河县","deleted":"0"},{"id":"121","parent_id":"104","type":"3","zip_code":"130535","name":"临西县","deleted":"0"},{"id":"122","parent_id":"104","type":"3","zip_code":"130581","name":"南宫市","deleted":"0"},{"id":"123","parent_id":"104","type":"3","zip_code":"130582","name":"沙河市","deleted":"0"}]},{"id":"124","parent_id":"37","type":"2","zip_code":"130600","name":"保定市","deleted":"0","subarea":[{"id":"125","parent_id":"124","type":"3","zip_code":"130602","name":"竞秀区","deleted":"0"},{"id":"126","parent_id":"124","type":"3","zip_code":"130606","name":"莲池区","deleted":"0"},{"id":"127","parent_id":"124","type":"3","zip_code":"130607","name":"满城区","deleted":"0"},{"id":"128","parent_id":"124","type":"3","zip_code":"130608","name":"清苑区","deleted":"0"},{"id":"129","parent_id":"124","type":"3","zip_code":"130609","name":"徐水区","deleted":"0"},{"id":"130","parent_id":"124","type":"3","zip_code":"130623","name":"涞水县","deleted":"0"},{"id":"131","parent_id":"124","type":"3","zip_code":"130624","name":"阜平县","deleted":"0"},{"id":"132","parent_id":"124","type":"3","zip_code":"130626","name":"定兴县","deleted":"0"},{"id":"133","parent_id":"124","type":"3","zip_code":"130627","name":"唐县","deleted":"0"},{"id":"134","parent_id":"124","type":"3","zip_code":"130628","name":"高阳县","deleted":"0"},{"id":"135","parent_id":"124","type":"3","zip_code":"130629","name":"容城县","deleted":"0"},{"id":"136","parent_id":"124","type":"3","zip_code":"130630","name":"涞源县","deleted":"0"},{"id":"137","parent_id":"124","type":"3","zip_code":"130631","name":"望都县","deleted":"0"},{"id":"138","parent_id":"124","type":"3","zip_code":"130632","name":"安新县","deleted":"0"},{"id":"139","parent_id":"124","type":"3","zip_code":"130633","name":"易县","deleted":"0"},{"id":"140","parent_id":"124","type":"3","zip_code":"130634","name":"曲阳县","deleted":"0"},{"id":"141","parent_id":"124","type":"3","zip_code":"130635","name":"蠡县","deleted":"0"},{"id":"142","parent_id":"124","type":"3","zip_code":"130636","name":"顺平县","deleted":"0"},{"id":"143","parent_id":"124","type":"3","zip_code":"130637","name":"博野县","deleted":"0"},{"id":"144","parent_id":"124","type":"3","zip_code":"130638","name":"雄县","deleted":"0"},{"id":"145","parent_id":"124","type":"3","zip_code":"130681","name":"涿州市","deleted":"0"},{"id":"147","parent_id":"124","type":"3","zip_code":"130683","name":"安国市","deleted":"0"},{"id":"148","parent_id":"124","type":"3","zip_code":"130684","name":"高碑店市","deleted":"0"}]},{"id":"166","parent_id":"37","type":"2","zip_code":"130800","name":"承德市","deleted":"0","subarea":[{"id":"167","parent_id":"166","type":"3","zip_code":"130802","name":"双桥区","deleted":"0"},{"id":"168","parent_id":"166","type":"3","zip_code":"130803","name":"双滦区","deleted":"0"},{"id":"169","parent_id":"166","type":"3","zip_code":"130804","name":"鹰手营子矿区","deleted":"0"},{"id":"170","parent_id":"166","type":"3","zip_code":"130821","name":"承德县","deleted":"0"},{"id":"171","parent_id":"166","type":"3","zip_code":"130822","name":"兴隆县","deleted":"0"},{"id":"172","parent_id":"166","type":"3","zip_code":"130823","name":"平泉县","deleted":"0"},{"id":"173","parent_id":"166","type":"3","zip_code":"130824","name":"滦平县","deleted":"0"},{"id":"174","parent_id":"166","type":"3","zip_code":"130825","name":"隆化县","deleted":"0"},{"id":"175","parent_id":"166","type":"3","zip_code":"130826","name":"丰宁县","deleted":"0"},{"id":"176","parent_id":"166","type":"3","zip_code":"130827","name":"宽城县","deleted":"0"},{"id":"177","parent_id":"166","type":"3","zip_code":"130828","name":"围场县","deleted":"0"}]},{"id":"194","parent_id":"37","type":"2","zip_code":"131000","name":"廊坊市","deleted":"0","subarea":[{"id":"195","parent_id":"194","type":"3","zip_code":"131002","name":"安次区","deleted":"0"},{"id":"196","parent_id":"194","type":"3","zip_code":"121003","name":"广阳区","deleted":"0"},{"id":"197","parent_id":"194","type":"3","zip_code":"131022","name":"固安县","deleted":"0"},{"id":"198","parent_id":"194","type":"3","zip_code":"131023","name":"永清县","deleted":"0"},{"id":"199","parent_id":"194","type":"3","zip_code":"121024","name":"香河县","deleted":"0"},{"id":"200","parent_id":"194","type":"3","zip_code":"131025","name":"大城县","deleted":"0"},{"id":"201","parent_id":"194","type":"3","zip_code":"131026","name":"文安县","deleted":"0"},{"id":"202","parent_id":"194","type":"3","zip_code":"131028","name":"大厂县","deleted":"0"},{"id":"203","parent_id":"194","type":"3","zip_code":"121081","name":"霸州市","deleted":"0"},{"id":"204","parent_id":"194","type":"3","zip_code":"131082","name":"三河市","deleted":"0"}]}]},{"id":"217","parent_id":"0","type":"1","zip_code":"140000","name":"山西省","deleted":"0","subarea":[{"id":"218","parent_id":"217","type":"2","zip_code":"140100","name":"太原市","deleted":"0","subarea":[{"id":"219","parent_id":"218","type":"3","zip_code":"140105","name":"小店区","deleted":"0"},{"id":"220","parent_id":"218","type":"3","zip_code":"140106","name":"迎泽区","deleted":"0"},{"id":"221","parent_id":"218","type":"3","zip_code":"140107","name":"杏花岭区","deleted":"0"},{"id":"222","parent_id":"218","type":"3","zip_code":"140108","name":"尖草坪区","deleted":"0"},{"id":"223","parent_id":"218","type":"3","zip_code":"140109","name":"万柏林区","deleted":"0"},{"id":"224","parent_id":"218","type":"3","zip_code":"140110","name":"晋源区","deleted":"0"},{"id":"225","parent_id":"218","type":"3","zip_code":"140121","name":"清徐县","deleted":"0"},{"id":"226","parent_id":"218","type":"3","zip_code":"140122","name":"阳曲县","deleted":"0"},{"id":"227","parent_id":"218","type":"3","zip_code":"140123","name":"娄烦县","deleted":"0"},{"id":"228","parent_id":"218","type":"3","zip_code":"140181","name":"古交市","deleted":"0"}]},{"id":"229","parent_id":"217","type":"2","zip_code":"140200","name":"大同市","deleted":"0","subarea":[{"id":"230","parent_id":"229","type":"3","zip_code":"140202","name":"城区","deleted":"0"},{"id":"231","parent_id":"229","type":"3","zip_code":"140203","name":"矿区","deleted":"0"},{"id":"232","parent_id":"229","type":"3","zip_code":"140211","name":"南郊区","deleted":"0"},{"id":"233","parent_id":"229","type":"3","zip_code":"140212","name":"新荣区","deleted":"0"},{"id":"234","parent_id":"229","type":"3","zip_code":"140221","name":"阳高县","deleted":"0"},{"id":"235","parent_id":"229","type":"3","zip_code":"140222","name":"天镇县","deleted":"0"},{"id":"236","parent_id":"229","type":"3","zip_code":"140223","name":"广灵县","deleted":"0"},{"id":"237","parent_id":"229","type":"3","zip_code":"140224","name":"灵丘县","deleted":"0"},{"id":"238","parent_id":"229","type":"3","zip_code":"140225","name":"浑源县","deleted":"0"},{"id":"239","parent_id":"229","type":"3","zip_code":"140226","name":"左云县","deleted":"0"},{"id":"240","parent_id":"229","type":"3","zip_code":"140227","name":"大同县","deleted":"0"}]},{"id":"261","parent_id":"217","type":"2","zip_code":"140500","name":"晋城市","deleted":"0","subarea":[{"id":"262","parent_id":"261","type":"3","zip_code":"140502","name":"城区","deleted":"0"},{"id":"263","parent_id":"261","type":"3","zip_code":"140521","name":"沁水县","deleted":"0"},{"id":"264","parent_id":"261","type":"3","zip_code":"140522","name":"阳城县","deleted":"0"},{"id":"265","parent_id":"261","type":"3","zip_code":"140524","name":"陵川县","deleted":"0"},{"id":"266","parent_id":"261","type":"3","zip_code":"140525","name":"泽州县","deleted":"0"},{"id":"267","parent_id":"261","type":"3","zip_code":"140581","name":"高平市","deleted":"0"}]},{"id":"275","parent_id":"217","type":"2","zip_code":"140700","name":"晋中市","deleted":"0","subarea":[{"id":"276","parent_id":"275","type":"3","zip_code":"140702","name":"榆次区","deleted":"0"},{"id":"277","parent_id":"275","type":"3","zip_code":"140721","name":"榆社县","deleted":"0"},{"id":"278","parent_id":"275","type":"3","zip_code":"140722","name":"左权县","deleted":"0"},{"id":"279","parent_id":"275","type":"3","zip_code":"140723","name":"和顺县","deleted":"0"},{"id":"280","parent_id":"275","type":"3","zip_code":"140724","name":"昔阳县","deleted":"0"},{"id":"281","parent_id":"275","type":"3","zip_code":"140725","name":"寿阳县","deleted":"0"},{"id":"282","parent_id":"275","type":"3","zip_code":"140726","name":"太谷县","deleted":"0"},{"id":"283","parent_id":"275","type":"3","zip_code":"140727","name":"祁县","deleted":"0"},{"id":"284","parent_id":"275","type":"3","zip_code":"140728","name":"平遥县","deleted":"0"},{"id":"285","parent_id":"275","type":"3","zip_code":"140729","name":"灵石县","deleted":"0"},{"id":"3272","parent_id":"275","type":"3","zip_code":"140781","name":"介休市","deleted":"0"}]},{"id":"286","parent_id":"217","type":"2","zip_code":"140800","name":"运城市","deleted":"0","subarea":[{"id":"287","parent_id":"286","type":"3","zip_code":"140802","name":"盐湖区","deleted":"0"},{"id":"288","parent_id":"286","type":"3","zip_code":"140821","name":"临猗县","deleted":"0"},{"id":"289","parent_id":"286","type":"3","zip_code":"140822","name":"万荣县","deleted":"0"},{"id":"290","parent_id":"286","type":"3","zip_code":"140823","name":"闻喜县","deleted":"0"},{"id":"291","parent_id":"286","type":"3","zip_code":"140824","name":"稷山县","deleted":"0"},{"id":"292","parent_id":"286","type":"3","zip_code":"140825","name":"新绛县","deleted":"0"},{"id":"293","parent_id":"286","type":"3","zip_code":"140826","name":"绛县","deleted":"0"},{"id":"294","parent_id":"286","type":"3","zip_code":"140827","name":"垣曲县","deleted":"0"},{"id":"295","parent_id":"286","type":"3","zip_code":"140828","name":"夏县","deleted":"0"},{"id":"296","parent_id":"286","type":"3","zip_code":"140829","name":"平陆县","deleted":"0"},{"id":"297","parent_id":"286","type":"3","zip_code":"140830","name":"芮城县","deleted":"0"},{"id":"298","parent_id":"286","type":"3","zip_code":"140881","name":"永济市","deleted":"0"},{"id":"299","parent_id":"286","type":"3","zip_code":"140882","name":"河津市","deleted":"0"}]}]},{"id":"347","parent_id":"0","type":"1","zip_code":"150000","name":"内蒙古","deleted":"0","subarea":[{"id":"358","parent_id":"347","type":"2","zip_code":"150200","name":"包头市","deleted":"0","subarea":[{"id":"359","parent_id":"358","type":"3","zip_code":"150202","name":"东河区","deleted":"0"},{"id":"360","parent_id":"358","type":"3","zip_code":"150203","name":"昆都仑区","deleted":"0"},{"id":"361","parent_id":"358","type":"3","zip_code":"150204","name":"青山区","deleted":"0"},{"id":"362","parent_id":"358","type":"3","zip_code":"150205","name":"石拐区","deleted":"0"},{"id":"363","parent_id":"358","type":"3","zip_code":"150206","name":"白云鄂博矿区","deleted":"0"},{"id":"364","parent_id":"358","type":"3","zip_code":"150207","name":"九原区","deleted":"0"},{"id":"365","parent_id":"358","type":"3","zip_code":"150221","name":"土默特右旗","deleted":"0"},{"id":"366","parent_id":"358","type":"3","zip_code":"150222","name":"固阳县","deleted":"0"},{"id":"367","parent_id":"358","type":"3","zip_code":"150223","name":"达茂联合旗","deleted":"0"}]},{"id":"372","parent_id":"347","type":"2","zip_code":"150400","name":"赤峰市","deleted":"0","subarea":[{"id":"373","parent_id":"372","type":"3","zip_code":"150402","name":"红山区","deleted":"0"},{"id":"374","parent_id":"372","type":"3","zip_code":"150403","name":"元宝山区","deleted":"0"},{"id":"375","parent_id":"372","type":"3","zip_code":"150404","name":"松山区","deleted":"0"},{"id":"376","parent_id":"372","type":"3","zip_code":"150421","name":"阿鲁科尔沁旗","deleted":"0"},{"id":"377","parent_id":"372","type":"3","zip_code":"150422","name":"巴林左旗","deleted":"0"},{"id":"378","parent_id":"372","type":"3","zip_code":"150423","name":"巴林右旗","deleted":"0"},{"id":"379","parent_id":"372","type":"3","zip_code":"150424","name":"林西县","deleted":"0"},{"id":"380","parent_id":"372","type":"3","zip_code":"150425","name":"克什克腾旗","deleted":"0"},{"id":"381","parent_id":"372","type":"3","zip_code":"150426","name":"翁牛特旗","deleted":"0"},{"id":"382","parent_id":"372","type":"3","zip_code":"150428","name":"喀喇沁旗","deleted":"0"},{"id":"383","parent_id":"372","type":"3","zip_code":"150429","name":"宁城县","deleted":"0"},{"id":"384","parent_id":"372","type":"3","zip_code":"150430","name":"敖汉旗","deleted":"0"}]},{"id":"385","parent_id":"347","type":"2","zip_code":"150500","name":"通辽市","deleted":"0","subarea":[{"id":"386","parent_id":"385","type":"3","zip_code":"150502","name":"科尔沁区","deleted":"0"},{"id":"387","parent_id":"385","type":"3","zip_code":"150521","name":"科左中旗","deleted":"0"},{"id":"388","parent_id":"385","type":"3","zip_code":"150522","name":"科左后旗","deleted":"0"},{"id":"389","parent_id":"385","type":"3","zip_code":"150523","name":"开鲁县","deleted":"0"},{"id":"390","parent_id":"385","type":"3","zip_code":"150524","name":"库伦旗","deleted":"0"},{"id":"391","parent_id":"385","type":"3","zip_code":"150525","name":"奈曼旗","deleted":"0"},{"id":"392","parent_id":"385","type":"3","zip_code":"150526","name":"扎鲁特旗","deleted":"0"},{"id":"393","parent_id":"385","type":"3","zip_code":"150581","name":"霍林郭勒市","deleted":"0"}]}]},{"id":"576","parent_id":"0","type":"1","zip_code":"220000","name":"吉林省","deleted":"0","subarea":[{"id":"577","parent_id":"576","type":"2","zip_code":"220100","name":"长春市","deleted":"0","subarea":[{"id":"578","parent_id":"577","type":"3","zip_code":"220102","name":"南关区","deleted":"0"},{"id":"579","parent_id":"577","type":"3","zip_code":"220103","name":"宽城区","deleted":"0"},{"id":"580","parent_id":"577","type":"3","zip_code":"220104","name":"朝阳区","deleted":"0"},{"id":"581","parent_id":"577","type":"3","zip_code":"220105","name":"二道区","deleted":"0"},{"id":"582","parent_id":"577","type":"3","zip_code":"220106","name":"绿园区","deleted":"0"},{"id":"583","parent_id":"577","type":"3","zip_code":"220112","name":"双阳区","deleted":"0"},{"id":"584","parent_id":"577","type":"3","zip_code":"220113","name":"九台区","deleted":"0"},{"id":"585","parent_id":"577","type":"3","zip_code":"220122","name":"农安县","deleted":"0"},{"id":"586","parent_id":"577","type":"3","zip_code":"220182","name":"榆树市","deleted":"0"},{"id":"587","parent_id":"577","type":"3","zip_code":"220183","name":"德惠市","deleted":"0"}]},{"id":"637","parent_id":"576","type":"2","zip_code":"222400","name":"延边州","deleted":"0","subarea":[{"id":"638","parent_id":"637","type":"3","zip_code":"222401","name":"延吉市","deleted":"0"}]}]},{"id":"646","parent_id":"0","type":"1","zip_code":"230000","name":"黑龙江省","deleted":"0","subarea":[{"id":"647","parent_id":"646","type":"2","zip_code":"230100","name":"哈尔滨市","deleted":"0","subarea":[{"id":"648","parent_id":"647","type":"3","zip_code":"230102","name":"道里区","deleted":"0"},{"id":"649","parent_id":"647","type":"3","zip_code":"230103","name":"南岗区","deleted":"0"},{"id":"650","parent_id":"647","type":"3","zip_code":"230104","name":"道外区","deleted":"0"},{"id":"651","parent_id":"647","type":"3","zip_code":"230108","name":"平房区","deleted":"0"},{"id":"652","parent_id":"647","type":"3","zip_code":"230109","name":"松北区","deleted":"0"},{"id":"653","parent_id":"647","type":"3","zip_code":"230110","name":"香坊区","deleted":"0"},{"id":"654","parent_id":"647","type":"3","zip_code":"230111","name":"呼兰区","deleted":"0"},{"id":"655","parent_id":"647","type":"3","zip_code":"230112","name":"阿城区","deleted":"0"},{"id":"656","parent_id":"647","type":"3","zip_code":"230113","name":"双城区","deleted":"0"},{"id":"657","parent_id":"647","type":"3","zip_code":"230123","name":"依兰县","deleted":"0"},{"id":"658","parent_id":"647","type":"3","zip_code":"230124","name":"方正县","deleted":"0"},{"id":"659","parent_id":"647","type":"3","zip_code":"230125","name":"宾县","deleted":"0"},{"id":"660","parent_id":"647","type":"3","zip_code":"230126","name":"巴彦县","deleted":"0"},{"id":"661","parent_id":"647","type":"3","zip_code":"230127","name":"木兰县","deleted":"0"},{"id":"662","parent_id":"647","type":"3","zip_code":"230128","name":"通河县","deleted":"0"},{"id":"663","parent_id":"647","type":"3","zip_code":"230129","name":"延寿县","deleted":"0"},{"id":"664","parent_id":"647","type":"3","zip_code":"230783","name":"尚志市","deleted":"0"},{"id":"665","parent_id":"647","type":"3","zip_code":"230184","name":"五常市","deleted":"0"}]},{"id":"666","parent_id":"646","type":"2","zip_code":"230200","name":"齐齐哈尔市","deleted":"0","subarea":[{"id":"667","parent_id":"666","type":"3","zip_code":"230202","name":"龙沙区","deleted":"0"},{"id":"668","parent_id":"666","type":"3","zip_code":"230203","name":"建华区","deleted":"0"},{"id":"669","parent_id":"666","type":"3","zip_code":"230204","name":"铁锋区","deleted":"0"},{"id":"670","parent_id":"666","type":"3","zip_code":"230205","name":"昂昂溪区","deleted":"0"},{"id":"671","parent_id":"666","type":"3","zip_code":"230206","name":"富拉尔基区","deleted":"0"},{"id":"672","parent_id":"666","type":"3","zip_code":"230207","name":"碾子山区","deleted":"0"},{"id":"673","parent_id":"666","type":"3","zip_code":"230208","name":"梅里斯区","deleted":"0"},{"id":"674","parent_id":"666","type":"3","zip_code":"230221","name":"龙江县","deleted":"0"},{"id":"675","parent_id":"666","type":"3","zip_code":"230223","name":"依安县","deleted":"0"},{"id":"676","parent_id":"666","type":"3","zip_code":"230224","name":"泰来县","deleted":"0"},{"id":"677","parent_id":"666","type":"3","zip_code":"230225","name":"甘南县","deleted":"0"},{"id":"678","parent_id":"666","type":"3","zip_code":"230227","name":"富裕县","deleted":"0"},{"id":"679","parent_id":"666","type":"3","zip_code":"230229","name":"克山县","deleted":"0"},{"id":"680","parent_id":"666","type":"3","zip_code":"230230","name":"克东县","deleted":"0"},{"id":"681","parent_id":"666","type":"3","zip_code":"230231","name":"拜泉县","deleted":"0"},{"id":"682","parent_id":"666","type":"3","zip_code":"230281","name":"讷河市","deleted":"0"}]},{"id":"702","parent_id":"646","type":"2","zip_code":"230500","name":"双鸭山市","deleted":"0","subarea":[{"id":"703","parent_id":"702","type":"3","zip_code":"230502","name":"尖山区","deleted":"0"},{"id":"704","parent_id":"702","type":"3","zip_code":"230503","name":"岭东区","deleted":"0"},{"id":"705","parent_id":"702","type":"3","zip_code":"230505","name":"四方台区","deleted":"0"},{"id":"706","parent_id":"702","type":"3","zip_code":"230506","name":"宝山区","deleted":"0"},{"id":"707","parent_id":"702","type":"3","zip_code":"230521","name":"集贤县","deleted":"0"},{"id":"708","parent_id":"702","type":"3","zip_code":"230522","name":"友谊县","deleted":"0"},{"id":"709","parent_id":"702","type":"3","zip_code":"230523","name":"宝清县","deleted":"0"},{"id":"710","parent_id":"702","type":"3","zip_code":"230524","name":"饶河县","deleted":"0"}]},{"id":"711","parent_id":"646","type":"2","zip_code":"230600","name":"大庆市","deleted":"0","subarea":[{"id":"712","parent_id":"711","type":"3","zip_code":"230602","name":"萨尔图区","deleted":"0"},{"id":"713","parent_id":"711","type":"3","zip_code":"230603","name":"龙凤区","deleted":"0"},{"id":"714","parent_id":"711","type":"3","zip_code":"230604","name":"让胡路区","deleted":"0"},{"id":"715","parent_id":"711","type":"3","zip_code":"230605","name":"红岗区","deleted":"0"},{"id":"716","parent_id":"711","type":"3","zip_code":"230606","name":"大同区","deleted":"0"},{"id":"717","parent_id":"711","type":"3","zip_code":"230621","name":"肇州县","deleted":"0"},{"id":"718","parent_id":"711","type":"3","zip_code":"230622","name":"肇源县","deleted":"0"},{"id":"719","parent_id":"711","type":"3","zip_code":"230623","name":"林甸县","deleted":"0"},{"id":"720","parent_id":"711","type":"3","zip_code":"230624","name":"杜尔伯特县","deleted":"0"}]},{"id":"739","parent_id":"646","type":"2","zip_code":"230800","name":"佳木斯市","deleted":"0","subarea":[{"id":"740","parent_id":"739","type":"3","zip_code":"230803","name":"向阳区","deleted":"0"},{"id":"741","parent_id":"739","type":"3","zip_code":"230804","name":"前进区","deleted":"0"},{"id":"742","parent_id":"739","type":"3","zip_code":"230805","name":"东风区","deleted":"0"},{"id":"743","parent_id":"739","type":"3","zip_code":"230811","name":"郊区","deleted":"0"},{"id":"744","parent_id":"739","type":"3","zip_code":"230822","name":"桦南县","deleted":"0"},{"id":"745","parent_id":"739","type":"3","zip_code":"230826","name":"桦川县","deleted":"0"},{"id":"746","parent_id":"739","type":"3","zip_code":"230828","name":"汤原县","deleted":"0"},{"id":"747","parent_id":"739","type":"3","zip_code":"230881","name":"同江市","deleted":"0"},{"id":"748","parent_id":"739","type":"3","zip_code":"230882","name":"富锦市","deleted":"0"},{"id":"749","parent_id":"739","type":"3","zip_code":"230833","name":"抚远市","deleted":"0"}]},{"id":"773","parent_id":"646","type":"2","zip_code":"231200","name":"绥化市","deleted":"0","subarea":[{"id":"774","parent_id":"773","type":"3","zip_code":"231202","name":"北林区","deleted":"0"},{"id":"775","parent_id":"773","type":"3","zip_code":"231221","name":"望奎县","deleted":"0"},{"id":"776","parent_id":"773","type":"3","zip_code":"231222","name":"兰西县","deleted":"0"},{"id":"777","parent_id":"773","type":"3","zip_code":"231223","name":"青冈县","deleted":"0"},{"id":"778","parent_id":"773","type":"3","zip_code":"231224","name":"庆安县","deleted":"0"},{"id":"779","parent_id":"773","type":"3","zip_code":"231225","name":"明水县","deleted":"0"},{"id":"780","parent_id":"773","type":"3","zip_code":"231226","name":"绥棱县","deleted":"0"},{"id":"781","parent_id":"773","type":"3","zip_code":"231281","name":"安达市","deleted":"0"},{"id":"782","parent_id":"773","type":"3","zip_code":"231282","name":"肇东市","deleted":"0"},{"id":"783","parent_id":"773","type":"3","zip_code":"231283","name":"海伦市","deleted":"0"}]}]},{"id":"788","parent_id":"0","type":"1","zip_code":"310000","name":"上海","deleted":"0","subarea":[{"id":"789","parent_id":"788","type":"2","zip_code":"310100","name":"上海市","deleted":"0","subarea":[{"id":"790","parent_id":"789","type":"3","zip_code":"310101","name":"黄浦区","deleted":"0"},{"id":"791","parent_id":"789","type":"3","zip_code":"310104","name":"徐汇区","deleted":"0"},{"id":"792","parent_id":"789","type":"3","zip_code":"310105","name":"长宁区","deleted":"0"},{"id":"793","parent_id":"789","type":"3","zip_code":"310106","name":"静安区","deleted":"0"},{"id":"794","parent_id":"789","type":"3","zip_code":"310107","name":"普陀区","deleted":"0"},{"id":"795","parent_id":"789","type":"3","zip_code":"310108","name":"闸北区","deleted":"0"},{"id":"796","parent_id":"789","type":"3","zip_code":"310109","name":"虹口区","deleted":"0"},{"id":"797","parent_id":"789","type":"3","zip_code":"310110","name":"杨浦区","deleted":"0"},{"id":"798","parent_id":"789","type":"3","zip_code":"310112","name":"闵行区","deleted":"0"},{"id":"799","parent_id":"789","type":"3","zip_code":"310113","name":"宝山区","deleted":"0"},{"id":"800","parent_id":"789","type":"3","zip_code":"310114","name":"嘉定区","deleted":"0"},{"id":"801","parent_id":"789","type":"3","zip_code":"310115","name":"浦东新区","deleted":"0"},{"id":"802","parent_id":"789","type":"3","zip_code":"310116","name":"金山区","deleted":"0"},{"id":"803","parent_id":"789","type":"3","zip_code":"310117","name":"松江区","deleted":"0"},{"id":"804","parent_id":"789","type":"3","zip_code":"310118","name":"青浦区","deleted":"0"},{"id":"805","parent_id":"789","type":"3","zip_code":"310120","name":"奉贤区","deleted":"0"},{"id":"806","parent_id":"789","type":"3","zip_code":"310230","name":"崇明区","deleted":"0"}]}]},{"id":"807","parent_id":"0","type":"1","zip_code":"320000","name":"江苏省","deleted":"0","subarea":[{"id":"808","parent_id":"807","type":"2","zip_code":"320100","name":"南京市","deleted":"0","subarea":[{"id":"809","parent_id":"808","type":"3","zip_code":"320102","name":"玄武区","deleted":"0"},{"id":"810","parent_id":"808","type":"3","zip_code":"320104","name":"秦淮区","deleted":"0"},{"id":"811","parent_id":"808","type":"3","zip_code":"320105","name":"建邺区","deleted":"0"},{"id":"812","parent_id":"808","type":"3","zip_code":"320106","name":"鼓楼区","deleted":"0"},{"id":"813","parent_id":"808","type":"3","zip_code":"320111","name":"浦口区","deleted":"0"},{"id":"814","parent_id":"808","type":"3","zip_code":"320113","name":"栖霞区","deleted":"0"},{"id":"815","parent_id":"808","type":"3","zip_code":"320114","name":"雨花台区","deleted":"0"},{"id":"816","parent_id":"808","type":"3","zip_code":"320115","name":"江宁区","deleted":"0"},{"id":"817","parent_id":"808","type":"3","zip_code":"320116","name":"六合区","deleted":"0"},{"id":"818","parent_id":"808","type":"3","zip_code":"320117","name":"溧水区","deleted":"0"},{"id":"819","parent_id":"808","type":"3","zip_code":"320118","name":"高淳区","deleted":"0"}]},{"id":"820","parent_id":"807","type":"2","zip_code":"320200","name":"无锡市","deleted":"0","subarea":[{"id":"821","parent_id":"820","type":"3","zip_code":"320213","name":"梁溪区","deleted":"0"},{"id":"822","parent_id":"820","type":"3","zip_code":"320205","name":"锡山区","deleted":"0"},{"id":"823","parent_id":"820","type":"3","zip_code":"320206","name":"惠山区","deleted":"0"},{"id":"824","parent_id":"820","type":"3","zip_code":"320211","name":"滨湖区","deleted":"0"},{"id":"825","parent_id":"820","type":"3","zip_code":"320214","name":"新吴区","deleted":"0"},{"id":"826","parent_id":"820","type":"3","zip_code":"320281","name":"江阴市","deleted":"0"},{"id":"827","parent_id":"820","type":"3","zip_code":"320282","name":"宜兴市","deleted":"0"}]},{"id":"828","parent_id":"807","type":"2","zip_code":"320300","name":"徐州市","deleted":"0","subarea":[{"id":"829","parent_id":"828","type":"3","zip_code":"320302","name":"鼓楼区","deleted":"0"},{"id":"830","parent_id":"828","type":"3","zip_code":"320303","name":"云龙区","deleted":"0"},{"id":"831","parent_id":"828","type":"3","zip_code":"320312","name":"铜山区","deleted":"0"},{"id":"832","parent_id":"828","type":"3","zip_code":"320305","name":"贾汪区","deleted":"0"},{"id":"833","parent_id":"828","type":"3","zip_code":"320311","name":"泉山区","deleted":"0"},{"id":"834","parent_id":"828","type":"3","zip_code":"320321","name":"丰县","deleted":"0"},{"id":"835","parent_id":"828","type":"3","zip_code":"320322","name":"沛县","deleted":"0"},{"id":"836","parent_id":"828","type":"3","zip_code":"320324","name":"睢宁县","deleted":"0"},{"id":"837","parent_id":"828","type":"3","zip_code":"320381","name":"新沂市","deleted":"0"},{"id":"838","parent_id":"828","type":"3","zip_code":"320382","name":"邳州市","deleted":"0"}]},{"id":"839","parent_id":"807","type":"2","zip_code":"320400","name":"常州市","deleted":"0","subarea":[{"id":"840","parent_id":"839","type":"3","zip_code":"320402","name":"天宁区","deleted":"0"},{"id":"841","parent_id":"839","type":"3","zip_code":"320404","name":"钟楼区","deleted":"0"},{"id":"842","parent_id":"839","type":"3","zip_code":"320411","name":"新北区","deleted":"0"},{"id":"843","parent_id":"839","type":"3","zip_code":"320412","name":"武进区","deleted":"0"},{"id":"844","parent_id":"839","type":"3","zip_code":"320413","name":"金坛区","deleted":"0"},{"id":"845","parent_id":"839","type":"3","zip_code":"320481","name":"溧阳市","deleted":"0"}]},{"id":"846","parent_id":"807","type":"2","zip_code":"320500","name":"苏州市","deleted":"0","subarea":[{"id":"847","parent_id":"846","type":"3","zip_code":"320508","name":"姑苏区","deleted":"0"},{"id":"848","parent_id":"846","type":"3","zip_code":"320505","name":"虎丘区","deleted":"0"},{"id":"849","parent_id":"846","type":"3","zip_code":"320506","name":"吴中区","deleted":"0"},{"id":"850","parent_id":"846","type":"3","zip_code":"320507","name":"相城区","deleted":"0"},{"id":"851","parent_id":"846","type":"3","zip_code":"320509","name":"吴江区","deleted":"0"},{"id":"852","parent_id":"846","type":"3","zip_code":"320581","name":"常熟市","deleted":"0"},{"id":"853","parent_id":"846","type":"3","zip_code":"320582","name":"张家港市","deleted":"0"},{"id":"854","parent_id":"846","type":"3","zip_code":"320583","name":"昆山市","deleted":"0"},{"id":"855","parent_id":"846","type":"3","zip_code":"320585","name":"太仓市","deleted":"0"}]},{"id":"856","parent_id":"807","type":"2","zip_code":"320600","name":"南通市","deleted":"0","subarea":[{"id":"857","parent_id":"856","type":"3","zip_code":"320602","name":"崇川区","deleted":"0"},{"id":"858","parent_id":"856","type":"3","zip_code":"320611","name":"港闸区","deleted":"0"},{"id":"859","parent_id":"856","type":"3","zip_code":"320612","name":"通州区","deleted":"0"},{"id":"860","parent_id":"856","type":"3","zip_code":"320621","name":"海安县","deleted":"0"},{"id":"861","parent_id":"856","type":"3","zip_code":"320623","name":"如东县","deleted":"0"},{"id":"862","parent_id":"856","type":"3","zip_code":"320681","name":"启东市","deleted":"0"},{"id":"863","parent_id":"856","type":"3","zip_code":"320682","name":"如皋市","deleted":"0"},{"id":"864","parent_id":"856","type":"3","zip_code":"320684","name":"海门市","deleted":"0"}]},{"id":"865","parent_id":"807","type":"2","zip_code":"320700","name":"连云港市","deleted":"0","subarea":[{"id":"866","parent_id":"865","type":"3","zip_code":"320703","name":"连云区","deleted":"0"},{"id":"867","parent_id":"865","type":"3","zip_code":"320706","name":"海州区","deleted":"0"},{"id":"868","parent_id":"865","type":"3","zip_code":"320707","name":"赣榆区","deleted":"0"},{"id":"869","parent_id":"865","type":"3","zip_code":"320722","name":"东海县","deleted":"0"},{"id":"870","parent_id":"865","type":"3","zip_code":"320723","name":"灌云县","deleted":"0"},{"id":"871","parent_id":"865","type":"3","zip_code":"320724","name":"灌南县","deleted":"0"}]},{"id":"872","parent_id":"807","type":"2","zip_code":"320800","name":"淮安市","deleted":"0","subarea":[{"id":"873","parent_id":"872","type":"3","zip_code":"320803","name":"淮安区","deleted":"0"},{"id":"874","parent_id":"872","type":"3","zip_code":"320804","name":"淮阴区","deleted":"0"},{"id":"875","parent_id":"872","type":"3","zip_code":"320811","name":"清江浦区","deleted":"0"},{"id":"876","parent_id":"872","type":"3","zip_code":"320829","name":"洪泽区","deleted":"0"},{"id":"877","parent_id":"872","type":"3","zip_code":"320826","name":"涟水县","deleted":"0"},{"id":"878","parent_id":"872","type":"3","zip_code":"320830","name":"盱眙县","deleted":"0"},{"id":"879","parent_id":"872","type":"3","zip_code":"320831","name":"金湖县","deleted":"0"}]},{"id":"880","parent_id":"807","type":"2","zip_code":"320900","name":"盐城市","deleted":"0","subarea":[{"id":"881","parent_id":"880","type":"3","zip_code":"320902","name":"亭湖区","deleted":"0"},{"id":"882","parent_id":"880","type":"3","zip_code":"320903","name":"盐都区","deleted":"0"},{"id":"883","parent_id":"880","type":"3","zip_code":"320904","name":"大丰区","deleted":"0"},{"id":"884","parent_id":"880","type":"3","zip_code":"320921","name":"响水县","deleted":"0"},{"id":"885","parent_id":"880","type":"3","zip_code":"320922","name":"滨海县","deleted":"0"},{"id":"886","parent_id":"880","type":"3","zip_code":"320923","name":"阜宁县","deleted":"0"},{"id":"887","parent_id":"880","type":"3","zip_code":"320924","name":"射阳县","deleted":"0"},{"id":"888","parent_id":"880","type":"3","zip_code":"320925","name":"建湖县","deleted":"0"},{"id":"889","parent_id":"880","type":"3","zip_code":"320981","name":"东台市","deleted":"0"}]},{"id":"890","parent_id":"807","type":"2","zip_code":"321000","name":"扬州市","deleted":"0","subarea":[{"id":"891","parent_id":"890","type":"3","zip_code":"321002","name":"广陵区","deleted":"0"},{"id":"892","parent_id":"890","type":"3","zip_code":"321003","name":"邗江区","deleted":"0"},{"id":"893","parent_id":"890","type":"3","zip_code":"321012","name":"江都区","deleted":"0"},{"id":"894","parent_id":"890","type":"3","zip_code":"321023","name":"宝应县","deleted":"0"},{"id":"895","parent_id":"890","type":"3","zip_code":"321081","name":"仪征市","deleted":"0"},{"id":"896","parent_id":"890","type":"3","zip_code":"321084","name":"高邮市","deleted":"0"}]},{"id":"897","parent_id":"807","type":"2","zip_code":"321100","name":"镇江市","deleted":"0","subarea":[{"id":"898","parent_id":"897","type":"3","zip_code":"321102","name":"京口区","deleted":"0"},{"id":"899","parent_id":"897","type":"3","zip_code":"321111","name":"润州区","deleted":"0"},{"id":"900","parent_id":"897","type":"3","zip_code":"321112","name":"丹徒区","deleted":"0"},{"id":"901","parent_id":"897","type":"3","zip_code":"321181","name":"丹阳市","deleted":"0"},{"id":"902","parent_id":"897","type":"3","zip_code":"321182","name":"扬中市","deleted":"0"},{"id":"903","parent_id":"897","type":"3","zip_code":"321183","name":"句容市","deleted":"0"}]},{"id":"904","parent_id":"807","type":"2","zip_code":"321200","name":"泰州市","deleted":"0","subarea":[{"id":"905","parent_id":"904","type":"3","zip_code":"321202","name":"海陵区","deleted":"0"},{"id":"906","parent_id":"904","type":"3","zip_code":"321203","name":"高港区","deleted":"0"},{"id":"907","parent_id":"904","type":"3","zip_code":"321204","name":"姜堰区","deleted":"0"},{"id":"908","parent_id":"904","type":"3","zip_code":"321281","name":"兴化市","deleted":"0"},{"id":"909","parent_id":"904","type":"3","zip_code":"321282","name":"靖江市","deleted":"0"},{"id":"910","parent_id":"904","type":"3","zip_code":"321283","name":"泰兴市","deleted":"0"}]},{"id":"911","parent_id":"807","type":"2","zip_code":"321300","name":"宿迁市","deleted":"0","subarea":[{"id":"912","parent_id":"911","type":"3","zip_code":"321302","name":"宿城区","deleted":"0"},{"id":"913","parent_id":"911","type":"3","zip_code":"321311","name":"宿豫区","deleted":"0"},{"id":"914","parent_id":"911","type":"3","zip_code":"321322","name":"沭阳县","deleted":"0"},{"id":"915","parent_id":"911","type":"3","zip_code":"321323","name":"泗阳县","deleted":"0"},{"id":"916","parent_id":"911","type":"3","zip_code":"321324","name":"泗洪县","deleted":"0"}]}]},{"id":"917","parent_id":"0","type":"1","zip_code":"330000","name":"浙江省","deleted":"0","subarea":[{"id":"918","parent_id":"917","type":"2","zip_code":"330100","name":"杭州市","deleted":"0","subarea":[{"id":"919","parent_id":"918","type":"3","zip_code":"330102","name":"上城区","deleted":"0"},{"id":"920","parent_id":"918","type":"3","zip_code":"330103","name":"下城区","deleted":"0"},{"id":"921","parent_id":"918","type":"3","zip_code":"330104","name":"江干区","deleted":"0"},{"id":"922","parent_id":"918","type":"3","zip_code":"330105","name":"拱墅区","deleted":"0"},{"id":"923","parent_id":"918","type":"3","zip_code":"330106","name":"西湖区","deleted":"0"},{"id":"924","parent_id":"918","type":"3","zip_code":"330108","name":"滨江区","deleted":"0"},{"id":"925","parent_id":"918","type":"3","zip_code":"330109","name":"萧山区","deleted":"0"},{"id":"926","parent_id":"918","type":"3","zip_code":"330110","name":"余杭区","deleted":"0"},{"id":"927","parent_id":"918","type":"3","zip_code":"330111","name":"富阳区","deleted":"0"},{"id":"928","parent_id":"918","type":"3","zip_code":"330122","name":"桐庐县","deleted":"0"},{"id":"929","parent_id":"918","type":"3","zip_code":"330127","name":"淳安县","deleted":"0"},{"id":"930","parent_id":"918","type":"3","zip_code":"330182","name":"建德市","deleted":"0"},{"id":"931","parent_id":"918","type":"3","zip_code":"330185","name":"临安市","deleted":"0"}]},{"id":"932","parent_id":"917","type":"2","zip_code":"330200","name":"宁波市","deleted":"0","subarea":[{"id":"933","parent_id":"932","type":"3","zip_code":"330203","name":"海曙区","deleted":"0"},{"id":"934","parent_id":"932","type":"3","zip_code":"330204","name":"江东区","deleted":"0"},{"id":"935","parent_id":"932","type":"3","zip_code":"330205","name":"江北区","deleted":"0"},{"id":"936","parent_id":"932","type":"3","zip_code":"330206","name":"北仑区","deleted":"0"},{"id":"937","parent_id":"932","type":"3","zip_code":"330211","name":"镇海区","deleted":"0"},{"id":"938","parent_id":"932","type":"3","zip_code":"330212","name":"鄞州区","deleted":"0"},{"id":"939","parent_id":"932","type":"3","zip_code":"330225","name":"象山县","deleted":"0"},{"id":"940","parent_id":"932","type":"3","zip_code":"330226","name":"宁海县","deleted":"0"},{"id":"941","parent_id":"932","type":"3","zip_code":"330281","name":"余姚市","deleted":"0"},{"id":"942","parent_id":"932","type":"3","zip_code":"330282","name":"慈溪市","deleted":"0"},{"id":"943","parent_id":"932","type":"3","zip_code":"330283","name":"奉化市","deleted":"0"}]},{"id":"944","parent_id":"917","type":"2","zip_code":"330300","name":"温州市","deleted":"0","subarea":[{"id":"945","parent_id":"944","type":"3","zip_code":"330302","name":"鹿城区","deleted":"0"},{"id":"946","parent_id":"944","type":"3","zip_code":"330303","name":"龙湾区","deleted":"0"},{"id":"947","parent_id":"944","type":"3","zip_code":"330304","name":"瓯海区","deleted":"0"},{"id":"948","parent_id":"944","type":"3","zip_code":"330305","name":"洞头区","deleted":"0"},{"id":"949","parent_id":"944","type":"3","zip_code":"330324","name":"永嘉县","deleted":"0"},{"id":"950","parent_id":"944","type":"3","zip_code":"330326","name":"平阳县","deleted":"0"},{"id":"951","parent_id":"944","type":"3","zip_code":"330327","name":"苍南县","deleted":"0"},{"id":"952","parent_id":"944","type":"3","zip_code":"330328","name":"文成县","deleted":"0"},{"id":"953","parent_id":"944","type":"3","zip_code":"330329","name":"泰顺县","deleted":"0"},{"id":"954","parent_id":"944","type":"3","zip_code":"330381","name":"瑞安市","deleted":"0"},{"id":"955","parent_id":"944","type":"3","zip_code":"330382","name":"乐清市","deleted":"0"}]},{"id":"956","parent_id":"917","type":"2","zip_code":"330400","name":"嘉兴市","deleted":"0","subarea":[{"id":"957","parent_id":"956","type":"3","zip_code":"330402","name":"南湖区","deleted":"0"},{"id":"958","parent_id":"956","type":"3","zip_code":"330411","name":"秀洲区","deleted":"0"},{"id":"959","parent_id":"956","type":"3","zip_code":"330421","name":"嘉善县","deleted":"0"},{"id":"960","parent_id":"956","type":"3","zip_code":"330424","name":"海盐县","deleted":"0"},{"id":"961","parent_id":"956","type":"3","zip_code":"330481","name":"海宁市","deleted":"0"},{"id":"962","parent_id":"956","type":"3","zip_code":"330482","name":"平湖市","deleted":"0"},{"id":"963","parent_id":"956","type":"3","zip_code":"330483","name":"桐乡市","deleted":"0"}]},{"id":"964","parent_id":"917","type":"2","zip_code":"330500","name":"湖州市","deleted":"0","subarea":[{"id":"965","parent_id":"964","type":"3","zip_code":"330502","name":"吴兴区","deleted":"0"},{"id":"966","parent_id":"964","type":"3","zip_code":"330503","name":"南浔区","deleted":"0"},{"id":"967","parent_id":"964","type":"3","zip_code":"330521","name":"德清县","deleted":"0"},{"id":"968","parent_id":"964","type":"3","zip_code":"330522","name":"长兴县","deleted":"0"},{"id":"969","parent_id":"964","type":"3","zip_code":"330523","name":"安吉县","deleted":"0"}]},{"id":"977","parent_id":"917","type":"2","zip_code":"330700","name":"金华市","deleted":"0","subarea":[{"id":"978","parent_id":"977","type":"3","zip_code":"330702","name":"婺城区","deleted":"0"},{"id":"979","parent_id":"977","type":"3","zip_code":"330703","name":"金东区","deleted":"0"},{"id":"980","parent_id":"977","type":"3","zip_code":"330723","name":"武义县","deleted":"0"},{"id":"981","parent_id":"977","type":"3","zip_code":"330726","name":"浦江县","deleted":"0"},{"id":"982","parent_id":"977","type":"3","zip_code":"330727","name":"磐安县","deleted":"0"},{"id":"983","parent_id":"977","type":"3","zip_code":"330781","name":"兰溪市","deleted":"0"},{"id":"984","parent_id":"977","type":"3","zip_code":"330782","name":"义乌市","deleted":"0"},{"id":"985","parent_id":"977","type":"3","zip_code":"330783","name":"东阳市","deleted":"0"},{"id":"986","parent_id":"977","type":"3","zip_code":"330784","name":"永康市","deleted":"0"}]},{"id":"987","parent_id":"917","type":"2","zip_code":"330800","name":"衢州市","deleted":"0","subarea":[{"id":"988","parent_id":"987","type":"3","zip_code":"330802","name":"柯城区","deleted":"0"},{"id":"989","parent_id":"987","type":"3","zip_code":"330803","name":"衢江区","deleted":"0"},{"id":"990","parent_id":"987","type":"3","zip_code":"330822","name":"常山县","deleted":"0"},{"id":"991","parent_id":"987","type":"3","zip_code":"330824","name":"开化县","deleted":"0"},{"id":"992","parent_id":"987","type":"3","zip_code":"330825","name":"龙游县","deleted":"0"},{"id":"993","parent_id":"987","type":"3","zip_code":"330881","name":"江山市","deleted":"0"}]},{"id":"999","parent_id":"917","type":"2","zip_code":"331000","name":"台州市","deleted":"0","subarea":[{"id":"1000","parent_id":"999","type":"3","zip_code":"331002","name":"椒江区","deleted":"0"},{"id":"1001","parent_id":"999","type":"3","zip_code":"331003","name":"黄岩区","deleted":"0"},{"id":"1002","parent_id":"999","type":"3","zip_code":"331004","name":"路桥区","deleted":"0"},{"id":"1003","parent_id":"999","type":"3","zip_code":"331021","name":"玉环县","deleted":"0"},{"id":"1004","parent_id":"999","type":"3","zip_code":"331022","name":"三门县","deleted":"0"},{"id":"1005","parent_id":"999","type":"3","zip_code":"331023","name":"天台县","deleted":"0"},{"id":"1006","parent_id":"999","type":"3","zip_code":"331024","name":"仙居县","deleted":"0"},{"id":"1007","parent_id":"999","type":"3","zip_code":"331081","name":"温岭市","deleted":"0"},{"id":"1008","parent_id":"999","type":"3","zip_code":"331082","name":"临海市","deleted":"0"}]},{"id":"1009","parent_id":"917","type":"2","zip_code":"331100","name":"丽水市","deleted":"0","subarea":[{"id":"1010","parent_id":"1009","type":"3","zip_code":"331102","name":"莲都区","deleted":"0"},{"id":"1011","parent_id":"1009","type":"3","zip_code":"331121","name":"青田县","deleted":"0"},{"id":"1012","parent_id":"1009","type":"3","zip_code":"331122","name":"缙云县","deleted":"0"},{"id":"1013","parent_id":"1009","type":"3","zip_code":"331123","name":"遂昌县","deleted":"0"},{"id":"1014","parent_id":"1009","type":"3","zip_code":"331124","name":"松阳县","deleted":"0"},{"id":"1015","parent_id":"1009","type":"3","zip_code":"331125","name":"云和县","deleted":"0"},{"id":"1016","parent_id":"1009","type":"3","zip_code":"331126","name":"庆元县","deleted":"0"},{"id":"1017","parent_id":"1009","type":"3","zip_code":"331127","name":"景宁县","deleted":"0"},{"id":"1018","parent_id":"1009","type":"3","zip_code":"331181","name":"龙泉市","deleted":"0"}]}]},{"id":"1019","parent_id":"0","type":"1","zip_code":"340000","name":"安徽省","deleted":"0","subarea":[{"id":"1020","parent_id":"1019","type":"2","zip_code":"340100","name":"合肥市","deleted":"0","subarea":[{"id":"1021","parent_id":"1020","type":"3","zip_code":"340102","name":"瑶海区","deleted":"0"},{"id":"1022","parent_id":"1020","type":"3","zip_code":"340103","name":"庐阳区","deleted":"0"},{"id":"1023","parent_id":"1020","type":"3","zip_code":"340104","name":"蜀山区","deleted":"0"},{"id":"1024","parent_id":"1020","type":"3","zip_code":"340111","name":"包河区","deleted":"0"},{"id":"1025","parent_id":"1020","type":"3","zip_code":"340121","name":"长丰县","deleted":"0"},{"id":"1026","parent_id":"1020","type":"3","zip_code":"340122","name":"肥东县","deleted":"0"},{"id":"1027","parent_id":"1020","type":"3","zip_code":"340123","name":"肥西县","deleted":"0"},{"id":"1028","parent_id":"1020","type":"3","zip_code":"340124","name":"庐江县","deleted":"0"},{"id":"1029","parent_id":"1020","type":"3","zip_code":"340181","name":"巢湖市","deleted":"0"}]},{"id":"1030","parent_id":"1019","type":"2","zip_code":"340200","name":"芜湖市","deleted":"0","subarea":[{"id":"1031","parent_id":"1030","type":"3","zip_code":"340202","name":"镜湖区","deleted":"0"},{"id":"1032","parent_id":"1030","type":"3","zip_code":"340203","name":"弋江区","deleted":"0"},{"id":"1033","parent_id":"1030","type":"3","zip_code":"340207","name":"鸠江区","deleted":"0"},{"id":"1034","parent_id":"1030","type":"3","zip_code":"340208","name":"三山区","deleted":"0"},{"id":"1035","parent_id":"1030","type":"3","zip_code":"340221","name":"芜湖县","deleted":"0"},{"id":"1036","parent_id":"1030","type":"3","zip_code":"340222","name":"繁昌县","deleted":"0"},{"id":"1037","parent_id":"1030","type":"3","zip_code":"340223","name":"南陵县","deleted":"0"},{"id":"1038","parent_id":"1030","type":"3","zip_code":"340225","name":"无为县","deleted":"0"}]},{"id":"1039","parent_id":"1019","type":"2","zip_code":"340300","name":"蚌埠市","deleted":"0","subarea":[{"id":"1040","parent_id":"1039","type":"3","zip_code":"340302","name":"龙子湖区","deleted":"0"},{"id":"1041","parent_id":"1039","type":"3","zip_code":"340303","name":"蚌山区","deleted":"0"},{"id":"1042","parent_id":"1039","type":"3","zip_code":"340304","name":"禹会区","deleted":"0"},{"id":"1043","parent_id":"1039","type":"3","zip_code":"340311","name":"淮上区","deleted":"0"},{"id":"1044","parent_id":"1039","type":"3","zip_code":"340321","name":"怀远县","deleted":"0"},{"id":"1045","parent_id":"1039","type":"3","zip_code":"340322","name":"五河县","deleted":"0"},{"id":"1046","parent_id":"1039","type":"3","zip_code":"340323","name":"固镇县","deleted":"0"}]},{"id":"1055","parent_id":"1019","type":"2","zip_code":"340500","name":"马鞍山市","deleted":"0","subarea":[{"id":"1056","parent_id":"1055","type":"3","zip_code":"340503","name":"花山区","deleted":"0"},{"id":"1057","parent_id":"1055","type":"3","zip_code":"340504","name":"雨山区","deleted":"0"},{"id":"1058","parent_id":"1055","type":"3","zip_code":"340506","name":"博望区","deleted":"0"},{"id":"1059","parent_id":"1055","type":"3","zip_code":"340521","name":"当涂县","deleted":"0"},{"id":"1060","parent_id":"1055","type":"3","zip_code":"340522","name":"含山县","deleted":"0"},{"id":"1061","parent_id":"1055","type":"3","zip_code":"340523","name":"和县","deleted":"0"}]},{"id":"1062","parent_id":"1019","type":"2","zip_code":"340600","name":"淮北市","deleted":"0","subarea":[{"id":"1063","parent_id":"1062","type":"3","zip_code":"340602","name":"杜集区","deleted":"0"},{"id":"1064","parent_id":"1062","type":"3","zip_code":"340603","name":"相山区","deleted":"0"},{"id":"1065","parent_id":"1062","type":"3","zip_code":"340604","name":"烈山区","deleted":"0"},{"id":"1066","parent_id":"1062","type":"3","zip_code":"340621","name":"濉溪县","deleted":"0"}]},{"id":"1067","parent_id":"1019","type":"2","zip_code":"340700","name":"铜陵市","deleted":"0","subarea":[{"id":"1068","parent_id":"1067","type":"3","zip_code":"340702","name":"铜官区","deleted":"0"},{"id":"1069","parent_id":"1067","type":"3","zip_code":"340711","name":"郊区","deleted":"0"},{"id":"1070","parent_id":"1067","type":"3","zip_code":"340706","name":"义安区","deleted":"0"},{"id":"1071","parent_id":"1067","type":"3","zip_code":"340823","name":"枞阳县","deleted":"0"}]},{"id":"1083","parent_id":"1019","type":"2","zip_code":"341000","name":"黄山市","deleted":"0","subarea":[{"id":"1084","parent_id":"1083","type":"3","zip_code":"341002","name":"屯溪区","deleted":"0"},{"id":"1085","parent_id":"1083","type":"3","zip_code":"341003","name":"黄山区","deleted":"0"},{"id":"1086","parent_id":"1083","type":"3","zip_code":"341004","name":"徽州区","deleted":"0"},{"id":"1087","parent_id":"1083","type":"3","zip_code":"341021","name":"歙县","deleted":"0"},{"id":"1088","parent_id":"1083","type":"3","zip_code":"341022","name":"休宁县","deleted":"0"},{"id":"1089","parent_id":"1083","type":"3","zip_code":"341023","name":"黟县","deleted":"0"},{"id":"1090","parent_id":"1083","type":"3","zip_code":"341024","name":"祁门县","deleted":"0"}]},{"id":"1091","parent_id":"1019","type":"2","zip_code":"341100","name":"滁州市","deleted":"0","subarea":[{"id":"1092","parent_id":"1091","type":"3","zip_code":"341102","name":"琅琊区","deleted":"0"},{"id":"1093","parent_id":"1091","type":"3","zip_code":"341103","name":"南谯区","deleted":"0"},{"id":"1094","parent_id":"1091","type":"3","zip_code":"341122","name":"来安县","deleted":"0"},{"id":"1095","parent_id":"1091","type":"3","zip_code":"341124","name":"全椒县","deleted":"0"},{"id":"1096","parent_id":"1091","type":"3","zip_code":"341125","name":"定远县","deleted":"0"},{"id":"1097","parent_id":"1091","type":"3","zip_code":"341126","name":"凤阳县","deleted":"0"},{"id":"1098","parent_id":"1091","type":"3","zip_code":"341181","name":"天长市","deleted":"0"},{"id":"1099","parent_id":"1091","type":"3","zip_code":"341182","name":"明光市","deleted":"0"}]},{"id":"1100","parent_id":"1019","type":"2","zip_code":"341200","name":"阜阳市","deleted":"0","subarea":[{"id":"1101","parent_id":"1100","type":"3","zip_code":"341202","name":"颍州区","deleted":"0"},{"id":"1102","parent_id":"1100","type":"3","zip_code":"341203","name":"颍东区","deleted":"0"},{"id":"1103","parent_id":"1100","type":"3","zip_code":"341204","name":"颍泉区","deleted":"0"},{"id":"1104","parent_id":"1100","type":"3","zip_code":"341221","name":"临泉县","deleted":"0"},{"id":"1105","parent_id":"1100","type":"3","zip_code":"341222","name":"太和县","deleted":"0"},{"id":"1106","parent_id":"1100","type":"3","zip_code":"341225","name":"阜南县","deleted":"0"},{"id":"1107","parent_id":"1100","type":"3","zip_code":"341226","name":"颍上县","deleted":"0"},{"id":"1108","parent_id":"1100","type":"3","zip_code":"341282","name":"界首市","deleted":"0"}]},{"id":"1109","parent_id":"1019","type":"2","zip_code":"341300","name":"宿州市","deleted":"0","subarea":[{"id":"1110","parent_id":"1109","type":"3","zip_code":"341302","name":"埇桥区","deleted":"0"},{"id":"1111","parent_id":"1109","type":"3","zip_code":"341321","name":"砀山县","deleted":"0"},{"id":"1112","parent_id":"1109","type":"3","zip_code":"341322","name":"萧县","deleted":"0"},{"id":"1113","parent_id":"1109","type":"3","zip_code":"341323","name":"灵璧县","deleted":"0"},{"id":"1114","parent_id":"1109","type":"3","zip_code":"341324","name":"泗县","deleted":"0"}]},{"id":"1115","parent_id":"1019","type":"2","zip_code":"341500","name":"六安市","deleted":"0","subarea":[{"id":"1116","parent_id":"1115","type":"3","zip_code":"341502","name":"金安区","deleted":"0"},{"id":"1117","parent_id":"1115","type":"3","zip_code":"341503","name":"裕安区","deleted":"0"},{"id":"1118","parent_id":"1115","type":"3","zip_code":"341504","name":"叶集区","deleted":"0"},{"id":"1119","parent_id":"1115","type":"3","zip_code":"341522","name":"霍邱县","deleted":"0"},{"id":"1120","parent_id":"1115","type":"3","zip_code":"341523","name":"舒城县","deleted":"0"},{"id":"1121","parent_id":"1115","type":"3","zip_code":"341524","name":"金寨县","deleted":"0"},{"id":"1122","parent_id":"1115","type":"3","zip_code":"341525","name":"霍山县","deleted":"0"}]},{"id":"1123","parent_id":"1019","type":"2","zip_code":"341600","name":"亳州市","deleted":"0","subarea":[{"id":"1124","parent_id":"1123","type":"3","zip_code":"341602","name":"谯城区","deleted":"0"},{"id":"1125","parent_id":"1123","type":"3","zip_code":"341621","name":"涡阳县","deleted":"0"},{"id":"1126","parent_id":"1123","type":"3","zip_code":"341622","name":"蒙城县","deleted":"0"},{"id":"1127","parent_id":"1123","type":"3","zip_code":"341623","name":"利辛县","deleted":"0"}]},{"id":"1128","parent_id":"1019","type":"2","zip_code":"341700","name":"池州市","deleted":"0","subarea":[{"id":"1129","parent_id":"1128","type":"3","zip_code":"341702","name":"贵池区","deleted":"0"},{"id":"1130","parent_id":"1128","type":"3","zip_code":"341721","name":"东至县","deleted":"0"},{"id":"1131","parent_id":"1128","type":"3","zip_code":"341722","name":"石台县","deleted":"0"},{"id":"1132","parent_id":"1128","type":"3","zip_code":"341723","name":"青阳县","deleted":"0"}]},{"id":"1133","parent_id":"1019","type":"2","zip_code":"341800","name":"宣城市","deleted":"0","subarea":[{"id":"1134","parent_id":"1133","type":"3","zip_code":"341802","name":"宣州区","deleted":"0"},{"id":"1135","parent_id":"1133","type":"3","zip_code":"341821","name":"郎溪县","deleted":"0"},{"id":"1136","parent_id":"1133","type":"3","zip_code":"341822","name":"广德县","deleted":"0"},{"id":"1137","parent_id":"1133","type":"3","zip_code":"341823","name":"泾县","deleted":"0"},{"id":"1138","parent_id":"1133","type":"3","zip_code":"341824","name":"绩溪县","deleted":"0"},{"id":"1139","parent_id":"1133","type":"3","zip_code":"341825","name":"旌德县","deleted":"0"},{"id":"1140","parent_id":"1133","type":"3","zip_code":"341881","name":"宁国市","deleted":"0"}]}]},{"id":"1141","parent_id":"0","type":"1","zip_code":"350000","name":"福建省","deleted":"0","subarea":[{"id":"1142","parent_id":"1141","type":"2","zip_code":"350100","name":"福州市","deleted":"0","subarea":[{"id":"1143","parent_id":"1142","type":"3","zip_code":"350102","name":"鼓楼区","deleted":"0"},{"id":"1144","parent_id":"1142","type":"3","zip_code":"350103","name":"台江区","deleted":"0"},{"id":"1145","parent_id":"1142","type":"3","zip_code":"350104","name":"仓山区","deleted":"0"},{"id":"1146","parent_id":"1142","type":"3","zip_code":"350105","name":"马尾区","deleted":"0"},{"id":"1147","parent_id":"1142","type":"3","zip_code":"350111","name":"晋安区","deleted":"0"},{"id":"1148","parent_id":"1142","type":"3","zip_code":"350121","name":"闽侯县","deleted":"0"},{"id":"1149","parent_id":"1142","type":"3","zip_code":"350122","name":"连江县","deleted":"0"},{"id":"1150","parent_id":"1142","type":"3","zip_code":"350123","name":"罗源县","deleted":"0"},{"id":"1151","parent_id":"1142","type":"3","zip_code":"350124","name":"闽清县","deleted":"0"},{"id":"1152","parent_id":"1142","type":"3","zip_code":"350125","name":"永泰县","deleted":"0"},{"id":"1153","parent_id":"1142","type":"3","zip_code":"350128","name":"平潭县","deleted":"0"},{"id":"1154","parent_id":"1142","type":"3","zip_code":"350181","name":"福清市","deleted":"0"},{"id":"1155","parent_id":"1142","type":"3","zip_code":"350182","name":"长乐市","deleted":"0"}]},{"id":"1156","parent_id":"1141","type":"2","zip_code":"350200","name":"厦门市","deleted":"0","subarea":[{"id":"1157","parent_id":"1156","type":"3","zip_code":"350203","name":"思明区","deleted":"0"},{"id":"1158","parent_id":"1156","type":"3","zip_code":"350205","name":"海沧区","deleted":"0"},{"id":"1159","parent_id":"1156","type":"3","zip_code":"350206","name":"湖里区","deleted":"0"},{"id":"1160","parent_id":"1156","type":"3","zip_code":"350211","name":"集美区","deleted":"0"},{"id":"1161","parent_id":"1156","type":"3","zip_code":"350212","name":"同安区","deleted":"0"},{"id":"1162","parent_id":"1156","type":"3","zip_code":"350213","name":"翔安区","deleted":"0"}]},{"id":"1163","parent_id":"1141","type":"2","zip_code":"350300","name":"莆田市","deleted":"0","subarea":[{"id":"1164","parent_id":"1163","type":"3","zip_code":"350302","name":"城厢区","deleted":"0"},{"id":"1165","parent_id":"1163","type":"3","zip_code":"350303","name":"涵江区","deleted":"0"},{"id":"1166","parent_id":"1163","type":"3","zip_code":"350304","name":"荔城区","deleted":"0"},{"id":"1167","parent_id":"1163","type":"3","zip_code":"350305","name":"秀屿区","deleted":"0"},{"id":"1168","parent_id":"1163","type":"3","zip_code":"350322","name":"仙游县","deleted":"0"}]},{"id":"1182","parent_id":"1141","type":"2","zip_code":"350500","name":"泉州市","deleted":"0","subarea":[{"id":"1183","parent_id":"1182","type":"3","zip_code":"350502","name":"鲤城区","deleted":"0"},{"id":"1184","parent_id":"1182","type":"3","zip_code":"350503","name":"丰泽区","deleted":"0"},{"id":"1185","parent_id":"1182","type":"3","zip_code":"350504","name":"洛江区","deleted":"0"},{"id":"1186","parent_id":"1182","type":"3","zip_code":"350505","name":"泉港区","deleted":"0"},{"id":"1187","parent_id":"1182","type":"3","zip_code":"350521","name":"惠安县","deleted":"0"},{"id":"1188","parent_id":"1182","type":"3","zip_code":"350524","name":"安溪县","deleted":"0"},{"id":"1189","parent_id":"1182","type":"3","zip_code":"350525","name":"永春县","deleted":"0"},{"id":"1190","parent_id":"1182","type":"3","zip_code":"350526","name":"德化县","deleted":"0"},{"id":"1191","parent_id":"1182","type":"3","zip_code":"350527","name":"金门县","deleted":"0"},{"id":"1192","parent_id":"1182","type":"3","zip_code":"350581","name":"石狮市","deleted":"0"},{"id":"1193","parent_id":"1182","type":"3","zip_code":"350582","name":"晋江市","deleted":"0"},{"id":"1194","parent_id":"1182","type":"3","zip_code":"350583","name":"南安市","deleted":"0"}]},{"id":"1195","parent_id":"1141","type":"2","zip_code":"350600","name":"漳州市","deleted":"0","subarea":[{"id":"1196","parent_id":"1195","type":"3","zip_code":"350602","name":"芗城区","deleted":"0"},{"id":"1197","parent_id":"1195","type":"3","zip_code":"350603","name":"龙文区","deleted":"0"},{"id":"1198","parent_id":"1195","type":"3","zip_code":"350622","name":"云霄县","deleted":"0"},{"id":"1199","parent_id":"1195","type":"3","zip_code":"350623","name":"漳浦县","deleted":"0"},{"id":"1200","parent_id":"1195","type":"3","zip_code":"350624","name":"诏安县","deleted":"0"},{"id":"1201","parent_id":"1195","type":"3","zip_code":"350625","name":"长泰县","deleted":"0"},{"id":"1202","parent_id":"1195","type":"3","zip_code":"350626","name":"东山县","deleted":"0"},{"id":"1203","parent_id":"1195","type":"3","zip_code":"350627","name":"南靖县","deleted":"0"},{"id":"1204","parent_id":"1195","type":"3","zip_code":"350628","name":"平和县","deleted":"0"},{"id":"1205","parent_id":"1195","type":"3","zip_code":"350629","name":"华安县","deleted":"0"},{"id":"1206","parent_id":"1195","type":"3","zip_code":"350681","name":"龙海市","deleted":"0"}]},{"id":"1218","parent_id":"1141","type":"2","zip_code":"350800","name":"龙岩市","deleted":"0","subarea":[{"id":"1219","parent_id":"1218","type":"3","zip_code":"350802","name":"新罗区","deleted":"0"},{"id":"1220","parent_id":"1218","type":"3","zip_code":"350821","name":"长汀县","deleted":"0"},{"id":"1221","parent_id":"1218","type":"3","zip_code":"350822","name":"永定县","deleted":"0"},{"id":"1222","parent_id":"1218","type":"3","zip_code":"350823","name":"上杭县","deleted":"0"},{"id":"1223","parent_id":"1218","type":"3","zip_code":"350824","name":"武平县","deleted":"0"},{"id":"1224","parent_id":"1218","type":"3","zip_code":"350825","name":"连城县","deleted":"0"},{"id":"1225","parent_id":"1218","type":"3","zip_code":"350881","name":"漳平市","deleted":"0"}]},{"id":"1226","parent_id":"1141","type":"2","zip_code":"350900","name":"宁德市","deleted":"0","subarea":[{"id":"1227","parent_id":"1226","type":"3","zip_code":"350902","name":"蕉城区","deleted":"0"},{"id":"1228","parent_id":"1226","type":"3","zip_code":"350921","name":"霞浦县","deleted":"0"},{"id":"1229","parent_id":"1226","type":"3","zip_code":"350922","name":"古田县","deleted":"0"},{"id":"1230","parent_id":"1226","type":"3","zip_code":"350923","name":"屏南县","deleted":"0"},{"id":"1231","parent_id":"1226","type":"3","zip_code":"350924","name":"寿宁县","deleted":"0"},{"id":"1232","parent_id":"1226","type":"3","zip_code":"350925","name":"周宁县","deleted":"0"},{"id":"1233","parent_id":"1226","type":"3","zip_code":"350926","name":"柘荣县","deleted":"0"},{"id":"1234","parent_id":"1226","type":"3","zip_code":"350981","name":"福安市","deleted":"0"},{"id":"1235","parent_id":"1226","type":"3","zip_code":"350982","name":"福鼎市","deleted":"0"}]}]},{"id":"1236","parent_id":"0","type":"1","zip_code":"360000","name":"江西省","deleted":"0","subarea":[{"id":"1237","parent_id":"1236","type":"2","zip_code":"360100","name":"南昌市","deleted":"0","subarea":[{"id":"1238","parent_id":"1237","type":"3","zip_code":"360102","name":"东湖区","deleted":"0"},{"id":"1239","parent_id":"1237","type":"3","zip_code":"360103","name":"西湖区","deleted":"0"},{"id":"1240","parent_id":"1237","type":"3","zip_code":"360104","name":"青云谱区","deleted":"0"},{"id":"1241","parent_id":"1237","type":"3","zip_code":"360105","name":"湾里区","deleted":"0"},{"id":"1242","parent_id":"1237","type":"3","zip_code":"360111","name":"青山湖区","deleted":"0"},{"id":"1243","parent_id":"1237","type":"3","zip_code":"360112","name":"新建区","deleted":"0"},{"id":"1244","parent_id":"1237","type":"3","zip_code":"360121","name":"南昌县","deleted":"0"},{"id":"1245","parent_id":"1237","type":"3","zip_code":"360123","name":"安义县","deleted":"0"},{"id":"1246","parent_id":"1237","type":"3","zip_code":"360124","name":"进贤县","deleted":"0"}]},{"id":"1252","parent_id":"1236","type":"2","zip_code":"360300","name":"萍乡市","deleted":"0","subarea":[{"id":"1253","parent_id":"1252","type":"3","zip_code":"360302","name":"安源区","deleted":"0"},{"id":"1254","parent_id":"1252","type":"3","zip_code":"360313","name":"湘东区","deleted":"0"},{"id":"1255","parent_id":"1252","type":"3","zip_code":"360321","name":"莲花县","deleted":"0"},{"id":"1256","parent_id":"1252","type":"3","zip_code":"360322","name":"上栗县","deleted":"0"},{"id":"1257","parent_id":"1252","type":"3","zip_code":"360323","name":"芦溪县","deleted":"0"}]},{"id":"1258","parent_id":"1236","type":"2","zip_code":"360400","name":"九江市","deleted":"0","subarea":[{"id":"1259","parent_id":"1258","type":"3","zip_code":"360402","name":"濂溪区","deleted":"0"},{"id":"1260","parent_id":"1258","type":"3","zip_code":"360403","name":"浔阳区","deleted":"0"},{"id":"1261","parent_id":"1258","type":"3","zip_code":"360421","name":"九江县","deleted":"0"},{"id":"1262","parent_id":"1258","type":"3","zip_code":"360423","name":"武宁县","deleted":"0"},{"id":"1263","parent_id":"1258","type":"3","zip_code":"360424","name":"修水县","deleted":"0"},{"id":"1264","parent_id":"1258","type":"3","zip_code":"360425","name":"永修县","deleted":"0"},{"id":"1265","parent_id":"1258","type":"3","zip_code":"360426","name":"德安县","deleted":"0"},{"id":"1266","parent_id":"1258","type":"3","zip_code":"360428","name":"都昌县","deleted":"0"},{"id":"1267","parent_id":"1258","type":"3","zip_code":"360429","name":"湖口县","deleted":"0"},{"id":"1268","parent_id":"1258","type":"3","zip_code":"360430","name":"彭泽县","deleted":"0"},{"id":"1269","parent_id":"1258","type":"3","zip_code":"360481","name":"瑞昌市","deleted":"0"},{"id":"1270","parent_id":"1258","type":"3","zip_code":"360482","name":"共青城市","deleted":"0"},{"id":"1271","parent_id":"1258","type":"3","zip_code":"360483","name":"庐山市","deleted":"0"}]},{"id":"1279","parent_id":"1236","type":"2","zip_code":"360700","name":"赣州市","deleted":"0","subarea":[{"id":"1280","parent_id":"1279","type":"3","zip_code":"360702","name":"章贡区","deleted":"0"},{"id":"1281","parent_id":"1279","type":"3","zip_code":"360703","name":"南康区","deleted":"0"},{"id":"1282","parent_id":"1279","type":"3","zip_code":"360721","name":"赣县","deleted":"0"},{"id":"1283","parent_id":"1279","type":"3","zip_code":"360722","name":"信丰县","deleted":"0"},{"id":"1284","parent_id":"1279","type":"3","zip_code":"360723","name":"大余县","deleted":"0"},{"id":"1285","parent_id":"1279","type":"3","zip_code":"360724","name":"上犹县","deleted":"0"},{"id":"1286","parent_id":"1279","type":"3","zip_code":"360725","name":"崇义县","deleted":"0"},{"id":"1287","parent_id":"1279","type":"3","zip_code":"360726","name":"安远县","deleted":"0"},{"id":"1288","parent_id":"1279","type":"3","zip_code":"360727","name":"龙南县","deleted":"0"},{"id":"1289","parent_id":"1279","type":"3","zip_code":"360728","name":"定南县","deleted":"0"},{"id":"1290","parent_id":"1279","type":"3","zip_code":"360729","name":"全南县","deleted":"0"},{"id":"1291","parent_id":"1279","type":"3","zip_code":"360730","name":"宁都县","deleted":"0"},{"id":"1292","parent_id":"1279","type":"3","zip_code":"360731","name":"于都县","deleted":"0"},{"id":"1293","parent_id":"1279","type":"3","zip_code":"360732","name":"兴国县","deleted":"0"},{"id":"1294","parent_id":"1279","type":"3","zip_code":"360733","name":"会昌县","deleted":"0"},{"id":"1295","parent_id":"1279","type":"3","zip_code":"360734","name":"寻乌县","deleted":"0"},{"id":"1296","parent_id":"1279","type":"3","zip_code":"360735","name":"石城县","deleted":"0"},{"id":"1297","parent_id":"1279","type":"3","zip_code":"360781","name":"瑞金市","deleted":"0"}]},{"id":"1298","parent_id":"1236","type":"2","zip_code":"360800","name":"吉安市","deleted":"0","subarea":[{"id":"1299","parent_id":"1298","type":"3","zip_code":"360802","name":"吉州区","deleted":"0"},{"id":"1300","parent_id":"1298","type":"3","zip_code":"360803","name":"青原区","deleted":"0"},{"id":"1301","parent_id":"1298","type":"3","zip_code":"360821","name":"吉安县","deleted":"0"},{"id":"1302","parent_id":"1298","type":"3","zip_code":"360822","name":"吉水县","deleted":"0"},{"id":"1303","parent_id":"1298","type":"3","zip_code":"360823","name":"峡江县","deleted":"0"},{"id":"1304","parent_id":"1298","type":"3","zip_code":"360824","name":"新干县","deleted":"0"},{"id":"1305","parent_id":"1298","type":"3","zip_code":"360825","name":"永丰县","deleted":"0"},{"id":"1306","parent_id":"1298","type":"3","zip_code":"360826","name":"泰和县","deleted":"0"},{"id":"1307","parent_id":"1298","type":"3","zip_code":"360827","name":"遂川县","deleted":"0"},{"id":"1308","parent_id":"1298","type":"3","zip_code":"360828","name":"万安县","deleted":"0"},{"id":"1309","parent_id":"1298","type":"3","zip_code":"360829","name":"安福县","deleted":"0"},{"id":"1310","parent_id":"1298","type":"3","zip_code":"360830","name":"永新县","deleted":"0"},{"id":"1311","parent_id":"1298","type":"3","zip_code":"360881","name":"井冈山市","deleted":"0"}]},{"id":"1312","parent_id":"1236","type":"2","zip_code":"360900","name":"宜春市","deleted":"0","subarea":[{"id":"1313","parent_id":"1312","type":"3","zip_code":"360902","name":"袁州区","deleted":"0"},{"id":"1314","parent_id":"1312","type":"3","zip_code":"360921","name":"奉新县","deleted":"0"},{"id":"1315","parent_id":"1312","type":"3","zip_code":"360922","name":"万载县","deleted":"0"},{"id":"1316","parent_id":"1312","type":"3","zip_code":"360923","name":"上高县","deleted":"0"},{"id":"1317","parent_id":"1312","type":"3","zip_code":"360924","name":"宜丰县","deleted":"0"},{"id":"1318","parent_id":"1312","type":"3","zip_code":"360925","name":"靖安县","deleted":"0"},{"id":"1319","parent_id":"1312","type":"3","zip_code":"360926","name":"铜鼓县","deleted":"0"},{"id":"1320","parent_id":"1312","type":"3","zip_code":"360981","name":"丰城市","deleted":"0"},{"id":"1321","parent_id":"1312","type":"3","zip_code":"360982","name":"樟树市","deleted":"0"},{"id":"1322","parent_id":"1312","type":"3","zip_code":"360983","name":"高安市","deleted":"0"}]},{"id":"1323","parent_id":"1236","type":"2","zip_code":"361000","name":"抚州市","deleted":"0","subarea":[{"id":"1324","parent_id":"1323","type":"3","zip_code":"361002","name":"临川区","deleted":"0"},{"id":"1325","parent_id":"1323","type":"3","zip_code":"361021","name":"南城县","deleted":"0"},{"id":"1326","parent_id":"1323","type":"3","zip_code":"361022","name":"黎川县","deleted":"0"},{"id":"1327","parent_id":"1323","type":"3","zip_code":"361023","name":"南丰县","deleted":"0"},{"id":"1328","parent_id":"1323","type":"3","zip_code":"361024","name":"崇仁县","deleted":"0"},{"id":"1329","parent_id":"1323","type":"3","zip_code":"361025","name":"乐安县","deleted":"0"},{"id":"1330","parent_id":"1323","type":"3","zip_code":"361026","name":"宜黄县","deleted":"0"},{"id":"1331","parent_id":"1323","type":"3","zip_code":"361027","name":"金溪县","deleted":"0"},{"id":"1332","parent_id":"1323","type":"3","zip_code":"361028","name":"资溪县","deleted":"0"},{"id":"1333","parent_id":"1323","type":"3","zip_code":"361029","name":"东乡县","deleted":"0"},{"id":"1334","parent_id":"1323","type":"3","zip_code":"361030","name":"广昌县","deleted":"0"}]},{"id":"1335","parent_id":"1236","type":"2","zip_code":"361100","name":"上饶市","deleted":"0","subarea":[{"id":"1336","parent_id":"1335","type":"3","zip_code":"361102","name":"信州区","deleted":"0"},{"id":"1337","parent_id":"1335","type":"3","zip_code":"361103","name":"广丰区","deleted":"0"},{"id":"1338","parent_id":"1335","type":"3","zip_code":"361121","name":"上饶县","deleted":"0"},{"id":"1339","parent_id":"1335","type":"3","zip_code":"361123","name":"玉山县","deleted":"0"},{"id":"1340","parent_id":"1335","type":"3","zip_code":"361124","name":"铅山县","deleted":"0"},{"id":"1341","parent_id":"1335","type":"3","zip_code":"361125","name":"横峰县","deleted":"0"},{"id":"1342","parent_id":"1335","type":"3","zip_code":"361126","name":"弋阳县","deleted":"0"},{"id":"1343","parent_id":"1335","type":"3","zip_code":"361127","name":"余干县","deleted":"0"},{"id":"1344","parent_id":"1335","type":"3","zip_code":"361128","name":"鄱阳县","deleted":"0"},{"id":"1345","parent_id":"1335","type":"3","zip_code":"361129","name":"万年县","deleted":"0"},{"id":"1346","parent_id":"1335","type":"3","zip_code":"361130","name":"婺源县","deleted":"0"},{"id":"1347","parent_id":"1335","type":"3","zip_code":"361181","name":"德兴市","deleted":"0"}]}]},{"id":"1348","parent_id":"0","type":"1","zip_code":"370000","name":"山东省","deleted":"0","subarea":[{"id":"1349","parent_id":"1348","type":"2","zip_code":"370100","name":"济南市","deleted":"0","subarea":[{"id":"1350","parent_id":"1349","type":"3","zip_code":"370102","name":"历下区","deleted":"0"},{"id":"1351","parent_id":"1349","type":"3","zip_code":"370103","name":"市中区","deleted":"0"},{"id":"1352","parent_id":"1349","type":"3","zip_code":"370104","name":"槐荫区","deleted":"0"},{"id":"1353","parent_id":"1349","type":"3","zip_code":"370105","name":"天桥区","deleted":"0"},{"id":"1354","parent_id":"1349","type":"3","zip_code":"370112","name":"历城区","deleted":"0"},{"id":"1355","parent_id":"1349","type":"3","zip_code":"370113","name":"长清区","deleted":"0"},{"id":"1356","parent_id":"1349","type":"3","zip_code":"370124","name":"平阴县","deleted":"0"},{"id":"1357","parent_id":"1349","type":"3","zip_code":"370125","name":"济阳县","deleted":"0"},{"id":"1358","parent_id":"1349","type":"3","zip_code":"370126","name":"商河县","deleted":"0"},{"id":"1359","parent_id":"1349","type":"3","zip_code":"370181","name":"章丘市","deleted":"0"}]},{"id":"1360","parent_id":"1348","type":"2","zip_code":"370200","name":"青岛市","deleted":"0","subarea":[{"id":"1361","parent_id":"1360","type":"3","zip_code":"370202","name":"市南区","deleted":"0"},{"id":"1362","parent_id":"1360","type":"3","zip_code":"370203","name":"市北区","deleted":"0"},{"id":"1363","parent_id":"1360","type":"3","zip_code":"370211","name":"黄岛区","deleted":"0"},{"id":"1364","parent_id":"1360","type":"3","zip_code":"370212","name":"崂山区","deleted":"0"},{"id":"1365","parent_id":"1360","type":"3","zip_code":"370213","name":"李沧区","deleted":"0"},{"id":"1366","parent_id":"1360","type":"3","zip_code":"370214","name":"城阳区","deleted":"0"},{"id":"1367","parent_id":"1360","type":"3","zip_code":"370281","name":"胶州市","deleted":"0"},{"id":"1368","parent_id":"1360","type":"3","zip_code":"370282","name":"即墨市","deleted":"0"},{"id":"1369","parent_id":"1360","type":"3","zip_code":"370283","name":"平度市","deleted":"0"},{"id":"1370","parent_id":"1360","type":"3","zip_code":"370285","name":"莱西市","deleted":"0"}]},{"id":"1371","parent_id":"1348","type":"2","zip_code":"370300","name":"淄博市","deleted":"0","subarea":[{"id":"1372","parent_id":"1371","type":"3","zip_code":"370302","name":"淄川区","deleted":"0"},{"id":"1373","parent_id":"1371","type":"3","zip_code":"370303","name":"张店区","deleted":"0"},{"id":"1374","parent_id":"1371","type":"3","zip_code":"370304","name":"博山区","deleted":"0"},{"id":"1375","parent_id":"1371","type":"3","zip_code":"370305","name":"临淄区","deleted":"0"},{"id":"1376","parent_id":"1371","type":"3","zip_code":"370306","name":"周村区","deleted":"0"},{"id":"1377","parent_id":"1371","type":"3","zip_code":"370321","name":"桓台县","deleted":"0"},{"id":"1378","parent_id":"1371","type":"3","zip_code":"370322","name":"高青县","deleted":"0"},{"id":"1379","parent_id":"1371","type":"3","zip_code":"370323","name":"沂源县","deleted":"0"}]},{"id":"1387","parent_id":"1348","type":"2","zip_code":"370500","name":"东营市","deleted":"0","subarea":[{"id":"1388","parent_id":"1387","type":"3","zip_code":"370502","name":"东营区","deleted":"0"},{"id":"1389","parent_id":"1387","type":"3","zip_code":"370503","name":"河口区","deleted":"0"},{"id":"1390","parent_id":"1387","type":"3","zip_code":"370505","name":"垦利区","deleted":"0"},{"id":"1391","parent_id":"1387","type":"3","zip_code":"370522","name":"利津县","deleted":"0"},{"id":"1392","parent_id":"1387","type":"3","zip_code":"370523","name":"广饶县","deleted":"0"}]},{"id":"1393","parent_id":"1348","type":"2","zip_code":"370600","name":"烟台市","deleted":"0","subarea":[{"id":"1394","parent_id":"1393","type":"3","zip_code":"370602","name":"芝罘区","deleted":"0"},{"id":"1395","parent_id":"1393","type":"3","zip_code":"370611","name":"福山区","deleted":"0"},{"id":"1396","parent_id":"1393","type":"3","zip_code":"370612","name":"牟平区","deleted":"0"},{"id":"1397","parent_id":"1393","type":"3","zip_code":"370613","name":"莱山区","deleted":"0"},{"id":"1398","parent_id":"1393","type":"3","zip_code":"370634","name":"长岛县","deleted":"0"},{"id":"1399","parent_id":"1393","type":"3","zip_code":"370681","name":"龙口市","deleted":"0"},{"id":"1400","parent_id":"1393","type":"3","zip_code":"370682","name":"莱阳市","deleted":"0"},{"id":"1401","parent_id":"1393","type":"3","zip_code":"370683","name":"莱州市","deleted":"0"},{"id":"1402","parent_id":"1393","type":"3","zip_code":"370684","name":"蓬莱市","deleted":"0"},{"id":"1403","parent_id":"1393","type":"3","zip_code":"370685","name":"招远市","deleted":"0"},{"id":"1404","parent_id":"1393","type":"3","zip_code":"370686","name":"栖霞市","deleted":"0"},{"id":"1405","parent_id":"1393","type":"3","zip_code":"370687","name":"海阳市","deleted":"0"}]},{"id":"1406","parent_id":"1348","type":"2","zip_code":"370700","name":"潍坊市","deleted":"0","subarea":[{"id":"1407","parent_id":"1406","type":"3","zip_code":"370702","name":"潍城区","deleted":"0"},{"id":"1408","parent_id":"1406","type":"3","zip_code":"370703","name":"寒亭区","deleted":"0"},{"id":"1409","parent_id":"1406","type":"3","zip_code":"370704","name":"坊子区","deleted":"0"},{"id":"1410","parent_id":"1406","type":"3","zip_code":"370705","name":"奎文区","deleted":"0"},{"id":"1411","parent_id":"1406","type":"3","zip_code":"370724","name":"临朐县","deleted":"0"},{"id":"1412","parent_id":"1406","type":"3","zip_code":"370725","name":"昌乐县","deleted":"0"},{"id":"1413","parent_id":"1406","type":"3","zip_code":"370781","name":"青州市","deleted":"0"},{"id":"1414","parent_id":"1406","type":"3","zip_code":"370782","name":"诸城市","deleted":"0"},{"id":"1415","parent_id":"1406","type":"3","zip_code":"370783","name":"寿光市","deleted":"0"},{"id":"1416","parent_id":"1406","type":"3","zip_code":"370784","name":"安丘市","deleted":"0"},{"id":"1417","parent_id":"1406","type":"3","zip_code":"370785","name":"高密市","deleted":"0"},{"id":"1418","parent_id":"1406","type":"3","zip_code":"370786","name":"昌邑市","deleted":"0"}]},{"id":"1419","parent_id":"1348","type":"2","zip_code":"370800","name":"济宁市","deleted":"0","subarea":[{"id":"1420","parent_id":"1419","type":"3","zip_code":"370811","name":"任城区","deleted":"0"},{"id":"1421","parent_id":"1419","type":"3","zip_code":"370812","name":"兖州区","deleted":"0"},{"id":"1422","parent_id":"1419","type":"3","zip_code":"370826","name":"微山县","deleted":"0"},{"id":"1423","parent_id":"1419","type":"3","zip_code":"370827","name":"鱼台县","deleted":"0"},{"id":"1424","parent_id":"1419","type":"3","zip_code":"370828","name":"金乡县","deleted":"0"},{"id":"1425","parent_id":"1419","type":"3","zip_code":"370829","name":"嘉祥县","deleted":"0"},{"id":"1426","parent_id":"1419","type":"3","zip_code":"370830","name":"汶上县","deleted":"0"},{"id":"1427","parent_id":"1419","type":"3","zip_code":"370831","name":"泗水县","deleted":"0"},{"id":"1428","parent_id":"1419","type":"3","zip_code":"370832","name":"梁山县","deleted":"0"},{"id":"1429","parent_id":"1419","type":"3","zip_code":"370881","name":"曲阜市","deleted":"0"},{"id":"1430","parent_id":"1419","type":"3","zip_code":"370883","name":"邹城市","deleted":"0"}]},{"id":"1431","parent_id":"1348","type":"2","zip_code":"370900","name":"泰安市","deleted":"0","subarea":[{"id":"1432","parent_id":"1431","type":"3","zip_code":"370902","name":"泰山区","deleted":"0"},{"id":"1433","parent_id":"1431","type":"3","zip_code":"370911","name":"岱岳区","deleted":"0"},{"id":"1434","parent_id":"1431","type":"3","zip_code":"370921","name":"宁阳县","deleted":"0"},{"id":"1435","parent_id":"1431","type":"3","zip_code":"370923","name":"东平县","deleted":"0"},{"id":"1436","parent_id":"1431","type":"3","zip_code":"370982","name":"新泰市","deleted":"0"},{"id":"1437","parent_id":"1431","type":"3","zip_code":"370983","name":"肥城市","deleted":"0"}]},{"id":"1438","parent_id":"1348","type":"2","zip_code":"371000","name":"威海市","deleted":"0","subarea":[{"id":"1439","parent_id":"1438","type":"3","zip_code":"371002","name":"环翠区","deleted":"0"},{"id":"1440","parent_id":"1438","type":"3","zip_code":"371003","name":"文登区","deleted":"0"},{"id":"1441","parent_id":"1438","type":"3","zip_code":"371082","name":"荣成市","deleted":"0"},{"id":"1442","parent_id":"1438","type":"3","zip_code":"371083","name":"乳山市","deleted":"0"}]},{"id":"1443","parent_id":"1348","type":"2","zip_code":"371100","name":"日照市","deleted":"0","subarea":[{"id":"1444","parent_id":"1443","type":"3","zip_code":"371102","name":"东港区","deleted":"0"},{"id":"1445","parent_id":"1443","type":"3","zip_code":"371103","name":"岚山区","deleted":"0"},{"id":"1446","parent_id":"1443","type":"3","zip_code":"371121","name":"五莲县","deleted":"0"},{"id":"1447","parent_id":"1443","type":"3","zip_code":"371122","name":"莒县","deleted":"0"}]},{"id":"1451","parent_id":"1348","type":"2","zip_code":"371300","name":"临沂市","deleted":"0","subarea":[{"id":"1452","parent_id":"1451","type":"3","zip_code":"371302","name":"兰山区","deleted":"0"},{"id":"1453","parent_id":"1451","type":"3","zip_code":"371311","name":"罗庄区","deleted":"0"},{"id":"1454","parent_id":"1451","type":"3","zip_code":"371312","name":"河东区","deleted":"0"},{"id":"1455","parent_id":"1451","type":"3","zip_code":"371321","name":"沂南县","deleted":"0"},{"id":"1456","parent_id":"1451","type":"3","zip_code":"371322","name":"郯城县","deleted":"0"},{"id":"1457","parent_id":"1451","type":"3","zip_code":"371323","name":"沂水县","deleted":"0"},{"id":"1458","parent_id":"1451","type":"3","zip_code":"371324","name":"兰陵县","deleted":"0"},{"id":"1459","parent_id":"1451","type":"3","zip_code":"371325","name":"费县","deleted":"0"},{"id":"1460","parent_id":"1451","type":"3","zip_code":"371326","name":"平邑县","deleted":"0"},{"id":"1461","parent_id":"1451","type":"3","zip_code":"371327","name":"莒南县","deleted":"0"},{"id":"1462","parent_id":"1451","type":"3","zip_code":"371328","name":"蒙阴县","deleted":"0"},{"id":"1463","parent_id":"1451","type":"3","zip_code":"371329","name":"临沭县","deleted":"0"}]},{"id":"1464","parent_id":"1348","type":"2","zip_code":"371400","name":"德州市","deleted":"0","subarea":[{"id":"1465","parent_id":"1464","type":"3","zip_code":"371402","name":"德城区","deleted":"0"},{"id":"1466","parent_id":"1464","type":"3","zip_code":"371403","name":"陵城区","deleted":"0"},{"id":"1467","parent_id":"1464","type":"3","zip_code":"371422","name":"宁津县","deleted":"0"},{"id":"1468","parent_id":"1464","type":"3","zip_code":"371423","name":"庆云县","deleted":"0"},{"id":"1469","parent_id":"1464","type":"3","zip_code":"371424","name":"临邑县","deleted":"0"},{"id":"1470","parent_id":"1464","type":"3","zip_code":"371425","name":"齐河县","deleted":"0"},{"id":"1471","parent_id":"1464","type":"3","zip_code":"371426","name":"平原县","deleted":"0"},{"id":"1472","parent_id":"1464","type":"3","zip_code":"371427","name":"夏津县","deleted":"0"},{"id":"1473","parent_id":"1464","type":"3","zip_code":"371428","name":"武城县","deleted":"0"},{"id":"1474","parent_id":"1464","type":"3","zip_code":"371481","name":"乐陵市","deleted":"0"},{"id":"1475","parent_id":"1464","type":"3","zip_code":"371482","name":"禹城市","deleted":"0"}]},{"id":"1476","parent_id":"1348","type":"2","zip_code":"371500","name":"聊城市","deleted":"0","subarea":[{"id":"1477","parent_id":"1476","type":"3","zip_code":"371502","name":"东昌府区","deleted":"0"},{"id":"1478","parent_id":"1476","type":"3","zip_code":"371521","name":"阳谷县","deleted":"0"},{"id":"1479","parent_id":"1476","type":"3","zip_code":"371522","name":"莘县","deleted":"0"},{"id":"1480","parent_id":"1476","type":"3","zip_code":"371523","name":"茌平县","deleted":"0"},{"id":"1481","parent_id":"1476","type":"3","zip_code":"371524","name":"东阿县","deleted":"0"},{"id":"1482","parent_id":"1476","type":"3","zip_code":"371525","name":"冠县","deleted":"0"},{"id":"1483","parent_id":"1476","type":"3","zip_code":"371526","name":"高唐县","deleted":"0"},{"id":"1484","parent_id":"1476","type":"3","zip_code":"371581","name":"临清市","deleted":"0"}]},{"id":"1493","parent_id":"1348","type":"2","zip_code":"371700","name":"菏泽市","deleted":"0","subarea":[{"id":"1494","parent_id":"1493","type":"3","zip_code":"371702","name":"牡丹区","deleted":"0"},{"id":"1495","parent_id":"1493","type":"3","zip_code":"371703","name":"定陶区","deleted":"0"},{"id":"1496","parent_id":"1493","type":"3","zip_code":"371721","name":"曹县","deleted":"0"},{"id":"1497","parent_id":"1493","type":"3","zip_code":"371722","name":"单县","deleted":"0"},{"id":"1498","parent_id":"1493","type":"3","zip_code":"371723","name":"成武县","deleted":"0"},{"id":"1499","parent_id":"1493","type":"3","zip_code":"371724","name":"巨野县","deleted":"0"},{"id":"1500","parent_id":"1493","type":"3","zip_code":"371725","name":"郓城县","deleted":"0"},{"id":"1501","parent_id":"1493","type":"3","zip_code":"371726","name":"鄄城县","deleted":"0"},{"id":"1502","parent_id":"1493","type":"3","zip_code":"371728","name":"东明县","deleted":"0"}]}]},{"id":"1503","parent_id":"0","type":"1","zip_code":"410000","name":"河南省","deleted":"0","subarea":[{"id":"1504","parent_id":"1503","type":"2","zip_code":"410100","name":"郑州市","deleted":"0","subarea":[{"id":"1505","parent_id":"1504","type":"3","zip_code":"410102","name":"中原区","deleted":"0"},{"id":"1506","parent_id":"1504","type":"3","zip_code":"410103","name":"二七区","deleted":"0"},{"id":"1507","parent_id":"1504","type":"3","zip_code":"410104","name":"管城回族区","deleted":"0"},{"id":"1508","parent_id":"1504","type":"3","zip_code":"410105","name":"金水区","deleted":"0"},{"id":"1509","parent_id":"1504","type":"3","zip_code":"410106","name":"上街区","deleted":"0"},{"id":"1510","parent_id":"1504","type":"3","zip_code":"410108","name":"惠济区","deleted":"0"},{"id":"1511","parent_id":"1504","type":"3","zip_code":"410122","name":"中牟县","deleted":"0"},{"id":"1512","parent_id":"1504","type":"3","zip_code":"410181","name":"巩义市","deleted":"0"},{"id":"1513","parent_id":"1504","type":"3","zip_code":"410182","name":"荥阳市","deleted":"0"},{"id":"1514","parent_id":"1504","type":"3","zip_code":"410183","name":"新密市","deleted":"0"},{"id":"1515","parent_id":"1504","type":"3","zip_code":"410184","name":"新郑市","deleted":"0"},{"id":"1516","parent_id":"1504","type":"3","zip_code":"410185","name":"登封市","deleted":"0"}]},{"id":"1517","parent_id":"1503","type":"2","zip_code":"410200","name":"开封市","deleted":"0","subarea":[{"id":"1518","parent_id":"1517","type":"3","zip_code":"410202","name":"龙亭区","deleted":"0"},{"id":"1519","parent_id":"1517","type":"3","zip_code":"410203","name":"顺河回族区","deleted":"0"},{"id":"1520","parent_id":"1517","type":"3","zip_code":"410204","name":"鼓楼区","deleted":"0"},{"id":"1521","parent_id":"1517","type":"3","zip_code":"410205","name":"禹王台区","deleted":"0"},{"id":"1522","parent_id":"1517","type":"3","zip_code":"410212","name":"祥符区","deleted":"0"},{"id":"1523","parent_id":"1517","type":"3","zip_code":"410221","name":"杞县","deleted":"0"},{"id":"1524","parent_id":"1517","type":"3","zip_code":"410222","name":"通许县","deleted":"0"},{"id":"1525","parent_id":"1517","type":"3","zip_code":"410223","name":"尉氏县","deleted":"0"},{"id":"1526","parent_id":"1517","type":"3","zip_code":"410225","name":"兰考县","deleted":"0"}]},{"id":"1527","parent_id":"1503","type":"2","zip_code":"410300","name":"洛阳市","deleted":"0","subarea":[{"id":"1528","parent_id":"1527","type":"3","zip_code":"410302","name":"老城区","deleted":"0"},{"id":"1529","parent_id":"1527","type":"3","zip_code":"410303","name":"西工区","deleted":"0"},{"id":"1530","parent_id":"1527","type":"3","zip_code":"410304","name":"瀍河回族区","deleted":"0"},{"id":"1531","parent_id":"1527","type":"3","zip_code":"410305","name":"涧西区","deleted":"0"},{"id":"1532","parent_id":"1527","type":"3","zip_code":"410306","name":"吉利区","deleted":"0"},{"id":"1533","parent_id":"1527","type":"3","zip_code":"410311","name":"洛龙区","deleted":"0"},{"id":"1534","parent_id":"1527","type":"3","zip_code":"410322","name":"孟津县","deleted":"0"},{"id":"1535","parent_id":"1527","type":"3","zip_code":"410323","name":"新安县","deleted":"0"},{"id":"1536","parent_id":"1527","type":"3","zip_code":"410324","name":"栾川县","deleted":"0"},{"id":"1537","parent_id":"1527","type":"3","zip_code":"410325","name":"嵩县","deleted":"0"},{"id":"1538","parent_id":"1527","type":"3","zip_code":"410326","name":"汝阳县","deleted":"0"},{"id":"1539","parent_id":"1527","type":"3","zip_code":"410327","name":"宜阳县","deleted":"0"},{"id":"1540","parent_id":"1527","type":"3","zip_code":"410328","name":"洛宁县","deleted":"0"},{"id":"1541","parent_id":"1527","type":"3","zip_code":"410329","name":"伊川县","deleted":"0"},{"id":"1542","parent_id":"1527","type":"3","zip_code":"410381","name":"偃师市","deleted":"0"}]},{"id":"1543","parent_id":"1503","type":"2","zip_code":"410400","name":"平顶山市","deleted":"0","subarea":[{"id":"1544","parent_id":"1543","type":"3","zip_code":"410402","name":"新华区","deleted":"0"},{"id":"1545","parent_id":"1543","type":"3","zip_code":"410403","name":"卫东区","deleted":"0"},{"id":"1546","parent_id":"1543","type":"3","zip_code":"410404","name":"石龙区","deleted":"0"},{"id":"1547","parent_id":"1543","type":"3","zip_code":"410411","name":"湛河区","deleted":"0"},{"id":"1548","parent_id":"1543","type":"3","zip_code":"410421","name":"宝丰县","deleted":"0"},{"id":"1549","parent_id":"1543","type":"3","zip_code":"410422","name":"叶县","deleted":"0"},{"id":"1550","parent_id":"1543","type":"3","zip_code":"410423","name":"鲁山县","deleted":"0"},{"id":"1551","parent_id":"1543","type":"3","zip_code":"410425","name":"郏县","deleted":"0"},{"id":"1552","parent_id":"1543","type":"3","zip_code":"410481","name":"舞钢市","deleted":"0"},{"id":"1553","parent_id":"1543","type":"3","zip_code":"410482","name":"汝州市","deleted":"0"}]},{"id":"1554","parent_id":"1503","type":"2","zip_code":"410500","name":"安阳市","deleted":"0","subarea":[{"id":"1555","parent_id":"1554","type":"3","zip_code":"410502","name":"文峰区","deleted":"0"},{"id":"1556","parent_id":"1554","type":"3","zip_code":"410503","name":"北关区","deleted":"0"},{"id":"1557","parent_id":"1554","type":"3","zip_code":"410505","name":"殷都区","deleted":"0"},{"id":"1558","parent_id":"1554","type":"3","zip_code":"410506","name":"龙安区","deleted":"0"},{"id":"1559","parent_id":"1554","type":"3","zip_code":"410522","name":"安阳县","deleted":"0"},{"id":"1560","parent_id":"1554","type":"3","zip_code":"410523","name":"汤阴县","deleted":"0"},{"id":"1561","parent_id":"1554","type":"3","zip_code":"410526","name":"滑县","deleted":"0"},{"id":"1562","parent_id":"1554","type":"3","zip_code":"410527","name":"内黄县","deleted":"0"},{"id":"1563","parent_id":"1554","type":"3","zip_code":"410581","name":"林州市","deleted":"0"}]},{"id":"1570","parent_id":"1503","type":"2","zip_code":"410700","name":"新乡市","deleted":"0","subarea":[{"id":"1571","parent_id":"1570","type":"3","zip_code":"410702","name":"红旗区","deleted":"0"},{"id":"1572","parent_id":"1570","type":"3","zip_code":"410703","name":"卫滨区","deleted":"0"},{"id":"1573","parent_id":"1570","type":"3","zip_code":"410704","name":"凤泉区","deleted":"0"},{"id":"1574","parent_id":"1570","type":"3","zip_code":"410711","name":"牧野区","deleted":"0"},{"id":"1575","parent_id":"1570","type":"3","zip_code":"410721","name":"新乡县","deleted":"0"},{"id":"1576","parent_id":"1570","type":"3","zip_code":"410724","name":"获嘉县","deleted":"0"},{"id":"1577","parent_id":"1570","type":"3","zip_code":"410725","name":"原阳县","deleted":"0"},{"id":"1578","parent_id":"1570","type":"3","zip_code":"410726","name":"延津县","deleted":"0"},{"id":"1579","parent_id":"1570","type":"3","zip_code":"410727","name":"封丘县","deleted":"0"},{"id":"1580","parent_id":"1570","type":"3","zip_code":"410728","name":"长垣县","deleted":"0"},{"id":"1581","parent_id":"1570","type":"3","zip_code":"410781","name":"卫辉市","deleted":"0"},{"id":"1582","parent_id":"1570","type":"3","zip_code":"410782","name":"辉县市","deleted":"0"}]},{"id":"1601","parent_id":"1503","type":"2","zip_code":"411000","name":"许昌市","deleted":"0","subarea":[{"id":"1602","parent_id":"1601","type":"3","zip_code":"411002","name":"魏都区","deleted":"0"},{"id":"1603","parent_id":"1601","type":"3","zip_code":"411023","name":"许昌县","deleted":"0"},{"id":"1604","parent_id":"1601","type":"3","zip_code":"411024","name":"鄢陵县","deleted":"0"},{"id":"1605","parent_id":"1601","type":"3","zip_code":"411025","name":"襄城县","deleted":"0"},{"id":"1606","parent_id":"1601","type":"3","zip_code":"411081","name":"禹州市","deleted":"0"},{"id":"1607","parent_id":"1601","type":"3","zip_code":"411082","name":"长葛市","deleted":"0"}]},{"id":"1621","parent_id":"1503","type":"2","zip_code":"411300","name":"南阳市","deleted":"0","subarea":[{"id":"1622","parent_id":"1621","type":"3","zip_code":"411302","name":"宛城区","deleted":"0"},{"id":"1623","parent_id":"1621","type":"3","zip_code":"411303","name":"卧龙区","deleted":"0"},{"id":"1624","parent_id":"1621","type":"3","zip_code":"411321","name":"南召县","deleted":"0"},{"id":"1625","parent_id":"1621","type":"3","zip_code":"411322","name":"方城县","deleted":"0"},{"id":"1626","parent_id":"1621","type":"3","zip_code":"411323","name":"西峡县","deleted":"0"},{"id":"1627","parent_id":"1621","type":"3","zip_code":"411324","name":"镇平县","deleted":"0"},{"id":"1628","parent_id":"1621","type":"3","zip_code":"411325","name":"内乡县","deleted":"0"},{"id":"1629","parent_id":"1621","type":"3","zip_code":"411326","name":"淅川县","deleted":"0"},{"id":"1630","parent_id":"1621","type":"3","zip_code":"411327","name":"社旗县","deleted":"0"},{"id":"1631","parent_id":"1621","type":"3","zip_code":"411328","name":"唐河县","deleted":"0"},{"id":"1632","parent_id":"1621","type":"3","zip_code":"411329","name":"新野县","deleted":"0"},{"id":"1633","parent_id":"1621","type":"3","zip_code":"411330","name":"桐柏县","deleted":"0"},{"id":"1634","parent_id":"1621","type":"3","zip_code":"411381","name":"邓州市","deleted":"0"}]},{"id":"1635","parent_id":"1503","type":"2","zip_code":"411400","name":"商丘市","deleted":"0","subarea":[{"id":"1636","parent_id":"1635","type":"3","zip_code":"411402","name":"梁园区","deleted":"0"},{"id":"1637","parent_id":"1635","type":"3","zip_code":"411403","name":"睢阳区","deleted":"0"},{"id":"1638","parent_id":"1635","type":"3","zip_code":"411421","name":"民权县","deleted":"0"},{"id":"1639","parent_id":"1635","type":"3","zip_code":"411422","name":"睢县","deleted":"0"},{"id":"1640","parent_id":"1635","type":"3","zip_code":"411423","name":"宁陵县","deleted":"0"},{"id":"1641","parent_id":"1635","type":"3","zip_code":"411424","name":"柘城县","deleted":"0"},{"id":"1642","parent_id":"1635","type":"3","zip_code":"411425","name":"虞城县","deleted":"0"},{"id":"1643","parent_id":"1635","type":"3","zip_code":"411426","name":"夏邑县","deleted":"0"},{"id":"1644","parent_id":"1635","type":"3","zip_code":"411481","name":"永城市","deleted":"0"}]},{"id":"1645","parent_id":"1503","type":"2","zip_code":"411600","name":"周口市","deleted":"0","subarea":[{"id":"1646","parent_id":"1645","type":"3","zip_code":"411602","name":"川汇区","deleted":"0"},{"id":"1647","parent_id":"1645","type":"3","zip_code":"411621","name":"扶沟县","deleted":"0"},{"id":"1648","parent_id":"1645","type":"3","zip_code":"411622","name":"西华县","deleted":"0"},{"id":"1649","parent_id":"1645","type":"3","zip_code":"411623","name":"商水县","deleted":"0"},{"id":"1650","parent_id":"1645","type":"3","zip_code":"411624","name":"沈丘县","deleted":"0"},{"id":"1651","parent_id":"1645","type":"3","zip_code":"411625","name":"郸城县","deleted":"0"},{"id":"1652","parent_id":"1645","type":"3","zip_code":"411626","name":"淮阳县","deleted":"0"},{"id":"1653","parent_id":"1645","type":"3","zip_code":"411627","name":"太康县","deleted":"0"},{"id":"1654","parent_id":"1645","type":"3","zip_code":"411628","name":"鹿邑县","deleted":"0"},{"id":"1655","parent_id":"1645","type":"3","zip_code":"411681","name":"项城市","deleted":"0"}]},{"id":"1656","parent_id":"1503","type":"2","zip_code":"411500","name":"信阳市","deleted":"0","subarea":[{"id":"1657","parent_id":"1656","type":"3","zip_code":"411502","name":"浉河区","deleted":"0"},{"id":"1658","parent_id":"1656","type":"3","zip_code":"411503","name":"平桥区","deleted":"0"},{"id":"1659","parent_id":"1656","type":"3","zip_code":"411521","name":"罗山县","deleted":"0"},{"id":"1660","parent_id":"1656","type":"3","zip_code":"411522","name":"光山县","deleted":"0"},{"id":"1661","parent_id":"1656","type":"3","zip_code":"411523","name":"新县","deleted":"0"},{"id":"1662","parent_id":"1656","type":"3","zip_code":"411524","name":"商城县","deleted":"0"},{"id":"1663","parent_id":"1656","type":"3","zip_code":"411525","name":"固始县","deleted":"0"},{"id":"1664","parent_id":"1656","type":"3","zip_code":"411526","name":"潢川县","deleted":"0"},{"id":"1665","parent_id":"1656","type":"3","zip_code":"411527","name":"淮滨县","deleted":"0"},{"id":"1666","parent_id":"1656","type":"3","zip_code":"411528","name":"息县","deleted":"0"}]},{"id":"1667","parent_id":"1503","type":"2","zip_code":"411700","name":"驻马店市","deleted":"0","subarea":[{"id":"1668","parent_id":"1667","type":"3","zip_code":"411702","name":"驿城区","deleted":"0"},{"id":"1669","parent_id":"1667","type":"3","zip_code":"411721","name":"西平县","deleted":"0"},{"id":"1670","parent_id":"1667","type":"3","zip_code":"411722","name":"上蔡县","deleted":"0"},{"id":"1671","parent_id":"1667","type":"3","zip_code":"411723","name":"平舆县","deleted":"0"},{"id":"1672","parent_id":"1667","type":"3","zip_code":"411724","name":"正阳县","deleted":"0"},{"id":"1673","parent_id":"1667","type":"3","zip_code":"411725","name":"确山县","deleted":"0"},{"id":"1674","parent_id":"1667","type":"3","zip_code":"411726","name":"泌阳县","deleted":"0"},{"id":"1675","parent_id":"1667","type":"3","zip_code":"411727","name":"汝南县","deleted":"0"},{"id":"1676","parent_id":"1667","type":"3","zip_code":"411728","name":"遂平县","deleted":"0"},{"id":"1677","parent_id":"1667","type":"3","zip_code":"411729","name":"新蔡县","deleted":"0"}]},{"id":"1678","parent_id":"1503","type":"2","zip_code":"419000","name":"省直辖","deleted":"0","subarea":[{"id":"1679","parent_id":"1678","type":"3","zip_code":"419001","name":"济源市","deleted":"0"}]}]},{"id":"1680","parent_id":"0","type":"1","zip_code":"420000","name":"湖北省","deleted":"0","subarea":[{"id":"1681","parent_id":"1680","type":"2","zip_code":"420100","name":"武汉市","deleted":"0","subarea":[{"id":"1682","parent_id":"1681","type":"3","zip_code":"420102","name":"江岸区","deleted":"0"},{"id":"1683","parent_id":"1681","type":"3","zip_code":"420103","name":"江汉区","deleted":"0"},{"id":"1684","parent_id":"1681","type":"3","zip_code":"420104","name":"硚口区","deleted":"0"},{"id":"1685","parent_id":"1681","type":"3","zip_code":"420105","name":"汉阳区","deleted":"0"},{"id":"1686","parent_id":"1681","type":"3","zip_code":"420106","name":"武昌区","deleted":"0"},{"id":"1687","parent_id":"1681","type":"3","zip_code":"420107","name":"青山区","deleted":"0"},{"id":"1688","parent_id":"1681","type":"3","zip_code":"420111","name":"洪山区","deleted":"0"},{"id":"1689","parent_id":"1681","type":"3","zip_code":"420112","name":"东西湖区","deleted":"0"},{"id":"1690","parent_id":"1681","type":"3","zip_code":"420113","name":"汉南区","deleted":"0"},{"id":"1691","parent_id":"1681","type":"3","zip_code":"420114","name":"蔡甸区","deleted":"0"},{"id":"1692","parent_id":"1681","type":"3","zip_code":"420115","name":"江夏区","deleted":"0"},{"id":"1693","parent_id":"1681","type":"3","zip_code":"420116","name":"黄陂区","deleted":"0"},{"id":"1694","parent_id":"1681","type":"3","zip_code":"420117","name":"新洲区","deleted":"0"}]},{"id":"1695","parent_id":"1680","type":"2","zip_code":"420200","name":"黄石市","deleted":"0","subarea":[{"id":"1696","parent_id":"1695","type":"3","zip_code":"420202","name":"黄石港区","deleted":"0"},{"id":"1697","parent_id":"1695","type":"3","zip_code":"420203","name":"西塞山区","deleted":"0"},{"id":"1698","parent_id":"1695","type":"3","zip_code":"420204","name":"下陆区","deleted":"0"},{"id":"1699","parent_id":"1695","type":"3","zip_code":"420205","name":"铁山区","deleted":"0"},{"id":"1700","parent_id":"1695","type":"3","zip_code":"420222","name":"阳新县","deleted":"0"},{"id":"1701","parent_id":"1695","type":"3","zip_code":"420281","name":"大冶市","deleted":"0"}]},{"id":"1702","parent_id":"1680","type":"2","zip_code":"420300","name":"十堰市","deleted":"0","subarea":[{"id":"1703","parent_id":"1702","type":"3","zip_code":"420302","name":"茅箭区","deleted":"0"},{"id":"1704","parent_id":"1702","type":"3","zip_code":"420303","name":"张湾区","deleted":"0"},{"id":"1705","parent_id":"1702","type":"3","zip_code":"420304","name":"郧阳区","deleted":"0"},{"id":"1706","parent_id":"1702","type":"3","zip_code":"420322","name":"郧西县","deleted":"0"},{"id":"1707","parent_id":"1702","type":"3","zip_code":"420323","name":"竹山县","deleted":"0"},{"id":"1708","parent_id":"1702","type":"3","zip_code":"420324","name":"竹溪县","deleted":"0"},{"id":"1709","parent_id":"1702","type":"3","zip_code":"420325","name":"房县","deleted":"0"},{"id":"1710","parent_id":"1702","type":"3","zip_code":"420381","name":"丹江口市","deleted":"0"}]},{"id":"1711","parent_id":"1680","type":"2","zip_code":"420500","name":"宜昌市","deleted":"0","subarea":[{"id":"1712","parent_id":"1711","type":"3","zip_code":"420502","name":"西陵区","deleted":"0"},{"id":"1713","parent_id":"1711","type":"3","zip_code":"420503","name":"伍家岗区","deleted":"0"},{"id":"1714","parent_id":"1711","type":"3","zip_code":"420504","name":"点军区","deleted":"0"},{"id":"1715","parent_id":"1711","type":"3","zip_code":"420505","name":"猇亭区","deleted":"0"},{"id":"1716","parent_id":"1711","type":"3","zip_code":"420506","name":"夷陵区","deleted":"0"},{"id":"1717","parent_id":"1711","type":"3","zip_code":"420525","name":"远安县","deleted":"0"},{"id":"1718","parent_id":"1711","type":"3","zip_code":"420526","name":"兴山县","deleted":"0"},{"id":"1719","parent_id":"1711","type":"3","zip_code":"420527","name":"秭归县","deleted":"0"},{"id":"1720","parent_id":"1711","type":"3","zip_code":"420528","name":"长阳县","deleted":"0"},{"id":"1721","parent_id":"1711","type":"3","zip_code":"420529","name":"五峰县","deleted":"0"},{"id":"1722","parent_id":"1711","type":"3","zip_code":"420581","name":"宜都市","deleted":"0"},{"id":"1723","parent_id":"1711","type":"3","zip_code":"420582","name":"当阳市","deleted":"0"},{"id":"1724","parent_id":"1711","type":"3","zip_code":"420583","name":"枝江市","deleted":"0"}]},{"id":"1725","parent_id":"1680","type":"2","zip_code":"420600","name":"襄阳市","deleted":"0","subarea":[{"id":"1726","parent_id":"1725","type":"3","zip_code":"420602","name":"襄城区","deleted":"0"},{"id":"1727","parent_id":"1725","type":"3","zip_code":"420606","name":"樊城区","deleted":"0"},{"id":"1728","parent_id":"1725","type":"3","zip_code":"420607","name":"襄州区","deleted":"0"},{"id":"1729","parent_id":"1725","type":"3","zip_code":"420624","name":"南漳县","deleted":"0"},{"id":"1730","parent_id":"1725","type":"3","zip_code":"420625","name":"谷城县","deleted":"0"},{"id":"1731","parent_id":"1725","type":"3","zip_code":"420626","name":"保康县","deleted":"0"},{"id":"1732","parent_id":"1725","type":"3","zip_code":"420682","name":"老河口市","deleted":"0"},{"id":"1733","parent_id":"1725","type":"3","zip_code":"420683","name":"枣阳市","deleted":"0"},{"id":"1734","parent_id":"1725","type":"3","zip_code":"420684","name":"宜城市","deleted":"0"}]},{"id":"1754","parent_id":"1680","type":"2","zip_code":"420900","name":"孝感市","deleted":"0","subarea":[{"id":"1755","parent_id":"1754","type":"3","zip_code":"420902","name":"孝南区","deleted":"0"},{"id":"1756","parent_id":"1754","type":"3","zip_code":"420921","name":"孝昌县","deleted":"0"},{"id":"1757","parent_id":"1754","type":"3","zip_code":"420922","name":"大悟县","deleted":"0"},{"id":"1758","parent_id":"1754","type":"3","zip_code":"420923","name":"云梦县","deleted":"0"},{"id":"1759","parent_id":"1754","type":"3","zip_code":"420981","name":"应城市","deleted":"0"},{"id":"1760","parent_id":"1754","type":"3","zip_code":"420982","name":"安陆市","deleted":"0"},{"id":"1761","parent_id":"1754","type":"3","zip_code":"420984","name":"汉川市","deleted":"0"}]},{"id":"1762","parent_id":"1680","type":"2","zip_code":"421100","name":"黄冈市","deleted":"0","subarea":[{"id":"1763","parent_id":"1762","type":"3","zip_code":"421102","name":"黄州区","deleted":"0"},{"id":"1764","parent_id":"1762","type":"3","zip_code":"421121","name":"团风县","deleted":"0"},{"id":"1765","parent_id":"1762","type":"3","zip_code":"421122","name":"红安县","deleted":"0"},{"id":"1766","parent_id":"1762","type":"3","zip_code":"421123","name":"罗田县","deleted":"0"},{"id":"1767","parent_id":"1762","type":"3","zip_code":"421124","name":"英山县","deleted":"0"},{"id":"1768","parent_id":"1762","type":"3","zip_code":"421125","name":"浠水县","deleted":"0"},{"id":"1769","parent_id":"1762","type":"3","zip_code":"421126","name":"蕲春县","deleted":"0"},{"id":"1770","parent_id":"1762","type":"3","zip_code":"421127","name":"黄梅县","deleted":"0"},{"id":"1771","parent_id":"1762","type":"3","zip_code":"421181","name":"麻城市","deleted":"0"},{"id":"1772","parent_id":"1762","type":"3","zip_code":"421182","name":"武穴市","deleted":"0"}]},{"id":"1780","parent_id":"1680","type":"2","zip_code":"421300","name":"随州市","deleted":"0","subarea":[{"id":"1781","parent_id":"1780","type":"3","zip_code":"421303","name":"曾都区","deleted":"0"},{"id":"1782","parent_id":"1780","type":"3","zip_code":"421321","name":"随县","deleted":"0"},{"id":"1783","parent_id":"1780","type":"3","zip_code":"421381","name":"广水市","deleted":"0"}]},{"id":"1784","parent_id":"1680","type":"2","zip_code":"422800","name":"恩施州","deleted":"0","subarea":[{"id":"1785","parent_id":"1784","type":"3","zip_code":"422801","name":"恩施市","deleted":"0"},{"id":"1786","parent_id":"1784","type":"3","zip_code":"422802","name":"利川市","deleted":"0"},{"id":"1787","parent_id":"1784","type":"3","zip_code":"422822","name":"建始县","deleted":"0"},{"id":"1788","parent_id":"1784","type":"3","zip_code":"422823","name":"巴东县","deleted":"0"},{"id":"1789","parent_id":"1784","type":"3","zip_code":"422825","name":"宣恩县","deleted":"0"},{"id":"1790","parent_id":"1784","type":"3","zip_code":"422826","name":"咸丰县","deleted":"0"},{"id":"1791","parent_id":"1784","type":"3","zip_code":"422827","name":"来凤县","deleted":"0"},{"id":"1792","parent_id":"1784","type":"3","zip_code":"422828","name":"鹤峰县","deleted":"0"}]}]},{"id":"1798","parent_id":"0","type":"1","zip_code":"430000","name":"湖南省","deleted":"0","subarea":[{"id":"1799","parent_id":"1798","type":"2","zip_code":"430100","name":"长沙市","deleted":"0","subarea":[{"id":"1800","parent_id":"1799","type":"3","zip_code":"430102","name":"芙蓉区","deleted":"0"},{"id":"1801","parent_id":"1799","type":"3","zip_code":"430103","name":"天心区","deleted":"0"},{"id":"1802","parent_id":"1799","type":"3","zip_code":"430104","name":"岳麓区","deleted":"0"},{"id":"1803","parent_id":"1799","type":"3","zip_code":"430105","name":"开福区","deleted":"0"},{"id":"1804","parent_id":"1799","type":"3","zip_code":"430111","name":"雨花区","deleted":"0"},{"id":"1805","parent_id":"1799","type":"3","zip_code":"430112","name":"望城区","deleted":"0"},{"id":"1806","parent_id":"1799","type":"3","zip_code":"430121","name":"长沙县","deleted":"0"},{"id":"1807","parent_id":"1799","type":"3","zip_code":"430124","name":"宁乡县","deleted":"0"},{"id":"1808","parent_id":"1799","type":"3","zip_code":"430181","name":"浏阳市","deleted":"0"}]},{"id":"1809","parent_id":"1798","type":"2","zip_code":"430200","name":"株洲市","deleted":"0","subarea":[{"id":"1810","parent_id":"1809","type":"3","zip_code":"430202","name":"荷塘区","deleted":"0"},{"id":"1811","parent_id":"1809","type":"3","zip_code":"430203","name":"芦淞区","deleted":"0"},{"id":"1812","parent_id":"1809","type":"3","zip_code":"430204","name":"石峰区","deleted":"0"},{"id":"1813","parent_id":"1809","type":"3","zip_code":"430211","name":"天元区","deleted":"0"},{"id":"1814","parent_id":"1809","type":"3","zip_code":"430221","name":"株洲县","deleted":"0"},{"id":"1815","parent_id":"1809","type":"3","zip_code":"430223","name":"攸县","deleted":"0"},{"id":"1816","parent_id":"1809","type":"3","zip_code":"430224","name":"茶陵县","deleted":"0"},{"id":"1817","parent_id":"1809","type":"3","zip_code":"430225","name":"炎陵县","deleted":"0"},{"id":"1818","parent_id":"1809","type":"3","zip_code":"430281","name":"醴陵市","deleted":"0"}]},{"id":"1819","parent_id":"1798","type":"2","zip_code":"430300","name":"湘潭市","deleted":"0","subarea":[{"id":"1820","parent_id":"1819","type":"3","zip_code":"430302","name":"雨湖区","deleted":"0"},{"id":"1821","parent_id":"1819","type":"3","zip_code":"430304","name":"岳塘区","deleted":"0"},{"id":"1822","parent_id":"1819","type":"3","zip_code":"430321","name":"湘潭县","deleted":"0"},{"id":"1823","parent_id":"1819","type":"3","zip_code":"430381","name":"湘乡市","deleted":"0"},{"id":"1824","parent_id":"1819","type":"3","zip_code":"430382","name":"韶山市","deleted":"0"}]},{"id":"1825","parent_id":"1798","type":"2","zip_code":"430400","name":"衡阳市","deleted":"0","subarea":[{"id":"1826","parent_id":"1825","type":"3","zip_code":"430405","name":"珠晖区","deleted":"0"},{"id":"1827","parent_id":"1825","type":"3","zip_code":"430406","name":"雁峰区","deleted":"0"},{"id":"1828","parent_id":"1825","type":"3","zip_code":"430407","name":"石鼓区","deleted":"0"},{"id":"1829","parent_id":"1825","type":"3","zip_code":"430408","name":"蒸湘区","deleted":"0"},{"id":"1830","parent_id":"1825","type":"3","zip_code":"430412","name":"南岳区","deleted":"0"},{"id":"1831","parent_id":"1825","type":"3","zip_code":"430421","name":"衡阳县","deleted":"0"},{"id":"1832","parent_id":"1825","type":"3","zip_code":"430422","name":"衡南县","deleted":"0"},{"id":"1833","parent_id":"1825","type":"3","zip_code":"430423","name":"衡山县","deleted":"0"},{"id":"1834","parent_id":"1825","type":"3","zip_code":"430424","name":"衡东县","deleted":"0"},{"id":"1835","parent_id":"1825","type":"3","zip_code":"430426","name":"祁东县","deleted":"0"},{"id":"1836","parent_id":"1825","type":"3","zip_code":"430481","name":"耒阳市","deleted":"0"},{"id":"1837","parent_id":"1825","type":"3","zip_code":"430482","name":"常宁市","deleted":"0"}]},{"id":"1838","parent_id":"1798","type":"2","zip_code":"430500","name":"邵阳市","deleted":"0","subarea":[{"id":"1839","parent_id":"1838","type":"3","zip_code":"430502","name":"双清区","deleted":"0"},{"id":"1840","parent_id":"1838","type":"3","zip_code":"430503","name":"大祥区","deleted":"0"},{"id":"1841","parent_id":"1838","type":"3","zip_code":"430511","name":"北塔区","deleted":"0"},{"id":"1842","parent_id":"1838","type":"3","zip_code":"430521","name":"邵东县","deleted":"0"},{"id":"1843","parent_id":"1838","type":"3","zip_code":"430522","name":"新邵县","deleted":"0"},{"id":"1844","parent_id":"1838","type":"3","zip_code":"430523","name":"邵阳县","deleted":"0"},{"id":"1845","parent_id":"1838","type":"3","zip_code":"430524","name":"隆回县","deleted":"0"},{"id":"1846","parent_id":"1838","type":"3","zip_code":"430525","name":"洞口县","deleted":"0"},{"id":"1847","parent_id":"1838","type":"3","zip_code":"430527","name":"绥宁县","deleted":"0"},{"id":"1848","parent_id":"1838","type":"3","zip_code":"430528","name":"新宁县","deleted":"0"},{"id":"1849","parent_id":"1838","type":"3","zip_code":"430529","name":"城步县","deleted":"0"},{"id":"1850","parent_id":"1838","type":"3","zip_code":"430581","name":"武冈市","deleted":"0"}]},{"id":"1851","parent_id":"1798","type":"2","zip_code":"430600","name":"岳阳市","deleted":"0","subarea":[{"id":"1852","parent_id":"1851","type":"3","zip_code":"430602","name":"岳阳楼区","deleted":"0"},{"id":"1853","parent_id":"1851","type":"3","zip_code":"430603","name":"云溪区","deleted":"0"},{"id":"1854","parent_id":"1851","type":"3","zip_code":"430611","name":"君山区","deleted":"0"},{"id":"1855","parent_id":"1851","type":"3","zip_code":"430621","name":"岳阳县","deleted":"0"},{"id":"1856","parent_id":"1851","type":"3","zip_code":"430623","name":"华容县","deleted":"0"},{"id":"1857","parent_id":"1851","type":"3","zip_code":"430624","name":"湘阴县","deleted":"0"},{"id":"1858","parent_id":"1851","type":"3","zip_code":"430626","name":"平江县","deleted":"0"},{"id":"1859","parent_id":"1851","type":"3","zip_code":"430681","name":"汨罗市","deleted":"0"},{"id":"1860","parent_id":"1851","type":"3","zip_code":"430682","name":"临湘市","deleted":"0"}]},{"id":"1861","parent_id":"1798","type":"2","zip_code":"430700","name":"常德市","deleted":"0","subarea":[{"id":"1862","parent_id":"1861","type":"3","zip_code":"430702","name":"武陵区","deleted":"0"},{"id":"1863","parent_id":"1861","type":"3","zip_code":"430703","name":"鼎城区","deleted":"0"},{"id":"1864","parent_id":"1861","type":"3","zip_code":"430721","name":"安乡县","deleted":"0"},{"id":"1865","parent_id":"1861","type":"3","zip_code":"430722","name":"汉寿县","deleted":"0"},{"id":"1866","parent_id":"1861","type":"3","zip_code":"430723","name":"澧县","deleted":"0"},{"id":"1867","parent_id":"1861","type":"3","zip_code":"430724","name":"临澧县","deleted":"0"},{"id":"1868","parent_id":"1861","type":"3","zip_code":"430725","name":"桃源县","deleted":"0"},{"id":"1869","parent_id":"1861","type":"3","zip_code":"430726","name":"石门县","deleted":"0"},{"id":"1870","parent_id":"1861","type":"3","zip_code":"430781","name":"津市市","deleted":"0"}]},{"id":"1876","parent_id":"1798","type":"2","zip_code":"430900","name":"益阳市","deleted":"0","subarea":[{"id":"1877","parent_id":"1876","type":"3","zip_code":"430902","name":"资阳区","deleted":"0"},{"id":"1878","parent_id":"1876","type":"3","zip_code":"430903","name":"赫山区","deleted":"0"},{"id":"1879","parent_id":"1876","type":"3","zip_code":"430921","name":"南县","deleted":"0"},{"id":"1880","parent_id":"1876","type":"3","zip_code":"430922","name":"桃江县","deleted":"0"},{"id":"1881","parent_id":"1876","type":"3","zip_code":"430923","name":"安化县","deleted":"0"},{"id":"1882","parent_id":"1876","type":"3","zip_code":"430981","name":"沅江市","deleted":"0"}]},{"id":"1883","parent_id":"1798","type":"2","zip_code":"431000","name":"郴州市","deleted":"0","subarea":[{"id":"1884","parent_id":"1883","type":"3","zip_code":"431002","name":"北湖区","deleted":"0"},{"id":"1885","parent_id":"1883","type":"3","zip_code":"431003","name":"苏仙区","deleted":"0"},{"id":"1886","parent_id":"1883","type":"3","zip_code":"431021","name":"桂阳县","deleted":"0"},{"id":"1887","parent_id":"1883","type":"3","zip_code":"431022","name":"宜章县","deleted":"0"},{"id":"1888","parent_id":"1883","type":"3","zip_code":"431023","name":"永兴县","deleted":"0"},{"id":"1889","parent_id":"1883","type":"3","zip_code":"431024","name":"嘉禾县","deleted":"0"},{"id":"1890","parent_id":"1883","type":"3","zip_code":"431025","name":"临武县","deleted":"0"},{"id":"1891","parent_id":"1883","type":"3","zip_code":"431026","name":"汝城县","deleted":"0"},{"id":"1892","parent_id":"1883","type":"3","zip_code":"431027","name":"桂东县","deleted":"0"},{"id":"1893","parent_id":"1883","type":"3","zip_code":"431028","name":"安仁县","deleted":"0"},{"id":"1894","parent_id":"1883","type":"3","zip_code":"431081","name":"资兴市","deleted":"0"}]},{"id":"1895","parent_id":"1798","type":"2","zip_code":"431100","name":"永州市","deleted":"0","subarea":[{"id":"1896","parent_id":"1895","type":"3","zip_code":"431102","name":"零陵区","deleted":"0"},{"id":"1897","parent_id":"1895","type":"3","zip_code":"431103","name":"冷水滩区","deleted":"0"},{"id":"1898","parent_id":"1895","type":"3","zip_code":"431121","name":"祁阳县","deleted":"0"},{"id":"1899","parent_id":"1895","type":"3","zip_code":"431122","name":"东安县","deleted":"0"},{"id":"1900","parent_id":"1895","type":"3","zip_code":"431123","name":"双牌县","deleted":"0"},{"id":"1901","parent_id":"1895","type":"3","zip_code":"431124","name":"道县","deleted":"0"},{"id":"1902","parent_id":"1895","type":"3","zip_code":"431125","name":"江永县","deleted":"0"},{"id":"1903","parent_id":"1895","type":"3","zip_code":"431126","name":"宁远县","deleted":"0"},{"id":"1904","parent_id":"1895","type":"3","zip_code":"431127","name":"蓝山县","deleted":"0"},{"id":"1905","parent_id":"1895","type":"3","zip_code":"431128","name":"新田县","deleted":"0"},{"id":"1906","parent_id":"1895","type":"3","zip_code":"431129","name":"江华县","deleted":"0"},{"id":"3273","parent_id":"1895","type":"3","zip_code":"431101","name":"市辖区","deleted":"0"}]},{"id":"1907","parent_id":"1798","type":"2","zip_code":"431200","name":"怀化市","deleted":"0","subarea":[{"id":"1908","parent_id":"1907","type":"3","zip_code":"431202","name":"鹤城区","deleted":"0"},{"id":"1909","parent_id":"1907","type":"3","zip_code":"431221","name":"中方县","deleted":"0"},{"id":"1910","parent_id":"1907","type":"3","zip_code":"431222","name":"沅陵县","deleted":"0"},{"id":"1911","parent_id":"1907","type":"3","zip_code":"431223","name":"辰溪县","deleted":"0"},{"id":"1912","parent_id":"1907","type":"3","zip_code":"431224","name":"溆浦县","deleted":"0"},{"id":"1913","parent_id":"1907","type":"3","zip_code":"431225","name":"会同县","deleted":"0"},{"id":"1914","parent_id":"1907","type":"3","zip_code":"431226","name":"麻阳县","deleted":"0"},{"id":"1915","parent_id":"1907","type":"3","zip_code":"431227","name":"新晃县","deleted":"0"},{"id":"1916","parent_id":"1907","type":"3","zip_code":"431228","name":"芷江县","deleted":"0"},{"id":"1917","parent_id":"1907","type":"3","zip_code":"431229","name":"靖州县","deleted":"0"},{"id":"1918","parent_id":"1907","type":"3","zip_code":"431230","name":"通道县","deleted":"0"},{"id":"1919","parent_id":"1907","type":"3","zip_code":"431281","name":"洪江市","deleted":"0"}]},{"id":"1920","parent_id":"1798","type":"2","zip_code":"431300","name":"娄底市","deleted":"0","subarea":[{"id":"1921","parent_id":"1920","type":"3","zip_code":"431302","name":"娄星区","deleted":"0"},{"id":"1922","parent_id":"1920","type":"3","zip_code":"431321","name":"双峰县","deleted":"0"},{"id":"1923","parent_id":"1920","type":"3","zip_code":"431322","name":"新化县","deleted":"0"},{"id":"1924","parent_id":"1920","type":"3","zip_code":"431381","name":"冷水江市","deleted":"0"},{"id":"1925","parent_id":"1920","type":"3","zip_code":"431382","name":"涟源市","deleted":"0"}]}]},{"id":"1935","parent_id":"0","type":"1","zip_code":"440000","name":"广东省","deleted":"0","subarea":[{"id":"1936","parent_id":"1935","type":"2","zip_code":"440100","name":"广州市","deleted":"0","subarea":[{"id":"1937","parent_id":"1936","type":"3","zip_code":"440103","name":"荔湾区","deleted":"0"},{"id":"1938","parent_id":"1936","type":"3","zip_code":"440104","name":"越秀区","deleted":"0"},{"id":"1939","parent_id":"1936","type":"3","zip_code":"440105","name":"海珠区","deleted":"0"},{"id":"1940","parent_id":"1936","type":"3","zip_code":"440106","name":"天河区","deleted":"0"},{"id":"1941","parent_id":"1936","type":"3","zip_code":"440111","name":"白云区","deleted":"0"},{"id":"1942","parent_id":"1936","type":"3","zip_code":"440112","name":"黄埔区","deleted":"0"},{"id":"1943","parent_id":"1936","type":"3","zip_code":"440113","name":"番禺区","deleted":"0"},{"id":"1944","parent_id":"1936","type":"3","zip_code":"440114","name":"花都区","deleted":"0"},{"id":"1945","parent_id":"1936","type":"3","zip_code":"440115","name":"南沙区","deleted":"0"},{"id":"1946","parent_id":"1936","type":"3","zip_code":"440117","name":"从化区","deleted":"0"},{"id":"1947","parent_id":"1936","type":"3","zip_code":"440118","name":"增城区","deleted":"0"}]},{"id":"1948","parent_id":"1935","type":"2","zip_code":"440200","name":"韶关市","deleted":"0","subarea":[{"id":"1949","parent_id":"1948","type":"3","zip_code":"440203","name":"武江区","deleted":"0"},{"id":"1950","parent_id":"1948","type":"3","zip_code":"440204","name":"浈江区","deleted":"0"},{"id":"1951","parent_id":"1948","type":"3","zip_code":"440205","name":"曲江区","deleted":"0"},{"id":"1952","parent_id":"1948","type":"3","zip_code":"440222","name":"始兴县","deleted":"0"},{"id":"1953","parent_id":"1948","type":"3","zip_code":"440224","name":"仁化县","deleted":"0"},{"id":"1954","parent_id":"1948","type":"3","zip_code":"440229","name":"翁源县","deleted":"0"},{"id":"1955","parent_id":"1948","type":"3","zip_code":"440232","name":"乳源县","deleted":"0"},{"id":"1956","parent_id":"1948","type":"3","zip_code":"440233","name":"新丰县","deleted":"0"},{"id":"1957","parent_id":"1948","type":"3","zip_code":"440281","name":"乐昌市","deleted":"0"},{"id":"1958","parent_id":"1948","type":"3","zip_code":"440282","name":"南雄市","deleted":"0"}]},{"id":"1959","parent_id":"1935","type":"2","zip_code":"440300","name":"深圳市","deleted":"0","subarea":[{"id":"1960","parent_id":"1959","type":"3","zip_code":"440303","name":"罗湖区","deleted":"0"},{"id":"1961","parent_id":"1959","type":"3","zip_code":"440304","name":"福田区","deleted":"0"},{"id":"1962","parent_id":"1959","type":"3","zip_code":"440305","name":"南山区","deleted":"0"},{"id":"1963","parent_id":"1959","type":"3","zip_code":"440306","name":"宝安区","deleted":"0"},{"id":"1964","parent_id":"1959","type":"3","zip_code":"440307","name":"龙岗区","deleted":"0"},{"id":"1965","parent_id":"1959","type":"3","zip_code":"440308","name":"盐田区","deleted":"0"},{"id":"3274","parent_id":"1959","type":"3","zip_code":"440309","name":"龙华区","deleted":"0"},{"id":"3275","parent_id":"1959","type":"3","zip_code":"440310","name":"坪山区","deleted":"0"}]},{"id":"1966","parent_id":"1935","type":"2","zip_code":"440400","name":"珠海市","deleted":"0","subarea":[{"id":"1967","parent_id":"1966","type":"3","zip_code":"440402","name":"香洲区","deleted":"0"},{"id":"1968","parent_id":"1966","type":"3","zip_code":"440403","name":"斗门区","deleted":"0"},{"id":"1969","parent_id":"1966","type":"3","zip_code":"440404","name":"金湾区","deleted":"0"}]},{"id":"1970","parent_id":"1935","type":"2","zip_code":"440500","name":"汕头市","deleted":"0","subarea":[{"id":"1971","parent_id":"1970","type":"3","zip_code":"440507","name":"龙湖区","deleted":"0"},{"id":"1972","parent_id":"1970","type":"3","zip_code":"440511","name":"金平区","deleted":"0"},{"id":"1973","parent_id":"1970","type":"3","zip_code":"440512","name":"濠江区","deleted":"0"},{"id":"1974","parent_id":"1970","type":"3","zip_code":"440513","name":"潮阳区","deleted":"0"},{"id":"1975","parent_id":"1970","type":"3","zip_code":"440514","name":"潮南区","deleted":"0"},{"id":"1976","parent_id":"1970","type":"3","zip_code":"440515","name":"澄海区","deleted":"0"},{"id":"1977","parent_id":"1970","type":"3","zip_code":"440523","name":"南澳县","deleted":"0"}]},{"id":"1978","parent_id":"1935","type":"2","zip_code":"440600","name":"佛山市","deleted":"0","subarea":[{"id":"1979","parent_id":"1978","type":"3","zip_code":"440604","name":"禅城区","deleted":"0"},{"id":"1980","parent_id":"1978","type":"3","zip_code":"440605","name":"南海区","deleted":"0"},{"id":"1981","parent_id":"1978","type":"3","zip_code":"440606","name":"顺德区","deleted":"0"},{"id":"1982","parent_id":"1978","type":"3","zip_code":"440607","name":"三水区","deleted":"0"},{"id":"1983","parent_id":"1978","type":"3","zip_code":"440608","name":"高明区","deleted":"0"}]},{"id":"1984","parent_id":"1935","type":"2","zip_code":"440700","name":"江门市","deleted":"0","subarea":[{"id":"1985","parent_id":"1984","type":"3","zip_code":"440703","name":"蓬江区","deleted":"0"},{"id":"1986","parent_id":"1984","type":"3","zip_code":"440704","name":"江海区","deleted":"0"},{"id":"1987","parent_id":"1984","type":"3","zip_code":"440781","name":"台山市","deleted":"0"},{"id":"1988","parent_id":"1984","type":"3","zip_code":"440705","name":"新会区","deleted":"0"},{"id":"1989","parent_id":"1984","type":"3","zip_code":"440783","name":"开平市","deleted":"0"},{"id":"1990","parent_id":"1984","type":"3","zip_code":"440784","name":"鹤山市","deleted":"0"},{"id":"1991","parent_id":"1984","type":"3","zip_code":"440785","name":"恩平市","deleted":"0"}]},{"id":"1992","parent_id":"1935","type":"2","zip_code":"440800","name":"湛江市","deleted":"0","subarea":[{"id":"1993","parent_id":"1992","type":"3","zip_code":"440802","name":"赤坎区","deleted":"0"},{"id":"1994","parent_id":"1992","type":"3","zip_code":"440803","name":"霞山区","deleted":"0"},{"id":"1995","parent_id":"1992","type":"3","zip_code":"440804","name":"坡头区","deleted":"0"},{"id":"1996","parent_id":"1992","type":"3","zip_code":"440811","name":"麻章区","deleted":"0"},{"id":"1997","parent_id":"1992","type":"3","zip_code":"440823","name":"遂溪县","deleted":"0"},{"id":"1998","parent_id":"1992","type":"3","zip_code":"440825","name":"徐闻县","deleted":"0"},{"id":"1999","parent_id":"1992","type":"3","zip_code":"440881","name":"廉江市","deleted":"0"},{"id":"2000","parent_id":"1992","type":"3","zip_code":"440882","name":"雷州市","deleted":"0"},{"id":"2001","parent_id":"1992","type":"3","zip_code":"440883","name":"吴川市","deleted":"0"}]},{"id":"2002","parent_id":"1935","type":"2","zip_code":"440900","name":"茂名市","deleted":"0","subarea":[{"id":"2003","parent_id":"2002","type":"3","zip_code":"440902","name":"茂南区","deleted":"0"},{"id":"2004","parent_id":"2002","type":"3","zip_code":"440904","name":"电白区","deleted":"0"},{"id":"2005","parent_id":"2002","type":"3","zip_code":"440981","name":"高州市","deleted":"0"},{"id":"2006","parent_id":"2002","type":"3","zip_code":"440982","name":"化州市","deleted":"0"},{"id":"2007","parent_id":"2002","type":"3","zip_code":"440983","name":"信宜市","deleted":"0"}]},{"id":"2008","parent_id":"1935","type":"2","zip_code":"441200","name":"肇庆市","deleted":"0","subarea":[{"id":"2009","parent_id":"2008","type":"3","zip_code":"441202","name":"端州区","deleted":"0"},{"id":"2010","parent_id":"2008","type":"3","zip_code":"441203","name":"鼎湖区","deleted":"0"},{"id":"2011","parent_id":"2008","type":"3","zip_code":"441204","name":"高要区","deleted":"0"},{"id":"2012","parent_id":"2008","type":"3","zip_code":"441223","name":"广宁县","deleted":"0"},{"id":"2013","parent_id":"2008","type":"3","zip_code":"441224","name":"怀集县","deleted":"0"},{"id":"2014","parent_id":"2008","type":"3","zip_code":"441225","name":"封开县","deleted":"0"},{"id":"2015","parent_id":"2008","type":"3","zip_code":"441226","name":"德庆县","deleted":"0"},{"id":"2016","parent_id":"2008","type":"3","zip_code":"441284","name":"四会市","deleted":"0"}]},{"id":"2017","parent_id":"1935","type":"2","zip_code":"441300","name":"惠州市","deleted":"0","subarea":[{"id":"2018","parent_id":"2017","type":"3","zip_code":"441302","name":"惠城区","deleted":"0"},{"id":"2019","parent_id":"2017","type":"3","zip_code":"441303","name":"惠阳区","deleted":"0"},{"id":"2020","parent_id":"2017","type":"3","zip_code":"441322","name":"博罗县","deleted":"0"},{"id":"2021","parent_id":"2017","type":"3","zip_code":"441323","name":"惠东县","deleted":"0"},{"id":"2022","parent_id":"2017","type":"3","zip_code":"441324","name":"龙门县","deleted":"0"}]},{"id":"2023","parent_id":"1935","type":"2","zip_code":"441400","name":"梅州市","deleted":"0","subarea":[{"id":"2024","parent_id":"2023","type":"3","zip_code":"441402","name":"梅江区","deleted":"0"},{"id":"2025","parent_id":"2023","type":"3","zip_code":"441403","name":"梅县区","deleted":"0"},{"id":"2026","parent_id":"2023","type":"3","zip_code":"441422","name":"大埔县","deleted":"0"},{"id":"2027","parent_id":"2023","type":"3","zip_code":"441423","name":"丰顺县","deleted":"0"},{"id":"2028","parent_id":"2023","type":"3","zip_code":"441424","name":"五华县","deleted":"0"},{"id":"2029","parent_id":"2023","type":"3","zip_code":"441426","name":"平远县","deleted":"0"},{"id":"2030","parent_id":"2023","type":"3","zip_code":"441427","name":"蕉岭县","deleted":"0"},{"id":"2031","parent_id":"2023","type":"3","zip_code":"441481","name":"兴宁市","deleted":"0"}]},{"id":"2032","parent_id":"1935","type":"2","zip_code":"441500","name":"汕尾市","deleted":"0","subarea":[{"id":"2033","parent_id":"2032","type":"3","zip_code":"441502","name":"城区","deleted":"0"},{"id":"2034","parent_id":"2032","type":"3","zip_code":"441521","name":"海丰县","deleted":"0"},{"id":"2035","parent_id":"2032","type":"3","zip_code":"441523","name":"陆河县","deleted":"0"},{"id":"2036","parent_id":"2032","type":"3","zip_code":"441581","name":"陆丰市","deleted":"0"}]},{"id":"2037","parent_id":"1935","type":"2","zip_code":"441600","name":"河源市","deleted":"0","subarea":[{"id":"2038","parent_id":"2037","type":"3","zip_code":"441602","name":"源城区","deleted":"0"},{"id":"2039","parent_id":"2037","type":"3","zip_code":"441621","name":"紫金县","deleted":"0"},{"id":"2040","parent_id":"2037","type":"3","zip_code":"441622","name":"龙川县","deleted":"0"},{"id":"2041","parent_id":"2037","type":"3","zip_code":"441623","name":"连平县","deleted":"0"},{"id":"2042","parent_id":"2037","type":"3","zip_code":"441624","name":"和平县","deleted":"0"},{"id":"2043","parent_id":"2037","type":"3","zip_code":"441625","name":"东源县","deleted":"0"}]},{"id":"2049","parent_id":"1935","type":"2","zip_code":"441800","name":"清远市","deleted":"0","subarea":[{"id":"2050","parent_id":"2049","type":"3","zip_code":"441802","name":"清城区","deleted":"0"},{"id":"2051","parent_id":"2049","type":"3","zip_code":"441803","name":"清新区","deleted":"0"},{"id":"2052","parent_id":"2049","type":"3","zip_code":"441821","name":"佛冈县","deleted":"0"},{"id":"2053","parent_id":"2049","type":"3","zip_code":"441823","name":"阳山县","deleted":"0"},{"id":"2054","parent_id":"2049","type":"3","zip_code":"441825","name":"连山县","deleted":"0"},{"id":"2055","parent_id":"2049","type":"3","zip_code":"441826","name":"连南县","deleted":"0"},{"id":"2056","parent_id":"2049","type":"3","zip_code":"441881","name":"英德市","deleted":"0"},{"id":"2057","parent_id":"2049","type":"3","zip_code":"441882","name":"连州市","deleted":"0"}]},{"id":"2058","parent_id":"1935","type":"2","zip_code":"","name":"东莞市","deleted":"0","subarea":[{"id":"2059","parent_id":"2058","type":"3","zip_code":"441900","name":"东莞市","deleted":"0"}]},{"id":"2060","parent_id":"1935","type":"2","zip_code":"","name":"中山市","deleted":"0","subarea":[{"id":"2061","parent_id":"2060","type":"3","zip_code":"442000","name":"中山市","deleted":"0"}]},{"id":"2062","parent_id":"1935","type":"2","zip_code":"445100","name":"潮州市","deleted":"0","subarea":[{"id":"2063","parent_id":"2062","type":"3","zip_code":"445101","name":"潮州市","deleted":"0"},{"id":"2064","parent_id":"2062","type":"3","zip_code":"445102","name":"湘桥区","deleted":"0"},{"id":"2065","parent_id":"2062","type":"3","zip_code":"445103","name":"潮安区","deleted":"0"},{"id":"2066","parent_id":"2062","type":"3","zip_code":"445122","name":"饶平县","deleted":"0"}]},{"id":"2067","parent_id":"1935","type":"2","zip_code":"445200","name":"揭阳市","deleted":"0","subarea":[{"id":"2068","parent_id":"2067","type":"3","zip_code":"445202","name":"榕城区","deleted":"0"},{"id":"2069","parent_id":"2067","type":"3","zip_code":"445203","name":"揭东区","deleted":"0"},{"id":"2070","parent_id":"2067","type":"3","zip_code":"445222","name":"揭西县","deleted":"0"},{"id":"2071","parent_id":"2067","type":"3","zip_code":"445224","name":"惠来县","deleted":"0"},{"id":"2072","parent_id":"2067","type":"3","zip_code":"445281","name":"普宁市","deleted":"0"}]}]},{"id":"2079","parent_id":"0","type":"1","zip_code":"450000","name":"广西省","deleted":"0","subarea":[{"id":"2080","parent_id":"2079","type":"2","zip_code":"450100","name":"南宁市","deleted":"0","subarea":[{"id":"2081","parent_id":"2080","type":"3","zip_code":"450102","name":"兴宁区","deleted":"0"},{"id":"2082","parent_id":"2080","type":"3","zip_code":"450103","name":"青秀区","deleted":"0"},{"id":"2083","parent_id":"2080","type":"3","zip_code":"450105","name":"江南区","deleted":"0"},{"id":"2084","parent_id":"2080","type":"3","zip_code":"450107","name":"西乡塘区","deleted":"0"},{"id":"2085","parent_id":"2080","type":"3","zip_code":"450108","name":"良庆区","deleted":"0"},{"id":"2086","parent_id":"2080","type":"3","zip_code":"450109","name":"邕宁区","deleted":"0"},{"id":"2087","parent_id":"2080","type":"3","zip_code":"450110","name":"武鸣区","deleted":"0"},{"id":"2088","parent_id":"2080","type":"3","zip_code":"450123","name":"隆安县","deleted":"0"},{"id":"2089","parent_id":"2080","type":"3","zip_code":"450124","name":"马山县","deleted":"0"},{"id":"2090","parent_id":"2080","type":"3","zip_code":"450125","name":"上林县","deleted":"0"},{"id":"2091","parent_id":"2080","type":"3","zip_code":"450126","name":"宾阳县","deleted":"0"},{"id":"2092","parent_id":"2080","type":"3","zip_code":"450127","name":"横县","deleted":"0"}]},{"id":"2104","parent_id":"2079","type":"2","zip_code":"450300","name":"桂林市","deleted":"0","subarea":[{"id":"2105","parent_id":"2104","type":"3","zip_code":"450302","name":"秀峰区","deleted":"0"},{"id":"2106","parent_id":"2104","type":"3","zip_code":"450303","name":"叠彩区","deleted":"0"},{"id":"2107","parent_id":"2104","type":"3","zip_code":"450304","name":"象山区","deleted":"0"},{"id":"2108","parent_id":"2104","type":"3","zip_code":"450305","name":"七星区","deleted":"0"},{"id":"2109","parent_id":"2104","type":"3","zip_code":"450311","name":"雁山区","deleted":"0"},{"id":"2110","parent_id":"2104","type":"3","zip_code":"450312","name":"临桂区","deleted":"0"},{"id":"2111","parent_id":"2104","type":"3","zip_code":"450321","name":"阳朔县","deleted":"0"},{"id":"2112","parent_id":"2104","type":"3","zip_code":"450323","name":"灵川县","deleted":"0"},{"id":"2113","parent_id":"2104","type":"3","zip_code":"450324","name":"全州县","deleted":"0"},{"id":"2114","parent_id":"2104","type":"3","zip_code":"450325","name":"兴安县","deleted":"0"},{"id":"2115","parent_id":"2104","type":"3","zip_code":"450326","name":"永福县","deleted":"0"},{"id":"2116","parent_id":"2104","type":"3","zip_code":"450327","name":"灌阳县","deleted":"0"},{"id":"2117","parent_id":"2104","type":"3","zip_code":"450328","name":"龙胜县","deleted":"0"},{"id":"2118","parent_id":"2104","type":"3","zip_code":"450329","name":"资源县","deleted":"0"},{"id":"2119","parent_id":"2104","type":"3","zip_code":"450330","name":"平乐县","deleted":"0"},{"id":"2120","parent_id":"2104","type":"3","zip_code":"450331","name":"荔浦县","deleted":"0"},{"id":"2121","parent_id":"2104","type":"3","zip_code":"450332","name":"恭城县","deleted":"0"}]},{"id":"2130","parent_id":"2079","type":"2","zip_code":"450500","name":"北海市","deleted":"0","subarea":[{"id":"2131","parent_id":"2130","type":"3","zip_code":"450502","name":"海城区","deleted":"0"},{"id":"2132","parent_id":"2130","type":"3","zip_code":"450503","name":"银海区","deleted":"0"},{"id":"2133","parent_id":"2130","type":"3","zip_code":"450512","name":"铁山港区","deleted":"0"},{"id":"2134","parent_id":"2130","type":"3","zip_code":"450521","name":"合浦县","deleted":"0"}]},{"id":"2140","parent_id":"2079","type":"2","zip_code":"450700","name":"钦州市","deleted":"0","subarea":[{"id":"2141","parent_id":"2140","type":"3","zip_code":"450702","name":"钦南区","deleted":"0"},{"id":"2142","parent_id":"2140","type":"3","zip_code":"450703","name":"钦北区","deleted":"0"},{"id":"2143","parent_id":"2140","type":"3","zip_code":"450721","name":"灵山县","deleted":"0"},{"id":"2144","parent_id":"2140","type":"3","zip_code":"450722","name":"浦北县","deleted":"0"}]},{"id":"2151","parent_id":"2079","type":"2","zip_code":"450900","name":"玉林市","deleted":"0","subarea":[{"id":"2152","parent_id":"2151","type":"3","zip_code":"450902","name":"玉州区","deleted":"0"},{"id":"2153","parent_id":"2151","type":"3","zip_code":"450921","name":"容县","deleted":"0"},{"id":"2154","parent_id":"2151","type":"3","zip_code":"450922","name":"陆川县","deleted":"0"},{"id":"2155","parent_id":"2151","type":"3","zip_code":"450923","name":"博白县","deleted":"0"},{"id":"2156","parent_id":"2151","type":"3","zip_code":"450924","name":"兴业县","deleted":"0"},{"id":"2157","parent_id":"2151","type":"3","zip_code":"450981","name":"北流市","deleted":"0"}]},{"id":"2158","parent_id":"2079","type":"2","zip_code":"451000","name":"百色市","deleted":"0","subarea":[{"id":"2159","parent_id":"2158","type":"3","zip_code":"451002","name":"右江区","deleted":"0"},{"id":"2160","parent_id":"2158","type":"3","zip_code":"451021","name":"田阳县","deleted":"0"},{"id":"2161","parent_id":"2158","type":"3","zip_code":"451022","name":"田东县","deleted":"0"},{"id":"2162","parent_id":"2158","type":"3","zip_code":"451023","name":"平果县","deleted":"0"},{"id":"2163","parent_id":"2158","type":"3","zip_code":"451024","name":"德保县","deleted":"0"},{"id":"2164","parent_id":"2158","type":"3","zip_code":"451026","name":"那坡县","deleted":"0"},{"id":"2165","parent_id":"2158","type":"3","zip_code":"451027","name":"凌云县","deleted":"0"},{"id":"2166","parent_id":"2158","type":"3","zip_code":"451028","name":"乐业县","deleted":"0"},{"id":"2167","parent_id":"2158","type":"3","zip_code":"451029","name":"田林县","deleted":"0"},{"id":"2168","parent_id":"2158","type":"3","zip_code":"451030","name":"西林县","deleted":"0"},{"id":"2169","parent_id":"2158","type":"3","zip_code":"451031","name":"隆林县","deleted":"0"},{"id":"2170","parent_id":"2158","type":"3","zip_code":"451081","name":"靖西市","deleted":"0"}]}]},{"id":"2231","parent_id":"0","type":"1","zip_code":"500000","name":"重庆市","deleted":"0","subarea":[{"id":"3269","parent_id":"2231","type":"2","zip_code":"500100","name":"市辖区","deleted":"0","subarea":[{"id":"2232","parent_id":"3269","type":"3","zip_code":"500103","name":"渝中区","deleted":"0"},{"id":"2233","parent_id":"3269","type":"3","zip_code":"500104","name":"大渡口区","deleted":"0"},{"id":"2234","parent_id":"3269","type":"3","zip_code":"500105","name":"江北区","deleted":"0"},{"id":"2235","parent_id":"3269","type":"3","zip_code":"500106","name":"沙坪坝区","deleted":"0"},{"id":"2236","parent_id":"3269","type":"3","zip_code":"500107","name":"九龙坡区","deleted":"0"},{"id":"2237","parent_id":"3269","type":"3","zip_code":"500108","name":"南岸区","deleted":"0"},{"id":"2238","parent_id":"3269","type":"3","zip_code":"500109","name":"北碚区","deleted":"0"},{"id":"2239","parent_id":"3269","type":"3","zip_code":"500112","name":"渝北区","deleted":"0"},{"id":"2240","parent_id":"3269","type":"3","zip_code":"500113","name":"巴南区","deleted":"0"},{"id":"2241","parent_id":"3269","type":"3","zip_code":"500101","name":"万州区","deleted":"0"},{"id":"2242","parent_id":"3269","type":"3","zip_code":"500102","name":"涪陵区","deleted":"0"},{"id":"2243","parent_id":"3269","type":"3","zip_code":"500114","name":"黔江区","deleted":"0"},{"id":"2244","parent_id":"3269","type":"3","zip_code":"500115","name":"长寿区","deleted":"0"},{"id":"2245","parent_id":"3269","type":"3","zip_code":"500116","name":"江津区","deleted":"0"},{"id":"2246","parent_id":"3269","type":"3","zip_code":"500117","name":"合川区","deleted":"0"},{"id":"2247","parent_id":"3269","type":"3","zip_code":"500118","name":"永川区","deleted":"0"},{"id":"2248","parent_id":"3269","type":"3","zip_code":"500119","name":"南川区","deleted":"0"},{"id":"2249","parent_id":"3269","type":"3","zip_code":"500110","name":"綦江区","deleted":"0"},{"id":"2250","parent_id":"3269","type":"3","zip_code":"500111","name":"大足区","deleted":"0"},{"id":"2251","parent_id":"3269","type":"3","zip_code":"500120","name":"璧山区","deleted":"0"},{"id":"2252","parent_id":"3269","type":"3","zip_code":"500151","name":"铜梁区","deleted":"0"},{"id":"2253","parent_id":"3269","type":"3","zip_code":"500152","name":"潼南区","deleted":"0"},{"id":"2254","parent_id":"3269","type":"3","zip_code":"500153","name":"荣昌区","deleted":"0"}]},{"id":"3270","parent_id":"2231","type":"2","zip_code":"500200","name":"县","deleted":"0","subarea":[{"id":"2255","parent_id":"3270","type":"3","zip_code":"500234","name":"开州区","deleted":"0"},{"id":"2256","parent_id":"3270","type":"3","zip_code":"500228","name":"梁平县","deleted":"0"},{"id":"2257","parent_id":"3270","type":"3","zip_code":"500229","name":"城口县","deleted":"0"},{"id":"2258","parent_id":"3270","type":"3","zip_code":"500230","name":"丰都县","deleted":"0"},{"id":"2259","parent_id":"3270","type":"3","zip_code":"500231","name":"垫江县","deleted":"0"},{"id":"2260","parent_id":"3270","type":"3","zip_code":"500232","name":"武隆县","deleted":"0"},{"id":"2261","parent_id":"3270","type":"3","zip_code":"500233","name":"忠县","deleted":"0"},{"id":"2262","parent_id":"3270","type":"3","zip_code":"500235","name":"云阳县","deleted":"0"},{"id":"2263","parent_id":"3270","type":"3","zip_code":"500236","name":"奉节县","deleted":"0"},{"id":"2264","parent_id":"3270","type":"3","zip_code":"500237","name":"巫山县","deleted":"0"},{"id":"2265","parent_id":"3270","type":"3","zip_code":"500238","name":"巫溪县","deleted":"0"},{"id":"2266","parent_id":"3270","type":"3","zip_code":"500240","name":"石柱县","deleted":"0"},{"id":"2267","parent_id":"3270","type":"3","zip_code":"500241","name":"秀山县","deleted":"0"},{"id":"2268","parent_id":"3270","type":"3","zip_code":"500242","name":"酉阳县","deleted":"0"},{"id":"2269","parent_id":"3270","type":"3","zip_code":"500243","name":"彭水县","deleted":"0"}]}]},{"id":"2270","parent_id":"0","type":"1","zip_code":"510000","name":"四川省","deleted":"0","subarea":[{"id":"2271","parent_id":"2270","type":"2","zip_code":"510100","name":"成都市","deleted":"0","subarea":[{"id":"2272","parent_id":"2271","type":"3","zip_code":"510104","name":"锦江区","deleted":"0"},{"id":"2273","parent_id":"2271","type":"3","zip_code":"510105","name":"青羊区","deleted":"0"},{"id":"2274","parent_id":"2271","type":"3","zip_code":"510106","name":"金牛区","deleted":"0"},{"id":"2275","parent_id":"2271","type":"3","zip_code":"510107","name":"武侯区","deleted":"0"},{"id":"2276","parent_id":"2271","type":"3","zip_code":"510108","name":"成华区","deleted":"0"},{"id":"2277","parent_id":"2271","type":"3","zip_code":"510112","name":"龙泉驿区","deleted":"0"},{"id":"2278","parent_id":"2271","type":"3","zip_code":"510113","name":"青白江区","deleted":"0"},{"id":"2279","parent_id":"2271","type":"3","zip_code":"510114","name":"新都区","deleted":"0"},{"id":"2280","parent_id":"2271","type":"3","zip_code":"510115","name":"温江区","deleted":"0"},{"id":"2281","parent_id":"2271","type":"3","zip_code":"510122","name":"双流区","deleted":"0"},{"id":"2282","parent_id":"2271","type":"3","zip_code":"510121","name":"金堂县","deleted":"0"},{"id":"2283","parent_id":"2271","type":"3","zip_code":"510124","name":"郫县","deleted":"0"},{"id":"2284","parent_id":"2271","type":"3","zip_code":"510129","name":"大邑县","deleted":"0"},{"id":"2285","parent_id":"2271","type":"3","zip_code":"510131","name":"蒲江县","deleted":"0"},{"id":"2286","parent_id":"2271","type":"3","zip_code":"510132","name":"新津县","deleted":"0"},{"id":"2287","parent_id":"2271","type":"3","zip_code":"510181","name":"都江堰市","deleted":"0"},{"id":"2288","parent_id":"2271","type":"3","zip_code":"510182","name":"彭州市","deleted":"0"},{"id":"2289","parent_id":"2271","type":"3","zip_code":"510183","name":"邛崃市","deleted":"0"},{"id":"2290","parent_id":"2271","type":"3","zip_code":"510184","name":"崇州市","deleted":"0"},{"id":"2291","parent_id":"2271","type":"3","zip_code":"510185","name":"简阳市","deleted":"0"}]},{"id":"2305","parent_id":"2270","type":"2","zip_code":"510500","name":"泸州市","deleted":"0","subarea":[{"id":"2306","parent_id":"2305","type":"3","zip_code":"510502","name":"江阳区","deleted":"0"},{"id":"2307","parent_id":"2305","type":"3","zip_code":"510503","name":"纳溪区","deleted":"0"},{"id":"2308","parent_id":"2305","type":"3","zip_code":"510504","name":"龙马潭区","deleted":"0"},{"id":"2309","parent_id":"2305","type":"3","zip_code":"510521","name":"泸县","deleted":"0"},{"id":"2310","parent_id":"2305","type":"3","zip_code":"510522","name":"合江县","deleted":"0"},{"id":"2311","parent_id":"2305","type":"3","zip_code":"510524","name":"叙永县","deleted":"0"},{"id":"2312","parent_id":"2305","type":"3","zip_code":"510525","name":"古蔺县","deleted":"0"}]},{"id":"2313","parent_id":"2270","type":"2","zip_code":"510600","name":"德阳市","deleted":"0","subarea":[{"id":"2314","parent_id":"2313","type":"3","zip_code":"510603","name":"旌阳区","deleted":"0"},{"id":"2315","parent_id":"2313","type":"3","zip_code":"510623","name":"中江县","deleted":"0"},{"id":"2316","parent_id":"2313","type":"3","zip_code":"510626","name":"罗江县","deleted":"0"},{"id":"2317","parent_id":"2313","type":"3","zip_code":"510681","name":"广汉市","deleted":"0"},{"id":"2318","parent_id":"2313","type":"3","zip_code":"510682","name":"什邡市","deleted":"0"},{"id":"2319","parent_id":"2313","type":"3","zip_code":"510683","name":"绵竹市","deleted":"0"}]},{"id":"2320","parent_id":"2270","type":"2","zip_code":"510700","name":"绵阳市","deleted":"0","subarea":[{"id":"2321","parent_id":"2320","type":"3","zip_code":"510703","name":"涪城区","deleted":"0"},{"id":"2322","parent_id":"2320","type":"3","zip_code":"510704","name":"游仙区","deleted":"0"},{"id":"2323","parent_id":"2320","type":"3","zip_code":"510724","name":"安州区","deleted":"0"},{"id":"2324","parent_id":"2320","type":"3","zip_code":"510722","name":"三台县","deleted":"0"},{"id":"2325","parent_id":"2320","type":"3","zip_code":"510723","name":"盐亭县","deleted":"0"},{"id":"2326","parent_id":"2320","type":"3","zip_code":"510725","name":"梓潼县","deleted":"0"},{"id":"2327","parent_id":"2320","type":"3","zip_code":"510726","name":"北川县","deleted":"0"},{"id":"2328","parent_id":"2320","type":"3","zip_code":"510727","name":"平武县","deleted":"0"},{"id":"2329","parent_id":"2320","type":"3","zip_code":"510781","name":"江油市","deleted":"0"}]},{"id":"2330","parent_id":"2270","type":"2","zip_code":"510800","name":"广元市","deleted":"0","subarea":[{"id":"2331","parent_id":"2330","type":"3","zip_code":"510802","name":"利州区","deleted":"0"},{"id":"2332","parent_id":"2330","type":"3","zip_code":"510811","name":"昭化区","deleted":"0"},{"id":"2333","parent_id":"2330","type":"3","zip_code":"510812","name":"朝天区","deleted":"0"},{"id":"2334","parent_id":"2330","type":"3","zip_code":"510821","name":"旺苍县","deleted":"0"},{"id":"2335","parent_id":"2330","type":"3","zip_code":"510822","name":"青川县","deleted":"0"},{"id":"2336","parent_id":"2330","type":"3","zip_code":"510823","name":"剑阁县","deleted":"0"},{"id":"2337","parent_id":"2330","type":"3","zip_code":"510824","name":"苍溪县","deleted":"0"}]},{"id":"2338","parent_id":"2270","type":"2","zip_code":"510900","name":"遂宁市","deleted":"0","subarea":[{"id":"2339","parent_id":"2338","type":"3","zip_code":"510903","name":"船山区","deleted":"0"},{"id":"2340","parent_id":"2338","type":"3","zip_code":"510904","name":"安居区","deleted":"0"},{"id":"2341","parent_id":"2338","type":"3","zip_code":"510921","name":"蓬溪县","deleted":"0"},{"id":"2342","parent_id":"2338","type":"3","zip_code":"510922","name":"射洪县","deleted":"0"},{"id":"2343","parent_id":"2338","type":"3","zip_code":"510923","name":"大英县","deleted":"0"}]},{"id":"2344","parent_id":"2270","type":"2","zip_code":"511000","name":"内江市","deleted":"0","subarea":[{"id":"2345","parent_id":"2344","type":"3","zip_code":"511002","name":"市中区","deleted":"0"},{"id":"2346","parent_id":"2344","type":"3","zip_code":"511011","name":"东兴区","deleted":"0"},{"id":"2347","parent_id":"2344","type":"3","zip_code":"511024","name":"威远县","deleted":"0"},{"id":"2348","parent_id":"2344","type":"3","zip_code":"511025","name":"资中县","deleted":"0"},{"id":"2349","parent_id":"2344","type":"3","zip_code":"511028","name":"隆昌县","deleted":"0"}]},{"id":"2350","parent_id":"2270","type":"2","zip_code":"511100","name":"乐山市","deleted":"0","subarea":[{"id":"2351","parent_id":"2350","type":"3","zip_code":"511102","name":"市中区","deleted":"0"},{"id":"2352","parent_id":"2350","type":"3","zip_code":"511111","name":"沙湾区","deleted":"0"},{"id":"2353","parent_id":"2350","type":"3","zip_code":"511112","name":"五通桥区","deleted":"0"},{"id":"2354","parent_id":"2350","type":"3","zip_code":"511113","name":"金口河区","deleted":"0"},{"id":"2355","parent_id":"2350","type":"3","zip_code":"511123","name":"犍为县","deleted":"0"},{"id":"2356","parent_id":"2350","type":"3","zip_code":"511124","name":"井研县","deleted":"0"},{"id":"2357","parent_id":"2350","type":"3","zip_code":"511126","name":"夹江县","deleted":"0"},{"id":"2358","parent_id":"2350","type":"3","zip_code":"511129","name":"沐川县","deleted":"0"},{"id":"2359","parent_id":"2350","type":"3","zip_code":"511132","name":"峨边县","deleted":"0"},{"id":"2360","parent_id":"2350","type":"3","zip_code":"511133","name":"马边县","deleted":"0"},{"id":"2361","parent_id":"2350","type":"3","zip_code":"511181","name":"峨眉山市","deleted":"0"}]},{"id":"2362","parent_id":"2270","type":"2","zip_code":"511300","name":"南充市","deleted":"0","subarea":[{"id":"2363","parent_id":"2362","type":"3","zip_code":"511302","name":"顺庆区","deleted":"0"},{"id":"2364","parent_id":"2362","type":"3","zip_code":"511303","name":"高坪区","deleted":"0"},{"id":"2365","parent_id":"2362","type":"3","zip_code":"511304","name":"嘉陵区","deleted":"0"},{"id":"2366","parent_id":"2362","type":"3","zip_code":"511321","name":"南部县","deleted":"0"},{"id":"2367","parent_id":"2362","type":"3","zip_code":"511322","name":"营山县","deleted":"0"},{"id":"2368","parent_id":"2362","type":"3","zip_code":"511323","name":"蓬安县","deleted":"0"},{"id":"2369","parent_id":"2362","type":"3","zip_code":"511324","name":"仪陇县","deleted":"0"},{"id":"2370","parent_id":"2362","type":"3","zip_code":"511325","name":"西充县","deleted":"0"},{"id":"2371","parent_id":"2362","type":"3","zip_code":"511381","name":"阆中市","deleted":"0"}]},{"id":"2372","parent_id":"2270","type":"2","zip_code":"511400","name":"眉山市","deleted":"0","subarea":[{"id":"2373","parent_id":"2372","type":"3","zip_code":"511402","name":"东坡区","deleted":"0"},{"id":"2374","parent_id":"2372","type":"3","zip_code":"511403","name":"彭山区","deleted":"0"},{"id":"2375","parent_id":"2372","type":"3","zip_code":"511421","name":"仁寿县","deleted":"0"},{"id":"2376","parent_id":"2372","type":"3","zip_code":"511423","name":"洪雅县","deleted":"0"},{"id":"2377","parent_id":"2372","type":"3","zip_code":"511424","name":"丹棱县","deleted":"0"},{"id":"2378","parent_id":"2372","type":"3","zip_code":"511425","name":"青神县","deleted":"0"}]},{"id":"2379","parent_id":"2270","type":"2","zip_code":"511500","name":"宜宾市","deleted":"0","subarea":[{"id":"2380","parent_id":"2379","type":"3","zip_code":"511502","name":"翠屏区","deleted":"0"},{"id":"2381","parent_id":"2379","type":"3","zip_code":"511503","name":"南溪区","deleted":"0"},{"id":"2382","parent_id":"2379","type":"3","zip_code":"511521","name":"宜宾县","deleted":"0"},{"id":"2383","parent_id":"2379","type":"3","zip_code":"511523","name":"江安县","deleted":"0"},{"id":"2384","parent_id":"2379","type":"3","zip_code":"511524","name":"长宁县","deleted":"0"},{"id":"2385","parent_id":"2379","type":"3","zip_code":"511525","name":"高县","deleted":"0"},{"id":"2386","parent_id":"2379","type":"3","zip_code":"511526","name":"珙县","deleted":"0"},{"id":"2387","parent_id":"2379","type":"3","zip_code":"511527","name":"筠连县","deleted":"0"},{"id":"2388","parent_id":"2379","type":"3","zip_code":"511528","name":"兴文县","deleted":"0"},{"id":"2389","parent_id":"2379","type":"3","zip_code":"511529","name":"屏山县","deleted":"0"}]},{"id":"2390","parent_id":"2270","type":"2","zip_code":"511600","name":"广安市","deleted":"0","subarea":[{"id":"2391","parent_id":"2390","type":"3","zip_code":"511602","name":"广安区","deleted":"0"},{"id":"2392","parent_id":"2390","type":"3","zip_code":"511603","name":"前锋区","deleted":"0"},{"id":"2393","parent_id":"2390","type":"3","zip_code":"511621","name":"岳池县","deleted":"0"},{"id":"2394","parent_id":"2390","type":"3","zip_code":"511622","name":"武胜县","deleted":"0"},{"id":"2395","parent_id":"2390","type":"3","zip_code":"511623","name":"邻水县","deleted":"0"},{"id":"2396","parent_id":"2390","type":"3","zip_code":"511681","name":"华蓥市","deleted":"0"}]},{"id":"2397","parent_id":"2270","type":"2","zip_code":"511700","name":"达州市","deleted":"0","subarea":[{"id":"2398","parent_id":"2397","type":"3","zip_code":"511702","name":"通川区","deleted":"0"},{"id":"2399","parent_id":"2397","type":"3","zip_code":"511703","name":"达川区","deleted":"0"},{"id":"2400","parent_id":"2397","type":"3","zip_code":"511722","name":"宣汉县","deleted":"0"},{"id":"2401","parent_id":"2397","type":"3","zip_code":"511723","name":"开江县","deleted":"0"},{"id":"2402","parent_id":"2397","type":"3","zip_code":"511724","name":"大竹县","deleted":"0"},{"id":"2403","parent_id":"2397","type":"3","zip_code":"511725","name":"渠县","deleted":"0"},{"id":"2404","parent_id":"2397","type":"3","zip_code":"511781","name":"万源市","deleted":"0"}]},{"id":"2414","parent_id":"2270","type":"2","zip_code":"511900","name":"巴中市","deleted":"0","subarea":[{"id":"2415","parent_id":"2414","type":"3","zip_code":"511902","name":"巴州区","deleted":"0"},{"id":"2416","parent_id":"2414","type":"3","zip_code":"511903","name":"恩阳区","deleted":"0"},{"id":"2417","parent_id":"2414","type":"3","zip_code":"511921","name":"通江县","deleted":"0"},{"id":"2418","parent_id":"2414","type":"3","zip_code":"511922","name":"南江县","deleted":"0"},{"id":"2419","parent_id":"2414","type":"3","zip_code":"511923","name":"平昌县","deleted":"0"}]}]},{"id":"2475","parent_id":"0","type":"1","zip_code":"520000","name":"贵州省","deleted":"0","subarea":[{"id":"2476","parent_id":"2475","type":"2","zip_code":"520100","name":"贵阳市","deleted":"0","subarea":[{"id":"2477","parent_id":"2476","type":"3","zip_code":"520102","name":"南明区","deleted":"0"},{"id":"2478","parent_id":"2476","type":"3","zip_code":"520103","name":"云岩区","deleted":"0"},{"id":"2479","parent_id":"2476","type":"3","zip_code":"520111","name":"花溪区","deleted":"0"},{"id":"2480","parent_id":"2476","type":"3","zip_code":"520112","name":"乌当区","deleted":"0"},{"id":"2481","parent_id":"2476","type":"3","zip_code":"520113","name":"白云区","deleted":"0"},{"id":"2482","parent_id":"2476","type":"3","zip_code":"520115","name":"观山湖区","deleted":"0"},{"id":"2483","parent_id":"2476","type":"3","zip_code":"520121","name":"开阳县","deleted":"0"},{"id":"2484","parent_id":"2476","type":"3","zip_code":"520122","name":"息烽县","deleted":"0"},{"id":"2485","parent_id":"2476","type":"3","zip_code":"520123","name":"修文县","deleted":"0"},{"id":"2486","parent_id":"2476","type":"3","zip_code":"520181","name":"清镇市","deleted":"0"}]},{"id":"2487","parent_id":"2475","type":"2","zip_code":"520200","name":"六盘水市","deleted":"0","subarea":[{"id":"2488","parent_id":"2487","type":"3","zip_code":"520201","name":"钟山区","deleted":"0"},{"id":"2489","parent_id":"2487","type":"3","zip_code":"520203","name":"六枝特区","deleted":"0"},{"id":"2490","parent_id":"2487","type":"3","zip_code":"520221","name":"水城县","deleted":"0"},{"id":"2491","parent_id":"2487","type":"3","zip_code":"520222","name":"盘县","deleted":"0"}]},{"id":"2492","parent_id":"2475","type":"2","zip_code":"520300","name":"遵义市","deleted":"0","subarea":[{"id":"2493","parent_id":"2492","type":"3","zip_code":"520302","name":"红花岗区","deleted":"0"},{"id":"2494","parent_id":"2492","type":"3","zip_code":"520303","name":"汇川区","deleted":"0"},{"id":"2495","parent_id":"2492","type":"3","zip_code":"520301","name":"播州区","deleted":"0"},{"id":"2496","parent_id":"2492","type":"3","zip_code":"520322","name":"桐梓县","deleted":"0"},{"id":"2497","parent_id":"2492","type":"3","zip_code":"520323","name":"绥阳县","deleted":"0"},{"id":"2498","parent_id":"2492","type":"3","zip_code":"520324","name":"正安县","deleted":"0"},{"id":"2499","parent_id":"2492","type":"3","zip_code":"520325","name":"道真县","deleted":"0"},{"id":"2500","parent_id":"2492","type":"3","zip_code":"520326","name":"务川县","deleted":"0"},{"id":"2501","parent_id":"2492","type":"3","zip_code":"520327","name":"凤冈县","deleted":"0"},{"id":"2502","parent_id":"2492","type":"3","zip_code":"520328","name":"湄潭县","deleted":"0"},{"id":"2503","parent_id":"2492","type":"3","zip_code":"520329","name":"余庆县","deleted":"0"},{"id":"2504","parent_id":"2492","type":"3","zip_code":"520330","name":"习水县","deleted":"0"},{"id":"2505","parent_id":"2492","type":"3","zip_code":"520381","name":"赤水市","deleted":"0"},{"id":"2506","parent_id":"2492","type":"3","zip_code":"520382","name":"仁怀市","deleted":"0"}]},{"id":"2523","parent_id":"2475","type":"2","zip_code":"520600","name":"铜仁市","deleted":"0","subarea":[{"id":"2524","parent_id":"2523","type":"3","zip_code":"520602","name":"碧江区","deleted":"0"},{"id":"2525","parent_id":"2523","type":"3","zip_code":"520603","name":"万山区","deleted":"0"},{"id":"2526","parent_id":"2523","type":"3","zip_code":"520621","name":"江口县","deleted":"0"},{"id":"2527","parent_id":"2523","type":"3","zip_code":"520622","name":"玉屏县","deleted":"0"},{"id":"2528","parent_id":"2523","type":"3","zip_code":"520623","name":"石阡县","deleted":"0"},{"id":"2529","parent_id":"2523","type":"3","zip_code":"520624","name":"思南县","deleted":"0"},{"id":"2530","parent_id":"2523","type":"3","zip_code":"520625","name":"印江县","deleted":"0"},{"id":"2531","parent_id":"2523","type":"3","zip_code":"520626","name":"德江县","deleted":"0"},{"id":"2532","parent_id":"2523","type":"3","zip_code":"520627","name":"沿河县","deleted":"0"},{"id":"2533","parent_id":"2523","type":"3","zip_code":"520628","name":"松桃县","deleted":"0"}]},{"id":"2534","parent_id":"2475","type":"2","zip_code":"522300","name":"黔西南州","deleted":"0","subarea":[{"id":"2535","parent_id":"2534","type":"3","zip_code":"522301","name":"兴义市","deleted":"0"},{"id":"2536","parent_id":"2534","type":"3","zip_code":"522322","name":"兴仁县","deleted":"0"},{"id":"2537","parent_id":"2534","type":"3","zip_code":"522323","name":"普安县","deleted":"0"},{"id":"2538","parent_id":"2534","type":"3","zip_code":"522324","name":"晴隆县","deleted":"0"},{"id":"2539","parent_id":"2534","type":"3","zip_code":"522325","name":"贞丰县","deleted":"0"},{"id":"2540","parent_id":"2534","type":"3","zip_code":"522326","name":"望谟县","deleted":"0"},{"id":"2541","parent_id":"2534","type":"3","zip_code":"522327","name":"册亨县","deleted":"0"},{"id":"2542","parent_id":"2534","type":"3","zip_code":"522328","name":"安龙县","deleted":"0"}]},{"id":"2543","parent_id":"2475","type":"2","zip_code":"522600","name":"黔东南州","deleted":"0","subarea":[{"id":"2544","parent_id":"2543","type":"3","zip_code":"522601","name":"凯里市","deleted":"0"},{"id":"2545","parent_id":"2543","type":"3","zip_code":"522622","name":"黄平县","deleted":"0"},{"id":"2546","parent_id":"2543","type":"3","zip_code":"522623","name":"施秉县","deleted":"0"},{"id":"2547","parent_id":"2543","type":"3","zip_code":"522624","name":"三穗县","deleted":"0"},{"id":"2548","parent_id":"2543","type":"3","zip_code":"522625","name":"镇远县","deleted":"0"},{"id":"2549","parent_id":"2543","type":"3","zip_code":"522626","name":"岑巩县","deleted":"0"},{"id":"2550","parent_id":"2543","type":"3","zip_code":"522627","name":"天柱县","deleted":"0"},{"id":"2551","parent_id":"2543","type":"3","zip_code":"522628","name":"锦屏县","deleted":"0"},{"id":"2552","parent_id":"2543","type":"3","zip_code":"522629","name":"剑河县","deleted":"0"},{"id":"2553","parent_id":"2543","type":"3","zip_code":"522630","name":"台江县","deleted":"0"},{"id":"2554","parent_id":"2543","type":"3","zip_code":"522631","name":"黎平县","deleted":"0"},{"id":"2555","parent_id":"2543","type":"3","zip_code":"522632","name":"榕江县","deleted":"0"},{"id":"2556","parent_id":"2543","type":"3","zip_code":"522633","name":"从江县","deleted":"0"},{"id":"2557","parent_id":"2543","type":"3","zip_code":"522634","name":"雷山县","deleted":"0"},{"id":"2558","parent_id":"2543","type":"3","zip_code":"522635","name":"麻江县","deleted":"0"},{"id":"2559","parent_id":"2543","type":"3","zip_code":"522636","name":"丹寨县","deleted":"0"}]}]},{"id":"2573","parent_id":"0","type":"1","zip_code":"530000","name":"云南省","deleted":"0","subarea":[{"id":"2574","parent_id":"2573","type":"2","zip_code":"530100","name":"昆明市","deleted":"0","subarea":[{"id":"2575","parent_id":"2574","type":"3","zip_code":"530102","name":"五华区","deleted":"0"},{"id":"2576","parent_id":"2574","type":"3","zip_code":"530103","name":"盘龙区","deleted":"0"},{"id":"2577","parent_id":"2574","type":"3","zip_code":"530111","name":"官渡区","deleted":"0"},{"id":"2578","parent_id":"2574","type":"3","zip_code":"530112","name":"西山区","deleted":"0"},{"id":"2579","parent_id":"2574","type":"3","zip_code":"530113","name":"东川区","deleted":"0"},{"id":"2580","parent_id":"2574","type":"3","zip_code":"530114","name":"呈贡区","deleted":"0"},{"id":"2581","parent_id":"2574","type":"3","zip_code":"530122","name":"晋宁县","deleted":"0"},{"id":"2582","parent_id":"2574","type":"3","zip_code":"530124","name":"富民县","deleted":"0"},{"id":"2583","parent_id":"2574","type":"3","zip_code":"530125","name":"宜良县","deleted":"0"},{"id":"2584","parent_id":"2574","type":"3","zip_code":"530126","name":"石林县","deleted":"0"},{"id":"2585","parent_id":"2574","type":"3","zip_code":"530127","name":"嵩明县","deleted":"0"},{"id":"2586","parent_id":"2574","type":"3","zip_code":"530128","name":"禄劝县","deleted":"0"},{"id":"2587","parent_id":"2574","type":"3","zip_code":"530129","name":"寻甸县","deleted":"0"},{"id":"2588","parent_id":"2574","type":"3","zip_code":"530181","name":"安宁市","deleted":"0"}]},{"id":"2599","parent_id":"2573","type":"2","zip_code":"530400","name":"玉溪市","deleted":"0","subarea":[{"id":"2600","parent_id":"2599","type":"3","zip_code":"530402","name":"红塔区","deleted":"0"},{"id":"2601","parent_id":"2599","type":"3","zip_code":"530421","name":"江川区","deleted":"0"},{"id":"2602","parent_id":"2599","type":"3","zip_code":"530422","name":"澄江县","deleted":"0"},{"id":"2603","parent_id":"2599","type":"3","zip_code":"530423","name":"通海县","deleted":"0"},{"id":"2604","parent_id":"2599","type":"3","zip_code":"530424","name":"华宁县","deleted":"0"},{"id":"2605","parent_id":"2599","type":"3","zip_code":"530425","name":"易门县","deleted":"0"},{"id":"2606","parent_id":"2599","type":"3","zip_code":"530426","name":"峨山县","deleted":"0"},{"id":"2607","parent_id":"2599","type":"3","zip_code":"530427","name":"新平县","deleted":"0"},{"id":"2608","parent_id":"2599","type":"3","zip_code":"530428","name":"元江县","deleted":"0"}]},{"id":"2615","parent_id":"2573","type":"2","zip_code":"530600","name":"昭通市","deleted":"0","subarea":[{"id":"2616","parent_id":"2615","type":"3","zip_code":"530602","name":"昭阳区","deleted":"0"},{"id":"2617","parent_id":"2615","type":"3","zip_code":"530621","name":"鲁甸县","deleted":"0"},{"id":"2618","parent_id":"2615","type":"3","zip_code":"530622","name":"巧家县","deleted":"0"},{"id":"2619","parent_id":"2615","type":"3","zip_code":"530623","name":"盐津县","deleted":"0"},{"id":"2620","parent_id":"2615","type":"3","zip_code":"530624","name":"大关县","deleted":"0"},{"id":"2621","parent_id":"2615","type":"3","zip_code":"530625","name":"永善县","deleted":"0"},{"id":"2622","parent_id":"2615","type":"3","zip_code":"530626","name":"绥江县","deleted":"0"},{"id":"2623","parent_id":"2615","type":"3","zip_code":"530627","name":"镇雄县","deleted":"0"},{"id":"2624","parent_id":"2615","type":"3","zip_code":"530628","name":"彝良县","deleted":"0"},{"id":"2625","parent_id":"2615","type":"3","zip_code":"530629","name":"威信县","deleted":"0"},{"id":"2626","parent_id":"2615","type":"3","zip_code":"530630","name":"水富县","deleted":"0"}]},{"id":"2627","parent_id":"2573","type":"2","zip_code":"530700","name":"丽江市","deleted":"0","subarea":[{"id":"2628","parent_id":"2627","type":"3","zip_code":"530702","name":"古城区","deleted":"0"},{"id":"2629","parent_id":"2627","type":"3","zip_code":"530721","name":"玉龙县","deleted":"0"},{"id":"2630","parent_id":"2627","type":"3","zip_code":"530722","name":"永胜县","deleted":"0"},{"id":"2631","parent_id":"2627","type":"3","zip_code":"530723","name":"华坪县","deleted":"0"},{"id":"2632","parent_id":"2627","type":"3","zip_code":"530724","name":"宁蒗县","deleted":"0"}]},{"id":"2653","parent_id":"2573","type":"2","zip_code":"532300","name":"楚雄州","deleted":"0","subarea":[{"id":"2654","parent_id":"2653","type":"3","zip_code":"532301","name":"楚雄市","deleted":"0"},{"id":"2655","parent_id":"2653","type":"3","zip_code":"532322","name":"双柏县","deleted":"0"},{"id":"2656","parent_id":"2653","type":"3","zip_code":"532323","name":"牟定县","deleted":"0"},{"id":"2657","parent_id":"2653","type":"3","zip_code":"532324","name":"南华县","deleted":"0"},{"id":"2658","parent_id":"2653","type":"3","zip_code":"532325","name":"姚安县","deleted":"0"},{"id":"2659","parent_id":"2653","type":"3","zip_code":"532326","name":"大姚县","deleted":"0"},{"id":"2660","parent_id":"2653","type":"3","zip_code":"532327","name":"永仁县","deleted":"0"},{"id":"2661","parent_id":"2653","type":"3","zip_code":"532328","name":"元谋县","deleted":"0"},{"id":"2662","parent_id":"2653","type":"3","zip_code":"532329","name":"武定县","deleted":"0"},{"id":"2663","parent_id":"2653","type":"3","zip_code":"532331","name":"禄丰县","deleted":"0"}]},{"id":"2678","parent_id":"2573","type":"2","zip_code":"532600","name":"文山州","deleted":"0","subarea":[{"id":"2679","parent_id":"2678","type":"3","zip_code":"532601","name":"文山县","deleted":"0"},{"id":"2680","parent_id":"2678","type":"3","zip_code":"532622","name":"砚山县","deleted":"0"},{"id":"2681","parent_id":"2678","type":"3","zip_code":"532623","name":"西畴县","deleted":"0"},{"id":"2682","parent_id":"2678","type":"3","zip_code":"532624","name":"麻栗坡县","deleted":"0"},{"id":"2683","parent_id":"2678","type":"3","zip_code":"532625","name":"马关县","deleted":"0"},{"id":"2684","parent_id":"2678","type":"3","zip_code":"532626","name":"丘北县","deleted":"0"},{"id":"2685","parent_id":"2678","type":"3","zip_code":"532627","name":"广南县","deleted":"0"},{"id":"2686","parent_id":"2678","type":"3","zip_code":"532628","name":"富宁县","deleted":"0"}]},{"id":"2691","parent_id":"2573","type":"2","zip_code":"532900","name":"大理州","deleted":"0","subarea":[{"id":"2692","parent_id":"2691","type":"3","zip_code":"532901","name":"大理市","deleted":"0"},{"id":"2693","parent_id":"2691","type":"3","zip_code":"532922","name":"漾濞县","deleted":"0"},{"id":"2694","parent_id":"2691","type":"3","zip_code":"532923","name":"祥云县","deleted":"0"},{"id":"2695","parent_id":"2691","type":"3","zip_code":"532924","name":"宾川县","deleted":"0"},{"id":"2696","parent_id":"2691","type":"3","zip_code":"532925","name":"弥渡县","deleted":"0"},{"id":"2697","parent_id":"2691","type":"3","zip_code":"532926","name":"南涧县","deleted":"0"},{"id":"2698","parent_id":"2691","type":"3","zip_code":"532927","name":"巍山县","deleted":"0"},{"id":"2699","parent_id":"2691","type":"3","zip_code":"532928","name":"永平县","deleted":"0"},{"id":"2700","parent_id":"2691","type":"3","zip_code":"532929","name":"云龙县","deleted":"0"},{"id":"2701","parent_id":"2691","type":"3","zip_code":"532930","name":"洱源县","deleted":"0"},{"id":"2702","parent_id":"2691","type":"3","zip_code":"532931","name":"剑川县","deleted":"0"},{"id":"2703","parent_id":"2691","type":"3","zip_code":"532932","name":"鹤庆县","deleted":"0"}]}]},{"id":"2801","parent_id":"0","type":"1","zip_code":"610000","name":"陕西省","deleted":"0","subarea":[{"id":"2802","parent_id":"2801","type":"2","zip_code":"610100","name":"西安市","deleted":"0","subarea":[{"id":"2803","parent_id":"2802","type":"3","zip_code":"610102","name":"新城区","deleted":"0"},{"id":"2804","parent_id":"2802","type":"3","zip_code":"610103","name":"碑林区","deleted":"0"},{"id":"2805","parent_id":"2802","type":"3","zip_code":"610104","name":"莲湖区","deleted":"0"},{"id":"2806","parent_id":"2802","type":"3","zip_code":"610111","name":"灞桥区","deleted":"0"},{"id":"2807","parent_id":"2802","type":"3","zip_code":"610112","name":"未央区","deleted":"0"},{"id":"2808","parent_id":"2802","type":"3","zip_code":"610113","name":"雁塔区","deleted":"0"},{"id":"2809","parent_id":"2802","type":"3","zip_code":"610114","name":"阎良区","deleted":"0"},{"id":"2810","parent_id":"2802","type":"3","zip_code":"610115","name":"临潼区","deleted":"0"},{"id":"2811","parent_id":"2802","type":"3","zip_code":"610116","name":"长安区","deleted":"0"},{"id":"2812","parent_id":"2802","type":"3","zip_code":"610117","name":"高陵区","deleted":"0"},{"id":"2813","parent_id":"2802","type":"3","zip_code":"610122","name":"蓝田县","deleted":"0"},{"id":"2814","parent_id":"2802","type":"3","zip_code":"610124","name":"周至县","deleted":"0"},{"id":"2815","parent_id":"2802","type":"3","zip_code":"610125","name":"户县","deleted":"0"}]},{"id":"2821","parent_id":"2801","type":"2","zip_code":"610300","name":"宝鸡市","deleted":"0","subarea":[{"id":"2822","parent_id":"2821","type":"3","zip_code":"610302","name":"渭滨区","deleted":"0"},{"id":"2823","parent_id":"2821","type":"3","zip_code":"610303","name":"金台区","deleted":"0"},{"id":"2824","parent_id":"2821","type":"3","zip_code":"610304","name":"陈仓区","deleted":"0"},{"id":"2825","parent_id":"2821","type":"3","zip_code":"610322","name":"凤翔县","deleted":"0"},{"id":"2826","parent_id":"2821","type":"3","zip_code":"610323","name":"岐山县","deleted":"0"},{"id":"2827","parent_id":"2821","type":"3","zip_code":"610324","name":"扶风县","deleted":"0"},{"id":"2828","parent_id":"2821","type":"3","zip_code":"610326","name":"眉县","deleted":"0"},{"id":"2829","parent_id":"2821","type":"3","zip_code":"610327","name":"陇县","deleted":"0"},{"id":"2830","parent_id":"2821","type":"3","zip_code":"610328","name":"千阳县","deleted":"0"},{"id":"2831","parent_id":"2821","type":"3","zip_code":"610329","name":"麟游县","deleted":"0"},{"id":"2832","parent_id":"2821","type":"3","zip_code":"610330","name":"凤县","deleted":"0"},{"id":"2833","parent_id":"2821","type":"3","zip_code":"610331","name":"太白县","deleted":"0"}]},{"id":"2834","parent_id":"2801","type":"2","zip_code":"610400","name":"咸阳市","deleted":"0","subarea":[{"id":"2835","parent_id":"2834","type":"3","zip_code":"610402","name":"秦都区","deleted":"0"},{"id":"2836","parent_id":"2834","type":"3","zip_code":"610403","name":"杨陵区","deleted":"0"},{"id":"2837","parent_id":"2834","type":"3","zip_code":"610404","name":"渭城区","deleted":"0"},{"id":"2838","parent_id":"2834","type":"3","zip_code":"610422","name":"三原县","deleted":"0"},{"id":"2839","parent_id":"2834","type":"3","zip_code":"610423","name":"泾阳县","deleted":"0"},{"id":"2840","parent_id":"2834","type":"3","zip_code":"610424","name":"乾县","deleted":"0"},{"id":"2841","parent_id":"2834","type":"3","zip_code":"610425","name":"礼泉县","deleted":"0"},{"id":"2842","parent_id":"2834","type":"3","zip_code":"610426","name":"永寿县","deleted":"0"},{"id":"2843","parent_id":"2834","type":"3","zip_code":"610427","name":"彬县","deleted":"0"},{"id":"2844","parent_id":"2834","type":"3","zip_code":"610428","name":"长武县","deleted":"0"},{"id":"2845","parent_id":"2834","type":"3","zip_code":"610429","name":"旬邑县","deleted":"0"},{"id":"2846","parent_id":"2834","type":"3","zip_code":"610430","name":"淳化县","deleted":"0"},{"id":"2847","parent_id":"2834","type":"3","zip_code":"610431","name":"武功县","deleted":"0"},{"id":"2848","parent_id":"2834","type":"3","zip_code":"610481","name":"兴平市","deleted":"0"}]},{"id":"2849","parent_id":"2801","type":"2","zip_code":"610500","name":"渭南市","deleted":"0","subarea":[{"id":"2850","parent_id":"2849","type":"3","zip_code":"610502","name":"临渭区","deleted":"0"},{"id":"2851","parent_id":"2849","type":"3","zip_code":"610521","name":"华州区","deleted":"0"},{"id":"2852","parent_id":"2849","type":"3","zip_code":"610522","name":"潼关县","deleted":"0"},{"id":"2853","parent_id":"2849","type":"3","zip_code":"610523","name":"大荔县","deleted":"0"},{"id":"2854","parent_id":"2849","type":"3","zip_code":"610524","name":"合阳县","deleted":"0"},{"id":"2855","parent_id":"2849","type":"3","zip_code":"610525","name":"澄城县","deleted":"0"},{"id":"2856","parent_id":"2849","type":"3","zip_code":"610526","name":"蒲城县","deleted":"0"},{"id":"2857","parent_id":"2849","type":"3","zip_code":"610527","name":"白水县","deleted":"0"},{"id":"2858","parent_id":"2849","type":"3","zip_code":"610528","name":"富平县","deleted":"0"},{"id":"2859","parent_id":"2849","type":"3","zip_code":"610581","name":"韩城市","deleted":"0"},{"id":"2860","parent_id":"2849","type":"3","zip_code":"610582","name":"华阴市","deleted":"0"}]},{"id":"2861","parent_id":"2801","type":"2","zip_code":"610600","name":"延安市","deleted":"0","subarea":[{"id":"2862","parent_id":"2861","type":"3","zip_code":"610602","name":"宝塔区","deleted":"0"},{"id":"2863","parent_id":"2861","type":"3","zip_code":"610624","name":"安塞区","deleted":"0"},{"id":"2864","parent_id":"2861","type":"3","zip_code":"610621","name":"延长县","deleted":"0"},{"id":"2865","parent_id":"2861","type":"3","zip_code":"610622","name":"延川县","deleted":"0"},{"id":"2866","parent_id":"2861","type":"3","zip_code":"610623","name":"子长县","deleted":"0"},{"id":"2867","parent_id":"2861","type":"3","zip_code":"610625","name":"志丹县","deleted":"0"},{"id":"2868","parent_id":"2861","type":"3","zip_code":"610626","name":"吴起县","deleted":"0"},{"id":"2869","parent_id":"2861","type":"3","zip_code":"610627","name":"甘泉县","deleted":"0"},{"id":"2870","parent_id":"2861","type":"3","zip_code":"610628","name":"富县","deleted":"0"},{"id":"2871","parent_id":"2861","type":"3","zip_code":"610629","name":"洛川县","deleted":"0"},{"id":"2872","parent_id":"2861","type":"3","zip_code":"610630","name":"宜川县","deleted":"0"},{"id":"2873","parent_id":"2861","type":"3","zip_code":"610631","name":"黄龙县","deleted":"0"},{"id":"2874","parent_id":"2861","type":"3","zip_code":"610632","name":"黄陵县","deleted":"0"}]},{"id":"2875","parent_id":"2801","type":"2","zip_code":"610700","name":"汉中市","deleted":"0","subarea":[{"id":"2876","parent_id":"2875","type":"3","zip_code":"610702","name":"汉台区","deleted":"0"},{"id":"2877","parent_id":"2875","type":"3","zip_code":"610721","name":"南郑县","deleted":"0"},{"id":"2878","parent_id":"2875","type":"3","zip_code":"610722","name":"城固县","deleted":"0"},{"id":"2879","parent_id":"2875","type":"3","zip_code":"610723","name":"洋县","deleted":"0"},{"id":"2880","parent_id":"2875","type":"3","zip_code":"610724","name":"西乡县","deleted":"0"},{"id":"2881","parent_id":"2875","type":"3","zip_code":"610725","name":"勉县","deleted":"0"},{"id":"2882","parent_id":"2875","type":"3","zip_code":"610726","name":"宁强县","deleted":"0"},{"id":"2883","parent_id":"2875","type":"3","zip_code":"610727","name":"略阳县","deleted":"0"},{"id":"2884","parent_id":"2875","type":"3","zip_code":"610728","name":"镇巴县","deleted":"0"},{"id":"2885","parent_id":"2875","type":"3","zip_code":"610729","name":"留坝县","deleted":"0"},{"id":"2886","parent_id":"2875","type":"3","zip_code":"610730","name":"佛坪县","deleted":"0"}]}]},{"id":"2919","parent_id":"0","type":"1","zip_code":"620000","name":"甘肃省","deleted":"0","subarea":[{"id":"2920","parent_id":"2919","type":"2","zip_code":"620100","name":"兰州市","deleted":"0","subarea":[{"id":"2921","parent_id":"2920","type":"3","zip_code":"620102","name":"城关区","deleted":"0"},{"id":"2922","parent_id":"2920","type":"3","zip_code":"620103","name":"七里河区","deleted":"0"},{"id":"2923","parent_id":"2920","type":"3","zip_code":"620104","name":"西固区","deleted":"0"},{"id":"2924","parent_id":"2920","type":"3","zip_code":"620105","name":"安宁区","deleted":"0"},{"id":"2925","parent_id":"2920","type":"3","zip_code":"620111","name":"红古区","deleted":"0"},{"id":"2926","parent_id":"2920","type":"3","zip_code":"620121","name":"永登县","deleted":"0"},{"id":"2927","parent_id":"2920","type":"3","zip_code":"620122","name":"皋兰县","deleted":"0"},{"id":"2928","parent_id":"2920","type":"3","zip_code":"620123","name":"榆中县","deleted":"0"}]},{"id":"2940","parent_id":"2919","type":"2","zip_code":"620500","name":"天水市","deleted":"0","subarea":[{"id":"2941","parent_id":"2940","type":"3","zip_code":"620502","name":"秦州区","deleted":"0"},{"id":"2942","parent_id":"2940","type":"3","zip_code":"620503","name":"麦积区","deleted":"0"},{"id":"2943","parent_id":"2940","type":"3","zip_code":"620521","name":"清水县","deleted":"0"},{"id":"2944","parent_id":"2940","type":"3","zip_code":"620522","name":"秦安县","deleted":"0"},{"id":"2945","parent_id":"2940","type":"3","zip_code":"620523","name":"甘谷县","deleted":"0"},{"id":"2946","parent_id":"2940","type":"3","zip_code":"620524","name":"武山县","deleted":"0"},{"id":"2947","parent_id":"2940","type":"3","zip_code":"620525","name":"张家川县","deleted":"0"}]},{"id":"2968","parent_id":"2919","type":"2","zip_code":"620900","name":"酒泉市","deleted":"0","subarea":[{"id":"2969","parent_id":"2968","type":"3","zip_code":"620902","name":"肃州区","deleted":"0"},{"id":"2970","parent_id":"2968","type":"3","zip_code":"620921","name":"金塔县","deleted":"0"},{"id":"2971","parent_id":"2968","type":"3","zip_code":"620922","name":"瓜州县","deleted":"0"},{"id":"2972","parent_id":"2968","type":"3","zip_code":"620923","name":"肃北县","deleted":"0"},{"id":"2973","parent_id":"2968","type":"3","zip_code":"620924","name":"阿克塞县","deleted":"0"},{"id":"2974","parent_id":"2968","type":"3","zip_code":"620981","name":"玉门市","deleted":"0"},{"id":"2975","parent_id":"2968","type":"3","zip_code":"620982","name":"敦煌市","deleted":"0"}]},{"id":"2976","parent_id":"2919","type":"2","zip_code":"621000","name":"庆阳市","deleted":"0","subarea":[{"id":"2977","parent_id":"2976","type":"3","zip_code":"621002","name":"西峰区","deleted":"0"},{"id":"2978","parent_id":"2976","type":"3","zip_code":"621021","name":"庆城县","deleted":"0"},{"id":"2979","parent_id":"2976","type":"3","zip_code":"621022","name":"环县","deleted":"0"},{"id":"2980","parent_id":"2976","type":"3","zip_code":"621023","name":"华池县","deleted":"0"},{"id":"2981","parent_id":"2976","type":"3","zip_code":"621024","name":"合水县","deleted":"0"},{"id":"2982","parent_id":"2976","type":"3","zip_code":"621025","name":"正宁县","deleted":"0"},{"id":"2983","parent_id":"2976","type":"3","zip_code":"621026","name":"宁县","deleted":"0"},{"id":"2984","parent_id":"2976","type":"3","zip_code":"621027","name":"镇原县","deleted":"0"}]},{"id":"2993","parent_id":"2919","type":"2","zip_code":"621200","name":"陇南市","deleted":"0","subarea":[{"id":"2994","parent_id":"2993","type":"3","zip_code":"621202","name":"武都区","deleted":"0"},{"id":"2995","parent_id":"2993","type":"3","zip_code":"621221","name":"成县","deleted":"0"},{"id":"2996","parent_id":"2993","type":"3","zip_code":"621222","name":"文县","deleted":"0"},{"id":"2997","parent_id":"2993","type":"3","zip_code":"621223","name":"宕昌县","deleted":"0"},{"id":"2998","parent_id":"2993","type":"3","zip_code":"621224","name":"康县","deleted":"0"},{"id":"2999","parent_id":"2993","type":"3","zip_code":"621225","name":"西和县","deleted":"0"},{"id":"3000","parent_id":"2993","type":"3","zip_code":"621226","name":"礼县","deleted":"0"},{"id":"3001","parent_id":"2993","type":"3","zip_code":"621227","name":"徽县","deleted":"0"},{"id":"3002","parent_id":"2993","type":"3","zip_code":"621228","name":"两当县","deleted":"0"}]}]},{"id":"3021","parent_id":"0","type":"1","zip_code":"630000","name":"青海省","deleted":"0","subarea":[{"id":"3022","parent_id":"3021","type":"2","zip_code":"630100","name":"西宁市","deleted":"0","subarea":[{"id":"3023","parent_id":"3022","type":"3","zip_code":"630102","name":"城东区","deleted":"0"},{"id":"3024","parent_id":"3022","type":"3","zip_code":"630103","name":"城中区","deleted":"0"},{"id":"3025","parent_id":"3022","type":"3","zip_code":"630104","name":"城西区","deleted":"0"},{"id":"3026","parent_id":"3022","type":"3","zip_code":"630105","name":"城北区","deleted":"0"},{"id":"3027","parent_id":"3022","type":"3","zip_code":"630121","name":"大通县","deleted":"0"},{"id":"3028","parent_id":"3022","type":"3","zip_code":"630122","name":"湟中县","deleted":"0"},{"id":"3029","parent_id":"3022","type":"3","zip_code":"630123","name":"湟源县","deleted":"0"}]}]},{"id":"3073","parent_id":"0","type":"1","zip_code":"640000","name":"宁夏回族自治区","deleted":"0","subarea":[{"id":"3074","parent_id":"3073","type":"2","zip_code":"640100","name":"银川市","deleted":"0","subarea":[{"id":"3075","parent_id":"3074","type":"3","zip_code":"640104","name":"兴庆区","deleted":"0"},{"id":"3076","parent_id":"3074","type":"3","zip_code":"640105","name":"西夏区","deleted":"0"},{"id":"3077","parent_id":"3074","type":"3","zip_code":"640106","name":"金凤区","deleted":"0"},{"id":"3078","parent_id":"3074","type":"3","zip_code":"640121","name":"永宁县","deleted":"0"},{"id":"3079","parent_id":"3074","type":"3","zip_code":"640122","name":"贺兰县","deleted":"0"},{"id":"3080","parent_id":"3074","type":"3","zip_code":"640181","name":"灵武市","deleted":"0"}]}]}]}